2015060100 - Mensagem METAR de 'SBKG' para 01/06/2015 as 00(UTC) não localizada na base de dados da REDEMET
2015060101 - Mensagem METAR de 'SBKG' para 01/06/2015 as 01(UTC) não localizada na base de dados da REDEMET
2015060102 - Mensagem METAR de 'SBKG' para 01/06/2015 as 02(UTC) não localizada na base de dados da REDEMET
2015060103 - Mensagem METAR de 'SBKG' para 01/06/2015 as 03(UTC) não localizada na base de dados da REDEMET
2015060103 - SPECI SBKG 010315Z 10003KT 9999 FEW012 21/20 Q1017=
2015060104 - METAR SBKG 010400Z 16002KT CAVOK 20/19 Q1016=
2015060105 - METAR SBKG 010500Z 16004KT CAVOK 20/19 Q1015=
2015060106 - METAR SBKG 010600Z 12002KT 9999 FEW011 20/19 Q1015=
2015060107 - METAR SBKG 010700Z 00000KT 9999 SCT010 20/19 Q1015=
2015060108 - METAR SBKG 010800Z 27003KT 9999 SCT009 19/19 Q1016=
2015060109 - METAR SBKG 010900Z 25001KT 9999 SCT011 20/19 Q1016=
2015060110 - METAR SBKG 011000Z 18003KT 9999 SCT015 21/20 Q1017=
2015060111 - METAR SBKG 011100Z 15008KT 9999 BKN015 23/20 Q1018=
2015060112 - METAR SBKG 011200Z 17010KT 9999 BKN020 24/19 Q1018=
2015060113 - METAR SBKG 011300Z 16010KT 9999 BKN020 27/19 Q1018=
2015060114 - METAR SBKG 011400Z 15008KT 9999 FEW015 BKN020 26/19 Q1017=
2015060115 - METAR SBKG 011500Z 12008KT 9999 BKN020 26/19 Q1016=
2015060116 - METAR SBKG 011600Z 15007KT 9999 BKN030 BKN080 27/20 Q1015=
2015060117 - METAR SBKG 011700Z 09011KT 9999 BKN030 26/21 Q1015=
2015060118 - METAR SBKG 011800Z 09012KT 9999 SCT030 25/21 Q1015=
2015060119 - METAR SBKG 011900Z 08012KT 9999 SCT014 SCT080 23/21 Q1015=
2015060120 - METAR SBKG 012000Z 08011KT 9999 BKN010 BKN080 22/21 Q1015=
2015060121 - METAR SBKG 012100Z 08009KT 9999 BKN009 BKN080 22/21 Q1016=
2015060122 - METAR SBKG 012200Z 09008KT 9999 SCT007 SCT010 22/21 Q1016=
2015060123 - Mensagem METAR de 'SBKG' para 01/06/2015 as 23(UTC) não localizada na base de dados da REDEMET
2015060200 - Mensagem METAR de 'SBKG' para 02/06/2015 as 00(UTC) não localizada na base de dados da REDEMET
2015060201 - Mensagem METAR de 'SBKG' para 02/06/2015 as 01(UTC) não localizada na base de dados da REDEMET
2015060202 - Mensagem METAR de 'SBKG' para 02/06/2015 as 02(UTC) não localizada na base de dados da REDEMET
2015060203 - Mensagem METAR de 'SBKG' para 02/06/2015 as 03(UTC) não localizada na base de dados da REDEMET
2015060203 - SPECI SBKG 020315Z 07006KT 9999 FEW006 SCT015 21/20 Q1016=
2015060204 - METAR SBKG 020400Z 08006KT 9999 FEW006 SCT015 21/20 Q1016=
2015060205 - METAR SBKG 020500Z 10005KT 8000 SCT006 BKN015 21/21 Q1015=
2015060206 - METAR SBKG 020600Z 08004KT 5000 BR SCT002 BKN010 21/21 Q1015=
2015060207 - METAR SBKG 020700Z 08003KT 5000 BR SCT004 BKN010 21/21 Q1015=
2015060208 - METAR SBKG 020800Z 09003KT 8000 SCT005 BKN010 21/21 Q1015=
2015060209 - METAR SBKG 020900Z 13004KT 9999 SCT010 BKN015 22/20 Q1016=
2015060210 - METAR SBKG 021000Z 13004KT 3000 -RA BKN015 22/21 Q1016=
2015060210 - SPECI SBKG 021015Z 15005KT 9999 SCT009 BKN015 22/21 Q1017=
2015060211 - METAR SBKG 021100Z 14007KT 9999 FEW011 BKN016 23/21 Q1017=
2015060212 - METAR SBKG 021200Z 16009KT 9999 BKN020 25/21 Q1018=
2015060213 - METAR SBKG 021300Z 14008KT 9999 BKN018 26/20 Q1017=
2015060214 - METAR SBKG 021400Z 16011KT 9999 SCT030 28/20 Q1017=
2015060215 - METAR SBKG 021500Z 15009KT 9999 BKN040 28/19 Q1016=
2015060216 - METAR SBKG 021600Z 13009KT 9999 BKN045 30/19 Q1015=
2015060217 - METAR SBKG 021700Z 15009KT 120V180 9999 SCT044 FEW050TCU 29/19 Q1014=
2015060218 - METAR SBKG 021800Z 13008KT 080V160 9999 SCT049 30/19 Q1014=
2015060219 - METAR SBKG 021900Z 10013KT 9999 BKN035 28/21 Q1014=
2015060220 - METAR SBKG 022000Z 10010KT CAVOK 26/21 Q1015=
2015060221 - METAR SBKG 022100Z 09008KT 9999 FEW033 25/21 Q1015=
2015060222 - Mensagem METAR de 'SBKG' para 02/06/2015 as 22(UTC) não localizada na base de dados da REDEMET
2015060223 - Mensagem METAR de 'SBKG' para 02/06/2015 as 23(UTC) não localizada na base de dados da REDEMET
2015060300 - Mensagem METAR de 'SBKG' para 03/06/2015 as 00(UTC) não localizada na base de dados da REDEMET
2015060301 - Mensagem METAR de 'SBKG' para 03/06/2015 as 01(UTC) não localizada na base de dados da REDEMET
2015060302 - Mensagem METAR de 'SBKG' para 03/06/2015 as 02(UTC) não localizada na base de dados da REDEMET
2015060303 - Mensagem METAR de 'SBKG' para 03/06/2015 as 03(UTC) não localizada na base de dados da REDEMET
2015060303 - SPECI SBKG 030315Z 13005KT 9999 SCT013 21/20 Q1017=
2015060304 - METAR SBKG 030400Z 14004KT 9999 SCT013 22/20 Q1016=
2015060305 - METAR SBKG 030500Z 13004KT 9999 SCT015 21/20 Q1016=
2015060306 - METAR SBKG 030600Z 13002KT 9999 SCT015 21/20 Q1016=
2015060307 - METAR SBKG 030700Z 11002KT 9999 FEW015 20/19 Q1016=
2015060308 - METAR SBKG 030800Z 14002KT 9999 FEW010 20/19 Q1016=
2015060309 - METAR SBKG 030900Z 16003KT CAVOK 20/19 Q1016=
2015060310 - METAR SBKG 031000Z 16004KT CAVOK 22/20 Q1017=
2015060311 - METAR SBKG 031100Z 17008KT 140V220 9999 SCT015 24/20 Q1018=
2015060312 - METAR SBKG 031200Z 16010KT 9999 BKN024 25/19 Q1018=
2015060313 - METAR SBKG 031300Z 14011KT 9999 SCT032 27/19 Q1018=
2015060314 - METAR SBKG 031400Z 16011KT 9999 BKN042 27/18 Q1017=
2015060315 - METAR SBKG 031500Z 13011KT 080V170 9999 SCT046 29/18 Q1017=
2015060316 - METAR SBKG 031600Z 13011KT CAVOK 29/18 Q1016=
2015060317 - METAR SBKG 031700Z 11016KT 9999 BKN040 30/20 Q1015=
2015060318 - METAR SBKG 031800Z 10016KT 9999 BKN021 26/21 Q1015=
2015060319 - METAR SBKG 031900Z 11014KT 9999 SCT018 BKN021 25/21 Q1015=
2015060320 - METAR SBKG 032000Z 11012KT 9999 SCT009 BKN020 23/21 Q1016=
2015060321 - METAR SBKG 032100Z 12012KT 5000 -DZ SCT007 BKN015 22/21 Q1017=
2015060322 - Mensagem METAR de 'SBKG' para 03/06/2015 as 22(UTC) não localizada na base de dados da REDEMET
2015060323 - Mensagem METAR de 'SBKG' para 03/06/2015 as 23(UTC) não localizada na base de dados da REDEMET
2015060400 - Mensagem METAR de 'SBKG' para 04/06/2015 as 00(UTC) não localizada na base de dados da REDEMET
2015060401 - Mensagem METAR de 'SBKG' para 04/06/2015 as 01(UTC) não localizada na base de dados da REDEMET
2015060402 - Mensagem METAR de 'SBKG' para 04/06/2015 as 02(UTC) não localizada na base de dados da REDEMET
2015060403 - Mensagem METAR de 'SBKG' para 04/06/2015 as 03(UTC) não localizada na base de dados da REDEMET
2015060403 - SPECI SBKG 040315Z 14003KT 9999 VCSH SCT002 BKN018 21/21 Q1018=
2015060404 - METAR SBKG 040400Z 15003KT 9999 -RA BKN016 BKN020 21/21 Q1017=
2015060405 - METAR SBKG 040500Z 14005KT 9000 SCT004 BKN010 BKN015 21/21 Q1017=
2015060406 - METAR SBKG 040600Z 12006KT 6000 -RA SCT004 BKN012 BKN016 22/21 Q1017=
2015060407 - METAR SBKG 040700Z 11009KT 5000 -RA BR SCT004 BKN012 BKN015 21/21 Q1017=
2015060408 - METAR SBKG 040800Z 10010KT 4000 -RA BR BKN003 BKN008 BKN020 20/20 Q1017=
2015060409 - METAR SBKG 040900Z 10012KT 4000 RA BR BKN003 BKN010 BKN017 20/20 Q1017=
2015060410 - METAR SBKG 041000Z 10011KT 3000 -RA SCT005 BKN010 21/20 Q1018 RERA=
2015060411 - METAR SBKG 041100Z 09007KT 4000 -RA SCT007 BKN010 21/20 Q1019=
2015060411 - SPECI SBKG 041140Z 09008KT 5000 BR SCT010 BKN015 21/20 Q1019=
2015060412 - METAR SBKG 041200Z 09008KT 9999 BKN018 22/21 Q1019=
2015060413 - METAR SBKG 041300Z 11010KT 9999 BKN018 24/21 Q1019=
2015060414 - METAR SBKG 041400Z 11010KT 9999 BKN020 24/21 Q1018=
2015060415 - METAR SBKG 041500Z 09012KT 9999 BKN020 BKN090 25/21 Q1017=
2015060416 - METAR SBKG 041600Z 12010KT 9999 SCT015 BKN020 27/21 Q1016=
2015060417 - METAR SBKG 041700Z 12013KT 9999 BKN020 FEW025TCU 27/20 Q1016=
2015060418 - METAR SBKG 041800Z 10011KT 9999 BKN020 27/21 Q1015=
2015060419 - METAR SBKG 041900Z 12012KT 9999 SCT020 27/20 Q1015=
2015060420 - METAR SBKG 042000Z 14010KT 9999 FEW020 26/19 Q1016=
2015060421 - METAR SBKG 042100Z 10007KT 9999 FEW020 25/21 Q1016=
2015060422 - METAR SBKG 042200Z 10007KT 9999 SCT020 23/20 Q1017=
2015060423 - METAR SBKG 042300Z 10008KT 9999 FEW015 23/20 Q1018=
2015060500 - METAR SBKG 050000Z 10004KT 9999 SCT015 22/20 Q1018=
2015060501 - METAR SBKG 050100Z 12004KT 9999 SCT015 22/20 Q1019=
2015060502 - METAR SBKG 050200Z 13005KT 9999 SCT015 22/21 Q1019=
2015060503 - METAR SBKG 050300Z 10010KT 9999 SCT015 22/20 Q1018=
2015060504 - METAR SBKG 050400Z 14002KT 9999 SCT015 21/21 Q1018=
2015060505 - METAR SBKG 050500Z 00000KT 9999 BKN015 21/20 Q1017=
2015060506 - METAR SBKG 050600Z 11004KT 9999 BKN015 21/20 Q1017=
2015060507 - METAR SBKG 050700Z 00000KT 9999 BKN015 21/20 Q1018=
2015060508 - METAR SBKG 050800Z 18004KT 9999 BKN015 21/21 Q1017=
2015060509 - METAR SBKG 050900Z 18003KT 6000 SCT015 BKN018 21/21 Q1017=
2015060510 - METAR SBKG 051000Z 18003KT 9999 SCT007 SCT022 22/21 Q1018=
2015060511 - METAR SBKG 051100Z 12010KT 9999 SCT013 BKN020 24/21 Q1018=
2015060512 - METAR SBKG 051200Z 12008KT 9999 SCT017 SCT027 24/20 Q1019=
2015060513 - METAR SBKG 051300Z 11010KT 8000 VCSH SCT022 SCT027 FEW032TCU 26/20 Q1018=
2015060514 - METAR SBKG 051400Z 11009KT 9999 BKN023 26/20 Q1018=
2015060515 - METAR SBKG 051500Z 15009KT 9999 SCT030 27/20 Q1017=
2015060516 - METAR SBKG 051600Z 13008KT 9999 SCT030 28/19 Q1016=
2015060517 - METAR SBKG 051700Z 11010KT 9999 BKN040 29/19 Q1015=
2015060518 - METAR SBKG 051800Z 11013KT 9999 BKN040 28/20 Q1015=
2015060519 - METAR SBKG 051900Z 11012KT 9999 FEW030 27/20 Q1015=
2015060520 - METAR SBKG 052000Z 10013KT 9999 FEW030 26/20 Q1015=
2015060521 - METAR SBKG 052100Z 11011KT 9999 SCT025 25/20 Q1016=
2015060522 - Mensagem METAR de 'SBKG' para 05/06/2015 as 22(UTC) não localizada na base de dados da REDEMET
2015060523 - Mensagem METAR de 'SBKG' para 05/06/2015 as 23(UTC) não localizada na base de dados da REDEMET
2015060600 - Mensagem METAR de 'SBKG' para 06/06/2015 as 00(UTC) não localizada na base de dados da REDEMET
2015060601 - METAR SBKG 060100Z 11007KT 9999 SCT022 23/20 Q1017=
2015060602 - METAR SBKG 060200Z 10007KT 9999 FEW019 BKN100 22/20 Q1017=
2015060603 - METAR SBKG 060300Z 10006KT 9999 SCT013 BKN100 22/21 Q1017=
2015060604 - METAR SBKG 060400Z 11005KT 9999 SCT019 SCT100 21/21 Q1017=
2015060605 - METAR SBKG 060500Z 12003KT 9999 SCT023 SCT080 21/21 Q1016=
2015060606 - METAR SBKG 060600Z 10008KT 3000 -RA SCT005 BKN009 BKN014 21/20 Q1016=
2015060607 - METAR SBKG 060700Z 15006KT 9999 SCT005 SCT007 BKN027 21/20 Q1016=
2015060608 - METAR SBKG 060800Z 18005KT 9999 SCT005 SCT010 BKN023 21/20 Q1016=
2015060609 - METAR SBKG 060900Z 14002KT 5000 BR SCT009 SCT010 BKN032 21/20 Q1016=
2015060610 - METAR SBKG 061000Z 14003KT 2000 -RA BR SCT004 BKN010 OVC070 21/21 Q1017=
2015060611 - METAR SBKG 061100Z 16005KT 5000 BR SCT004 BKN010 BKN015 21/21 Q1017=
2015060612 - METAR SBKG 061200Z 11006KT 9999 SCT010 BKN015 24/21 Q1017=
2015060613 - METAR SBKG 061300Z 11009KT 9999 SCT015 BKN020 25/21 Q1017=
2015060614 - METAR SBKG 061400Z 11012KT 9999 SCT015 BKN020 26/21 Q1016=
2015060615 - METAR SBKG 061500Z 12016KT 6000 -RA SCT010 BKN015 23/21 Q1016=
2015060616 - METAR SBKG 061600Z 11008KT 9999 SCT013 FEW025TCU SCT080 25/22 Q1015=
2015060617 - METAR SBKG 061700Z 14015KT 9999 VCSH SCT012 SCT020 BKN080 22/21 Q1015=
2015060618 - METAR SBKG 061800Z 07006KT 9999 FEW012 SCT020 BKN080 22/21 Q1014=
2015060619 - METAR SBKG 061900Z 08004KT 9999 SCT020 23/21 Q1014=
2015060620 - METAR SBKG 062000Z 09008KT 9999 VCSH SCT012 SCT020 BKN080 23/22 Q1015=
2015060621 - METAR SBKG 062100Z 13009KT 9999 SCT010 SCT018 BKN080 22/21 Q1015=
2015060622 - Mensagem METAR de 'SBKG' para 06/06/2015 as 22(UTC) não localizada na base de dados da REDEMET
2015060623 - Mensagem METAR de 'SBKG' para 06/06/2015 as 23(UTC) não localizada na base de dados da REDEMET
2015060700 - Mensagem METAR de 'SBKG' para 07/06/2015 as 00(UTC) não localizada na base de dados da REDEMET
2015060701 - Mensagem METAR de 'SBKG' para 07/06/2015 as 01(UTC) não localizada na base de dados da REDEMET
2015060702 - Mensagem METAR de 'SBKG' para 07/06/2015 as 02(UTC) não localizada na base de dados da REDEMET
2015060703 - Mensagem METAR de 'SBKG' para 07/06/2015 as 03(UTC) não localizada na base de dados da REDEMET
2015060703 - SPECI SBKG 070315Z 15002KT 9999 SCT015 21/20 Q1017=
2015060704 - METAR SBKG 070400Z 19002KT 9999 SCT015 21/20 Q1016=
2015060705 - METAR SBKG 070500Z 00000KT 7000 -RA SCT006 BKN013 21/21 Q1016=
2015060706 - METAR SBKG 070600Z 22002KT 8000 SCT006 BKN010 21/20 Q1016=
2015060707 - METAR SBKG 070700Z 19003KT 8000 SCT006 BKN010 21/21 Q1016=
2015060708 - METAR SBKG 070800Z 21002KT 5000 -RA BR SCT005 BKN010 21/21 Q1016=
2015060709 - METAR SBKG 070900Z 16005KT 5000 BR SCT005 BKN010 OVC070 21/20 Q1016=
2015060710 - METAR SBKG 071000Z 16006KT 9999 SCT007 BKN014 21/21 Q1017=
2015060711 - METAR SBKG 071100Z 15006KT 8000 SCT007 BKN015 22/21 Q1017=
2015060711 - SPECI SBKG 071110Z 15006KT 4000 -RA BR SCT008 BKN015 22/21 Q1017=
2015060712 - METAR SBKG 071200Z 11009KT 3000 -RA BR SCT006 BKN013 22/21 Q1017=
2015060713 - METAR SBKG 071300Z 11008KT 3000 -RA BR SCT007 BKN015 22/21 Q1017=
2015060714 - METAR SBKG 071400Z 12011KT 4000 -RA BR BKN009 22/22 Q1017=
2015060715 - METAR SBKG 071500Z 10014KT 7000 -RA SCT006 BKN013 BKN080 22/22 Q1016=
2015060716 - METAR SBKG 071600Z 13010KT 6000 -RA BKN010 BKN015 24/22 Q1016=
2015060716 - SPECI SBKG 071640Z 11010KT 8000 SCT010 BKN018 22/20 Q1015=
2015060717 - METAR COR SBKG 071700Z 10008KT 8000 SCT010 BKN018 23/22 Q1015=
2015060718 - METAR SBKG 071800Z 08007KT 9999 SCT010 BKN018 24/22 Q1015=
2015060718 - SPECI SBKG 071830Z 11008KT 3000 -RA SCT007 BKN010 23/22 Q1015=
2015060719 - METAR SBKG 071900Z 09012KT 4000 RA SCT007 BKN010 21/21 Q1015=
2015060719 - SPECI SBKG 071930Z 11009KT 5000 -RA SCT010 BKN015 22/20 Q1016 RERA=
2015060720 - METAR SBKG 072000Z 12007KT 6000 SCT010 BKN015 22/21 Q1016 RERA=
2015060721 - METAR SBKG 072100Z 10006KT 8000 SCT015 BKN018 22/22 Q1016=
2015060722 - Mensagem METAR de 'SBKG' para 07/06/2015 as 22(UTC) não localizada na base de dados da REDEMET
2015060723 - Mensagem METAR de 'SBKG' para 07/06/2015 as 23(UTC) não localizada na base de dados da REDEMET
2015060800 - Mensagem METAR de 'SBKG' para 08/06/2015 as 00(UTC) não localizada na base de dados da REDEMET
2015060801 - Mensagem METAR de 'SBKG' para 08/06/2015 as 01(UTC) não localizada na base de dados da REDEMET
2015060802 - Mensagem METAR de 'SBKG' para 08/06/2015 as 02(UTC) não localizada na base de dados da REDEMET
2015060803 - Mensagem METAR de 'SBKG' para 08/06/2015 as 03(UTC) não localizada na base de dados da REDEMET
2015060803 - SPECI SBKG 080315Z 11010KT 9999 BKN007 21/21 Q1017=
2015060804 - METAR SBKG 080400Z 11009KT 9999 SCT007 BKN013 21/21 Q1017=
2015060805 - METAR SBKG 080500Z 12012KT 9999 SCT007 SCT015 21/20 Q1016=
2015060806 - METAR SBKG 080600Z 13006KT 9999 SCT005 BKN009 21/20 Q1016=
2015060807 - METAR SBKG 080700Z 13008KT 9999 FEW005 BKN010 BKN080 20/20 Q1016=
2015060807 - SPECI SBKG 080725Z 13006KT 9999 SCT015 BKN080 20/20 Q1016=
2015060808 - METAR SBKG 080800Z 11008KT 9999 SCT009 BKN080 20/19 Q1016=
2015060809 - METAR SBKG 080900Z 09006KT 9999 SCT013 20/19 Q1016=
2015060810 - METAR SBKG 081000Z 08005KT 9999 SCT016 FEW026TCU 21/20 Q1017=
2015060811 - METAR SBKG 081100Z 09008KT 9999 FEW007 BKN015 22/20 Q1017=
2015060812 - METAR SBKG 081200Z 09007KT 9999 BKN020 SCT026 21/20 Q1018=
2015060813 - METAR SBKG 081300Z 09007KT 9999 SCT011 SCT016 BKN070 23/21 Q1018=
2015060814 - METAR SBKG 081400Z 11009KT 070V130 9999 BKN019 FEW030TCU SCT080 25/20 Q1017=
2015060815 - METAR SBKG 081500Z 09008KT 060V120 9999 BKN024 25/21 Q1016=
2015060816 - METAR SBKG 081600Z 10010KT 9999 BKN025 27/20 Q1015=
2015060817 - METAR SBKG 081700Z 13012KT 9999 BKN030 27/20 Q1015=
2015060818 - METAR SBKG 081800Z 12011KT 9999 SCT040 27/18 Q1015=
2015060819 - METAR SBKG 081900Z 10014KT 9999 SCT040 26/20 Q1015=
2015060820 - METAR SBKG 082000Z 10012KT 9999 SCT030 25/19 Q1015=
2015060821 - METAR SBKG 082100Z 10010KT 9999 SCT020 24/20 Q1016=
2015060822 - METAR SBKG 082200Z 09007KT 9999 FEW020 23/19 Q1016=
2015060823 - METAR SBKG 082300Z 09005KT 9999 FEW020 22/20 Q1017=
2015060900 - Mensagem METAR de 'SBKG' para 09/06/2015 as 00(UTC) não localizada na base de dados da REDEMET
2015060901 - Mensagem METAR de 'SBKG' para 09/06/2015 as 01(UTC) não localizada na base de dados da REDEMET
2015060901 - SPECI SBKG 090115Z 09004KT 9999 FEW020 21/20 Q1017=
2015060902 - METAR SBKG 090200Z 10003KT 9999 FEW026 21/20 Q1017=
2015060903 - METAR SBKG 090300Z 00000KT 9999 BKN027 21/20 Q1017=
2015060904 - METAR SBKG 090400Z 14002KT 9999 SCT010 BKN016 21/20 Q1016=
2015060905 - METAR SBKG 090500Z 11003KT 9999 FEW010 20/20 Q1016=
2015060906 - METAR SBKG 090600Z 00000KT 9999 FEW006 SCT010 20/20 Q1016=
2015060907 - METAR SBKG 090700Z 16003KT 8000 FEW005 SCT013 20/20 Q1015=
2015060908 - METAR SBKG 090800Z 13003KT 100V160 9999 SCT010 BKN018 20/20 Q1016=
2015060909 - METAR SBKG 090900Z 11002KT 9999 FEW011 SCT026 21/20 Q1016=
2015060910 - METAR SBKG 091000Z 11006KT 9999 SCT020 22/21 Q1017=
2015060911 - METAR SBKG 091100Z 12010KT 9999 BKN020 23/21 Q1017=
2015060912 - METAR SBKG 091200Z 10011KT 9999 BKN025 25/20 Q1017=
2015060913 - METAR SBKG 091300Z 12010KT 9999 BKN030 25/21 Q1017=
2015060914 - METAR SBKG 091400Z 11009KT 9999 BKN030 26/20 Q1017=
2015060915 - METAR SBKG 091500Z 11010KT 9999 BKN030 26/20 Q1016=
2015060916 - METAR SBKG 091600Z 10007KT 9999 SCT030 BKN100 27/21 Q1015=
2015060917 - METAR SBKG 091700Z 10012KT 9999 SCT030 BKN100 27/21 Q1014=
2015060918 - METAR SBKG 091800Z 12008KT 9999 SCT030 BKN100 27/21 Q1015=
2015060919 - METAR SBKG 091900Z 10010KT 9999 FEW015 SCT025 BKN100 27/21 Q1015=
2015060920 - METAR SBKG 092000Z 10008KT 9999 SCT020 BKN100 26/21 Q1015=
2015060921 - METAR SBKG 092100Z 10010KT 9999 SCT015 SCT020 BKN080 25/21 Q1015=
2015060922 - METAR SBKG 092200Z 10008KT 9999 SCT015 24/21 Q1016=
2015060923 - Mensagem METAR de 'SBKG' para 09/06/2015 as 23(UTC) não localizada na base de dados da REDEMET
2015061000 - Mensagem METAR de 'SBKG' para 10/06/2015 as 00(UTC) não localizada na base de dados da REDEMET
2015061001 - Mensagem METAR de 'SBKG' para 10/06/2015 as 01(UTC) não localizada na base de dados da REDEMET
2015061002 - Mensagem METAR de 'SBKG' para 10/06/2015 as 02(UTC) não localizada na base de dados da REDEMET
2015061003 - Mensagem METAR de 'SBKG' para 10/06/2015 as 03(UTC) não localizada na base de dados da REDEMET
2015061003 - SPECI SBKG 100315Z 09004KT 9999 BKN015 22/21 Q1017=
2015061004 - METAR SBKG 100400Z 12004KT 9999 BKN015 22/21 Q1016=
2015061005 - METAR SBKG 100500Z 13005KT 9999 SCT015 21/21 Q1016=
2015061006 - METAR SBKG 100600Z 12006KT 9999 BKN015 22/20 Q1016=
2015061007 - METAR SBKG 100700Z 14003KT 9999 BKN015 21/20 Q1016=
2015061008 - METAR SBKG 100800Z 14004KT 9999 BKN015 21/20 Q1016=
2015061009 - METAR SBKG 100900Z 18002KT 9999 SCT015 BKN018 22/21 Q1016=
2015061010 - METAR SBKG 101000Z 16004KT 9999 SCT013 BKN027 22/21 Q1017=
2015061011 - METAR SBKG 101100Z 14008KT 9999 SCT015 BKN027 23/21 Q1018=
2015061012 - METAR SBKG 101200Z 13011KT 9999 SCT019 BKN030 25/21 Q1018=
2015061013 - METAR SBKG 101300Z 15012KT 9999 BKN021 25/21 Q1018=
2015061014 - METAR SBKG 101400Z 11012KT 9999 SCT018 BKN021 26/21 Q1017=
2015061015 - METAR SBKG 101500Z 12010KT 9999 BKN030 27/21 Q1016=
2015061016 - METAR SBKG 101600Z 13011KT 9999 BKN025 SCT080 27/20 Q1016=
2015061017 - METAR SBKG 101700Z 14010KT 9999 SCT030 BKN080 28/20 Q1015=
2015061018 - METAR SBKG 101800Z 12011KT 9999 BKN030 BKN080 27/19 Q1015=
2015061019 - METAR SBKG 101900Z 11010KT 9999 FEW027 SCT080 26/20 Q1015=
2015061020 - METAR SBKG 102000Z 11009KT CAVOK 26/19 Q1016=
2015061021 - METAR SBKG 102100Z 10008KT CAVOK 24/19 Q1016=
2015061022 - METAR SBKG 102200Z 11009KT CAVOK 23/19 Q1017=
2015061023 - METAR SBKG 102300Z 11009KT CAVOK 23/19 Q1017=
2015061100 - Mensagem METAR de 'SBKG' para 11/06/2015 as 00(UTC) não localizada na base de dados da REDEMET
2015061101 - Mensagem METAR de 'SBKG' para 11/06/2015 as 01(UTC) não localizada na base de dados da REDEMET
2015061102 - Mensagem METAR de 'SBKG' para 11/06/2015 as 02(UTC) não localizada na base de dados da REDEMET
2015061103 - Mensagem METAR de 'SBKG' para 11/06/2015 as 03(UTC) não localizada na base de dados da REDEMET
2015061103 - SPECI SBKG 110315Z 16006KT CAVOK 21/19 Q1017=
2015061104 - METAR SBKG 110400Z 15004KT 9999 FEW015 20/19 Q1016=
2015061105 - METAR SBKG 110500Z 11002KT 9999 FEW013 20/19 Q1016=
2015061106 - METAR SBKG 110600Z 15005KT 9999 FEW011 20/19 Q1016=
2015061107 - METAR SBKG 110700Z 13004KT 9999 FEW009 20/19 Q1016=
2015061108 - METAR SBKG 110800Z 10003KT 9999 FEW015 20/20 Q1016=
2015061109 - METAR SBKG 110900Z 14005KT 9999 FEW016 20/19 Q1016=
2015061110 - METAR SBKG 111000Z 13007KT 9999 SCT016 22/20 Q1017=
2015061111 - METAR SBKG 111100Z 14013KT 9999 SCT016 23/20 Q1017=
2015061112 - METAR SBKG 111200Z 11015KT 9999 SCT020 25/19 Q1017=
2015061113 - METAR SBKG 111300Z 14013KT 9999 SCT020 25/19 Q1017=
2015061114 - METAR SBKG 111400Z 13014KT 9999 SCT025 27/19 Q1017=
2015061115 - METAR SBKG 111500Z 12014KT 9999 SCT025 27/19 Q1016=
2015061116 - METAR SBKG 111600Z 12012KT 9999 SCT040 28/19 Q1015=
2015061117 - METAR SBKG 111700Z 11012KT 9999 BKN030 28/19 Q1014=
2015061118 - METAR SBKG 111800Z 10014KT 9999 SCT041 28/20 Q1014=
2015061119 - METAR SBKG 111900Z 11011KT 9999 FEW040 28/19 Q1015=
2015061120 - METAR SBKG 112000Z 09009KT 9999 FEW025 26/19 Q1015=
2015061121 - METAR SBKG 112100Z 09009KT 9999 FEW024 25/20 Q1016=
2015061122 - Mensagem METAR de 'SBKG' para 11/06/2015 as 22(UTC) não localizada na base de dados da REDEMET
2015061123 - Mensagem METAR de 'SBKG' para 11/06/2015 as 23(UTC) não localizada na base de dados da REDEMET
2015061200 - Mensagem METAR de 'SBKG' para 12/06/2015 as 00(UTC) não localizada na base de dados da REDEMET
2015061201 - Mensagem METAR de 'SBKG' para 12/06/2015 as 01(UTC) não localizada na base de dados da REDEMET
2015061202 - Mensagem METAR de 'SBKG' para 12/06/2015 as 02(UTC) não localizada na base de dados da REDEMET
2015061203 - Mensagem METAR de 'SBKG' para 12/06/2015 as 03(UTC) não localizada na base de dados da REDEMET
2015061203 - SPECI SBKG 120315Z 09004KT 9999 SCT015 21/20 Q1017=
2015061204 - METAR SBKG 120400Z 06003KT 9999 SCT015 21/21 Q1017=
2015061205 - METAR SBKG 120500Z 07001KT 9999 SCT015 21/20 Q1016=
2015061206 - METAR SBKG 120600Z 18002KT 9999 SCT009 BKN015 21/20 Q1016=
2015061207 - METAR SBKG 120700Z 17003KT 9999 SCT009 BKN015 21/20 Q1017=
2015061208 - METAR SBKG 120800Z 17003KT 9999 SCT015 20/20 Q1017=
2015061209 - METAR SBKG 120900Z 17004KT 9999 SCT015 BKN018 BKN080 21/20 Q1017=
2015061209 - SPECI SBKG 120930Z 18004KT 4000 BR BKN008 BKN080 21/20 Q1018=
2015061210 - METAR SBKG 121000Z 18005KT 5000 BR BKN008 BKN080 21/20 Q1018=
2015061211 - METAR SBKG 121100Z 11005KT 9999 SCT008 BKN080 21/20 Q1019=
2015061212 - METAR SBKG 121200Z 10008KT 9999 VCSH SCT010 SCT020 BKN080 23/20 Q1019=
2015061212 - SPECI SBKG 121225Z 12011KT 4000 -RA BR BKN010 BKN020 OVC080 22/22 Q1019=
2015061213 - METAR SBKG 121300Z 11012KT 9999 SCT010 SCT020 BKN070 23/22 Q1019=
2015061214 - METAR SBKG 121400Z 11011KT 9999 SCT010 BKN024 BKN080 24/20 Q1018=
2015061215 - METAR SBKG 121500Z 13012KT 9999 SCT020 BKN080 25/20 Q1017=
2015061216 - METAR SBKG 121600Z 13010KT 9999 VCSH BKN023 25/20 Q1017=
2015061217 - METAR SBKG 121700Z 10009KT 9999 VCSH BKN023 SCT070 25/20 Q1016=
2015061218 - METAR SBKG 121800Z 12006KT 9999 BKN028 23/20 Q1016=
2015061219 - METAR SBKG 121900Z 09006KT 060V130 9999 BKN024 25/19 Q1016=
2015061220 - METAR SBKG 122000Z 14006KT 9999 BKN038 23/20 Q1016=
2015061221 - METAR SBKG 122100Z 13005KT 9999 FEW025 22/20 Q1017=
2015061222 - Mensagem METAR de 'SBKG' para 12/06/2015 as 22(UTC) não localizada na base de dados da REDEMET
2015061223 - Mensagem METAR de 'SBKG' para 12/06/2015 as 23(UTC) não localizada na base de dados da REDEMET
2015061300 - Mensagem METAR de 'SBKG' para 13/06/2015 as 00(UTC) não localizada na base de dados da REDEMET
2015061301 - Mensagem METAR de 'SBKG' para 13/06/2015 as 01(UTC) não localizada na base de dados da REDEMET
2015061302 - Mensagem METAR de 'SBKG' para 13/06/2015 as 02(UTC) não localizada na base de dados da REDEMET
2015061303 - Mensagem METAR de 'SBKG' para 13/06/2015 as 03(UTC) não localizada na base de dados da REDEMET
2015061303 - SPECI SBKG 130315Z 13004KT 9999 FEW010 20/19 Q1018=
2015061304 - METAR SBKG 130400Z 00000KT 9999 FEW010 20/19 Q1018=
2015061305 - METAR SBKG 130500Z 12003KT CAVOK 19/19 Q1017=
2015061306 - METAR SBKG 130600Z 11003KT CAVOK 19/19 Q1017=
2015061307 - METAR SBKG 130700Z 00000KT CAVOK 19/19 Q1017=
2015061308 - METAR SBKG 130800Z 11002KT 9999 FEW010 19/19 Q1017=
2015061309 - METAR SBKG 130900Z 00000KT CAVOK 19/19 Q1018=
2015061310 - METAR SBKG 131000Z 16005KT 9999 FEW020 21/20 Q1018=
2015061311 - METAR SBKG 131100Z 13007KT 9999 SCT014 23/20 Q1019=
2015061312 - METAR SBKG 131200Z 10010KT 9999 FEW022 24/19 Q1019=
2015061313 - METAR SBKG 131300Z 11010KT 080V140 9999 FEW028 25/18 Q1019=
2015061314 - METAR SBKG 131400Z 11011KT 9999 SCT032 26/18 Q1018=
2015061315 - METAR SBKG 131500Z 11012KT 080V140 9999 SCT038 27/18 Q1017=
2015061316 - METAR SBKG 131600Z 12012KT 9999 BKN043 27/18 Q1016=
2015061317 - METAR SBKG 131700Z 13013KT 9999 SCT040 27/19 Q1015=
2015061318 - METAR SBKG 131800Z 13011KT 9999 SCT043 28/19 Q1015=
2015061319 - METAR SBKG 131900Z 11013KT 9999 FEW043 27/18 Q1015=
2015061320 - METAR SBKG 132000Z 10010KT 9999 FEW046 26/19 Q1015=
2015061321 - METAR SBKG 132100Z 10009KT CAVOK 25/19 Q1016=
2015061322 - METAR SBKG 132200Z 09008KT CAVOK 24/20 Q1017=
2015061323 - METAR SBKG 132300Z 09007KT 9999 FEW018 23/20 Q1017=
2015061323 - SPECI SBKG 132345Z 09006KT 9999 FEW018 22/20 Q1017=
2015061400 - Mensagem METAR de 'SBKG' para 14/06/2015 as 00(UTC) não localizada na base de dados da REDEMET
2015061401 - Mensagem METAR de 'SBKG' para 14/06/2015 as 01(UTC) não localizada na base de dados da REDEMET
2015061401 - SPECI SBKG 140115Z 08004KT CAVOK 21/20 Q1017=
2015061402 - METAR SBKG 140200Z 08006KT CAVOK 21/20 Q1017=
2015061403 - METAR SBKG 140300Z 08005KT CAVOK 20/20 Q1017=
2015061404 - METAR SBKG 140400Z 09003KT CAVOK 20/19 Q1017=
2015061405 - METAR SBKG 140500Z 23002KT CAVOK 19/19 Q1016=
2015061406 - METAR SBKG 140600Z 32002KT CAVOK 19/19 Q1016=
2015061407 - METAR SBKG 140700Z 26002KT 9999 FEW013 18/18 Q1016=
2015061407 - SPECI SBKG 140725Z 28003KT 3000 BR SCT005 SCT012 18/18 Q1016=
2015061408 - METAR SBKG 140800Z 00000KT 6000 BKN016 19/19 Q1016=
2015061409 - METAR SBKG 140900Z 27001KT 9999 FEW012 SCT050 19/19 Q1017=
2015061410 - METAR SBKG 141000Z 16002KT 9999 BKN018 20/20 Q1017=
2015061411 - METAR SBKG 141100Z 14005KT 9999 SCT020 23/21 Q1018=
2015061412 - METAR SBKG 141200Z 11012KT 5000 -RA SCT010 BKN015 22/20 Q1018=
2015061413 - METAR SBKG 141300Z 11010KT 9999 SCT015 BKN018 24/21 Q1018=
2015061413 - SPECI SBKG 141345Z 10010KT 3000 -RA SCT007 BKN010 22/21 Q1018=
2015061414 - METAR SBKG 141400Z 10011KT 3000 -RA SCT007 BKN010 22/21 Q1018=
2015061415 - METAR SBKG 141500Z 09008KT 6000 SCT015 BKN018 22/21 Q1017=
2015061416 - METAR SBKG 141600Z 12010KT 1500 R15/P2000D -RA BR SCT005 BKN010 OVC070 22/22 Q1016=
2015061417 - METAR SBKG 141700Z 11006KT 9999 SCT015 SCT020 BKN080 22/21 Q1016=
2015061418 - METAR SBKG 141800Z 08004KT 9999 VCSH BKN010 BKN015 24/21 Q1015=
2015061418 - SPECI SBKG 141812Z 06006KT 4000 -RA BR BKN010 BKN015 23/21 Q1015=
2015061419 - METAR SBKG 141900Z 12005KT 9999 SCT010 SCT015 BKN070 22/21 Q1016=
2015061420 - METAR SBKG 142000Z 03001KT 9999 SCT010 SCT015 BKN070 22/21 Q1016=
2015061421 - METAR SBKG 142100Z 00000KT 9999 NSC 22/21 Q1016=
2015061422 - Mensagem METAR de 'SBKG' para 14/06/2015 as 22(UTC) não localizada na base de dados da REDEMET
2015061423 - Mensagem METAR de 'SBKG' para 14/06/2015 as 23(UTC) não localizada na base de dados da REDEMET
2015061500 - METAR SBKG 150000Z 09005KT 9999 SCT018 22/21 Q1018=
2015061501 - METAR SBKG 150100Z 08004KT 6000 BKN010 21/21 Q1018=
2015061502 - METAR SBKG 150200Z 08004KT 3000 BR SCT006 BKN007 21/21 Q1018=
2015061503 - METAR SBKG 150300Z 10003KT 2000 BR SCT006 BKN007 21/21 Q1017=
2015061504 - METAR SBKG 150400Z 00000KT 2000 BR SCT006 BKN007 21/21 Q1017=
2015061505 - METAR SBKG 150500Z 00000KT 4000 BR SCT007 BKN010 21/21 Q1016=
2015061506 - METAR SBKG 150600Z 11002KT 4000 -RA BKN007 21/21 Q1016=
2015061507 - METAR SBKG 150700Z 09004KT 5000 BR BKN010 21/21 Q1016=
2015061508 - METAR SBKG 150800Z 00000KT 3000 BR SCT006 BKN010 21/21 Q1017=
2015061509 - METAR SBKG 150900Z 00000KT 5000 BR SCT010 BKN015 21/21 Q1017=
2015061510 - METAR SBKG 151000Z 06002KT 9999 SCT011 SCT016 21/21 Q1018=
2015061511 - METAR SBKG 151100Z 09007KT 9999 SCT007 BKN018 23/21 Q1019=
2015061512 - METAR SBKG 151200Z 10009KT 9999 FEW013 BKN030 24/21 Q1019=
2015061513 - METAR SBKG 151300Z 09009KT 9999 BKN020 25/21 Q1019=
2015061514 - METAR SBKG 151400Z 09008KT 9999 SCT040 26/21 Q1019=
2015061515 - METAR SBKG 151500Z 10008KT 9999 SCT030 27/20 Q1018=
2015061516 - METAR SBKG 151600Z 12008KT 9999 SCT030 28/20 Q1017=
2015061517 - METAR SBKG 151700Z 10010KT 9999 SCT030 29/20 Q1016=
2015061518 - METAR SBKG 151800Z 10013KT 9999 SCT030 28/21 Q1015=
2015061519 - METAR SBKG 151900Z 10010KT 9999 SCT030 27/21 Q1015=
2015061520 - METAR SBKG 152000Z 10010KT 9999 SCT025 26/21 Q1016=
2015061521 - METAR SBKG 152100Z 10008KT 9999 SCT015 25/21 Q1016=
2015061522 - Mensagem METAR de 'SBKG' para 15/06/2015 as 22(UTC) não localizada na base de dados da REDEMET
2015061523 - Mensagem METAR de 'SBKG' para 15/06/2015 as 23(UTC) não localizada na base de dados da REDEMET
2015061600 - Mensagem METAR de 'SBKG' para 16/06/2015 as 00(UTC) não localizada na base de dados da REDEMET
2015061601 - Mensagem METAR de 'SBKG' para 16/06/2015 as 01(UTC) não localizada na base de dados da REDEMET
2015061602 - Mensagem METAR de 'SBKG' para 16/06/2015 as 02(UTC) não localizada na base de dados da REDEMET
2015061603 - Mensagem METAR de 'SBKG' para 16/06/2015 as 03(UTC) não localizada na base de dados da REDEMET
2015061603 - SPECI SBKG 160315Z 11005KT 4500 1600S BR SCT003 BKN010 22/21 Q1018=
2015061604 - METAR SBKG 160400Z 11007KT 5000 -RA BR SCT004 BKN010 22/21 Q1018=
2015061605 - METAR SBKG 160500Z 12006KT 9999 SCT013 BKN016 21/21 Q1017=
2015061606 - METAR SBKG 160600Z 13005KT 9999 SCT029 21/21 Q1017=
2015061607 - METAR SBKG 160700Z 09004KT 9999 FEW009 21/21 Q1017=
2015061608 - METAR SBKG 160800Z 11004KT 9999 FEW011 21/21 Q1017=
2015061609 - METAR SBKG 160900Z 10005KT 9999 FEW007 SCT013 21/21 Q1017=
2015061610 - METAR SBKG 161000Z 12008KT 9999 SCT005 SCT013 22/21 Q1018=
2015061611 - METAR SBKG 161100Z 13011KT 9999 BKN015 24/21 Q1019=
2015061612 - METAR SBKG 161200Z 12010KT 9999 BKN015 24/20 Q1019=
2015061613 - METAR SBKG 161300Z 12012KT 9999 BKN020 25/21 Q1018=
2015061614 - METAR SBKG 161400Z 12013KT 9999 BKN020 26/20 Q1018=
2015061615 - METAR SBKG 161500Z 13014KT 9999 BKN025 27/19 Q1017=
2015061616 - METAR SBKG 161600Z 14013KT 9999 SCT040 27/18 Q1016=
2015061617 - METAR SBKG 161700Z 14014KT 9999 SCT040 27/18 Q1015=
2015061618 - METAR SBKG 161800Z 13013KT 9999 SCT030 27/18 Q1015=
2015061619 - METAR SBKG 161900Z 14015KT 9999 FEW030 26/17 Q1015=
2015061620 - METAR SBKG 162000Z 14012KT 9999 FEW025 25/18 Q1015=
2015061621 - METAR SBKG 162100Z 13008KT 9999 FEW020 24/18 Q1016=
2015061622 - Mensagem METAR de 'SBKG' para 16/06/2015 as 22(UTC) não localizada na base de dados da REDEMET
2015061623 - Mensagem METAR de 'SBKG' para 16/06/2015 as 23(UTC) não localizada na base de dados da REDEMET
2015061700 - Mensagem METAR de 'SBKG' para 17/06/2015 as 00(UTC) não localizada na base de dados da REDEMET
2015061701 - Mensagem METAR de 'SBKG' para 17/06/2015 as 01(UTC) não localizada na base de dados da REDEMET
2015061702 - Mensagem METAR de 'SBKG' para 17/06/2015 as 02(UTC) não localizada na base de dados da REDEMET
2015061703 - Mensagem METAR de 'SBKG' para 17/06/2015 as 03(UTC) não localizada na base de dados da REDEMET
2015061703 - SPECI SBKG 170315Z 13003KT 9999 FEW015 20/18 Q1017=
2015061704 - METAR SBKG 170400Z 15003KT 9999 FEW015 20/18 Q1017=
2015061705 - METAR SBKG 170500Z 16003KT 9999 SCT015 19/18 Q1016=
2015061706 - METAR SBKG 170600Z 22005KT 9999 SCT015 19/18 Q1016=
2015061707 - METAR SBKG 170700Z 24003KT 9999 SCT015 20/18 Q1016=
2015061708 - METAR SBKG 170800Z 24004KT 9999 BKN015 19/18 Q1016=
2015061709 - METAR SBKG 170900Z 19003KT 5000 -RA BR SCT010 BKN015 OVC070 19/19 Q1016=
2015061710 - METAR COR SBKG 171000Z 17004KT 9999 BKN010 SCT015 OVC080 20/19 Q1017=
2015061711 - METAR SBKG 171100Z 16005KT 9999 BKN009 BKN080 21/20 Q1017=
2015061711 - SPECI SBKG 171145Z 13010KT 9999 SCT010 SCT015 22/21 Q1018=
2015061712 - METAR SBKG 171200Z 12015KT 9999 BKN015 23/21 Q1018=
2015061713 - METAR SBKG 171300Z 12014KT 9999 SCT025 25/20 Q1018=
2015061714 - METAR SBKG 171400Z 12012KT 9999 SCT020 25/20 Q1017=
2015061715 - METAR SBKG 171500Z 12013KT 9999 BKN025 26/19 Q1017=
2015061716 - METAR SBKG 171600Z 12013KT 9999 BKN030 26/19 Q1016=
2015061717 - METAR SBKG 171700Z 13015KT 9999 SCT040 26/17 Q1015=
2015061718 - METAR SBKG 171800Z 11015KT 9999 SCT040 26/17 Q1015=
2015061719 - METAR SBKG 171900Z 13012KT 9999 SCT040 25/16 Q1016=
2015061720 - METAR SBKG 172000Z 14008KT 9999 FEW030 25/17 Q1016=
2015061721 - METAR SBKG 172100Z 14006KT CAVOK 23/17 Q1016=
2015061722 - Mensagem METAR de 'SBKG' para 17/06/2015 as 22(UTC) não localizada na base de dados da REDEMET
2015061723 - Mensagem METAR de 'SBKG' para 17/06/2015 as 23(UTC) não localizada na base de dados da REDEMET
2015061800 - Mensagem METAR de 'SBKG' para 18/06/2015 as 00(UTC) não localizada na base de dados da REDEMET
2015061801 - Mensagem METAR de 'SBKG' para 18/06/2015 as 01(UTC) não localizada na base de dados da REDEMET
2015061802 - Mensagem METAR de 'SBKG' para 18/06/2015 as 02(UTC) não localizada na base de dados da REDEMET
2015061803 - Mensagem METAR de 'SBKG' para 18/06/2015 as 03(UTC) não localizada na base de dados da REDEMET
2015061803 - SPECI SBKG 180315Z 12004KT CAVOK 20/19 Q1018=
2015061804 - METAR SBKG 180400Z 13004KT CAVOK 20/19 Q1017=
2015061805 - METAR SBKG 180500Z 00000KT CAVOK 19/19 Q1017=
2015061806 - METAR SBKG 180600Z 17003KT 9999 SCT015 20/19 Q1016=
2015061807 - METAR SBKG 180700Z 00000KT CAVOK 19/19 Q1016=
2015061808 - METAR SBKG 180800Z 00000KT 9999 SCT015 19/19 Q1017=
2015061809 - METAR SBKG 180900Z 00000KT 9999 BKN016 20/19 Q1017=
2015061810 - METAR SBKG 181000Z 22002KT 9000 SCT013 BKN017 20/20 Q1018=
2015061811 - METAR SBKG 181100Z 19006KT 8000 SCT009 BKN018 21/20 Q1018=
2015061812 - METAR SBKG 181200Z 15010KT 9999 VCSH SCT010 BKN016 22/20 Q1018=
2015061813 - METAR SBKG 181300Z 14011KT 9999 SCT015 BKN023 23/20 Q1018=
2015061814 - METAR SBKG 181400Z 11007KT 9999 VCSH SCT014 BKN020 23/21 Q1017=
2015061815 - METAR SBKG 181500Z 12009KT 9999 BKN019 FEW025TCU 24/21 Q1017=
2015061816 - METAR SBKG 181600Z 14008KT 9999 BKN025 26/22 Q1016=
2015061817 - METAR SBKG 181700Z 11013KT 9999 BKN026 26/21 Q1015=
2015061818 - METAR SBKG 181800Z 12013KT 9999 BKN024 25/21 Q1015=
2015061819 - METAR SBKG 181900Z 11014KT 9999 BKN027 25/20 Q1015=
2015061820 - METAR SBKG 182000Z 10011KT 9999 SCT024 24/20 Q1016=
2015061821 - METAR SBKG 182100Z 10014KT 9999 SCT019 SCT021 24/21 Q1016=
2015061822 - Mensagem METAR de 'SBKG' para 18/06/2015 as 22(UTC) não localizada na base de dados da REDEMET
2015061823 - Mensagem METAR de 'SBKG' para 18/06/2015 as 23(UTC) não localizada na base de dados da REDEMET
2015061900 - Mensagem METAR de 'SBKG' para 19/06/2015 as 00(UTC) não localizada na base de dados da REDEMET
2015061901 - Mensagem METAR de 'SBKG' para 19/06/2015 as 01(UTC) não localizada na base de dados da REDEMET
2015061901 - SPECI SBKG 190115Z 11007KT 9999 SCT004 BKN010 BKN012 21/21 Q1018=
2015061902 - METAR SBKG 190200Z 09007KT 9000 SCT004 BKN008 BKN012 21/21 Q1018=
2015061903 - METAR SBKG 190300Z 12005KT 8000 -RA SCT003 BKN008 BKN012 21/21 Q1018=
2015061904 - METAR SBKG 190400Z 12004KT 2000 BR BKN002 BKN010 21/21 Q1017=
2015061904 - SPECI SBKG 190430Z 12003KT 4000 BR SCT002 BKN011 21/20 Q1017=
2015061905 - METAR SBKG 190500Z 14005KT 9999 BKN010 20/20 Q1017=
2015061906 - METAR SBKG 190600Z 13002KT 9999 BKN010 20/20 Q1017=
2015061907 - METAR SBKG 190700Z 13003KT 9999 FEW007 BKN011 20/20 Q1017=
2015061908 - METAR SBKG 190800Z 12004KT 9999 FEW005 BKN012 20/20 Q1018=
2015061909 - METAR SBKG 190900Z 08002KT 9999 SCT018 20/20 Q1018=
2015061910 - METAR SBKG 191000Z 15005KT 9999 FEW020 21/20 Q1019=
2015061911 - METAR SBKG 191100Z 14009KT 9999 BKN020 22/20 Q1020=
2015061912 - METAR SBKG 191200Z 15011KT 9999 BKN025 23/19 Q1020=
2015061913 - METAR SBKG 191300Z 14009KT 9999 SCT030 24/19 Q1020=
2015061914 - METAR SBKG 191400Z 15013KT 9999 FEW040 27/15 Q1019=
2015061915 - METAR SBKG 191500Z 13012KT 9999 FEW040 28/15 Q1018=
2015061916 - METAR SBKG 191600Z 16011KT 9999 BKN046 28/16 Q1017=
2015061917 - METAR SBKG 191700Z 15010KT CAVOK 28/16 Q1017=
2015061918 - METAR SBKG 191800Z 14008KT CAVOK 27/16 Q1017=
2015061919 - METAR SBKG 191900Z 13008KT CAVOK 27/17 Q1017=
2015061920 - METAR SBKG 192000Z 13008KT CAVOK 26/17 Q1017=
2015061921 - METAR SBKG 192100Z 11008KT CAVOK 24/17 Q1017=
2015061922 - Mensagem METAR de 'SBKG' para 19/06/2015 as 22(UTC) não localizada na base de dados da REDEMET
2015061923 - Mensagem METAR de 'SBKG' para 19/06/2015 as 23(UTC) não localizada na base de dados da REDEMET
2015062000 - Mensagem METAR de 'SBKG' para 20/06/2015 as 00(UTC) não localizada na base de dados da REDEMET
2015062001 - METAR SBKG 200100Z 13006KT 9999 FEW018 22/19 Q1019=
2015062002 - METAR SBKG 200200Z 08004KT 9999 SCT018 22/19 Q1019=
2015062003 - METAR SBKG 200300Z 11004KT 9999 SCT018 21/19 Q1019=
2015062004 - METAR SBKG 200400Z 10002KT 9999 SCT018 20/19 Q1018=
2015062005 - METAR SBKG 200500Z 10003KT 9999 SCT018 21/19 Q1018=
2015062006 - METAR SBKG 200600Z 14002KT 9999 SCT018 21/19 Q1018=
2015062007 - METAR SBKG 200700Z 11004KT 9999 SCT018 20/18 Q1018=
2015062008 - METAR SBKG 200800Z 14005KT 9999 FEW018 20/19 Q1018=
2015062009 - METAR SBKG 200900Z 14005KT 9999 SCT020 20/19 Q1018=
2015062010 - METAR SBKG 201000Z 14007KT 9999 SCT016 SCT026 22/20 Q1019=
2015062011 - METAR SBKG 201100Z 15009KT 9999 SCT013 BKN025 23/20 Q1020=
2015062012 - METAR SBKG 201200Z 15009KT 9999 FEW013 BKN020 24/20 Q1020=
2015062013 - METAR SBKG 201300Z 13010KT 9999 BKN027 25/19 Q1020=
2015062014 - METAR SBKG 201400Z 13010KT 9999 BKN040 26/19 Q1019=
2015062015 - METAR SBKG 201500Z 15010KT 9999 BKN030 26/19 Q1019=
2015062016 - METAR SBKG 201600Z 13013KT 9999 BKN025 26/19 Q1018=
2015062017 - METAR SBKG 201700Z 14011KT 9999 BKN025 27/20 Q1018=
2015062018 - METAR SBKG 201800Z 13011KT 9999 BKN025 26/20 Q1018=
2015062019 - METAR SBKG 201900Z 11009KT 9999 SCT025 26/20 Q1018=
2015062020 - METAR SBKG 202000Z 14010KT 9999 FEW024 25/19 Q1018=
2015062021 - METAR SBKG 202100Z 13006KT 9999 SCT024 24/19 Q1018=
2015062022 - Mensagem METAR de 'SBKG' para 20/06/2015 as 22(UTC) não localizada na base de dados da REDEMET
2015062023 - Mensagem METAR de 'SBKG' para 20/06/2015 as 23(UTC) não localizada na base de dados da REDEMET
2015062100 - Mensagem METAR de 'SBKG' para 21/06/2015 as 00(UTC) não localizada na base de dados da REDEMET
2015062101 - Mensagem METAR de 'SBKG' para 21/06/2015 as 01(UTC) não localizada na base de dados da REDEMET
2015062101 - SPECI SBKG 210115Z 14005KT 9999 SCT019 22/20 Q1020=
2015062102 - METAR SBKG 210200Z 15006KT 9999 SCT019 22/20 Q1020=
2015062103 - METAR SBKG 210300Z 14003KT 9999 SCT017 21/19 Q1020=
2015062104 - METAR SBKG 210400Z 15004KT 9999 SCT013 21/20 Q1019=
2015062105 - METAR SBKG 210500Z 16006KT 9999 SCT009 BKN012 21/20 Q1019=
2015062106 - METAR SBKG 210600Z 16007KT 3000 -RA SCT007 BKN010 21/20 Q1019=
2015062107 - METAR SBKG 210700Z 15004KT 7000 SCT007 BKN014 21/20 Q1019=
2015062108 - METAR SBKG 210800Z 15005KT 5000 BR SCT007 BKN014 21/20 Q1019=
2015062109 - METAR SBKG 210900Z 14004KT 4000 -RA SCT005 BKN009 BKN014 20/20 Q1019=
2015062110 - METAR SBKG 211000Z 13007KT 9999 BKN010 BKN080 21/20 Q1020=
2015062110 - SPECI SBKG 211020Z 14010KT 9999 SCT010 BKN080 21/20 Q1020=
2015062111 - METAR SBKG 211100Z 16010KT 9999 SCT011 SCT090 21/20 Q1020=
2015062112 - METAR SBKG 211200Z 14011KT 9999 SCT014 SCT090 22/20 Q1021=
2015062113 - METAR SBKG 211300Z 11010KT 9999 SCT020 SCT100 23/20 Q1021=
2015062114 - METAR SBKG 211400Z 14010KT 9999 FEW020 BKN090 24/20 Q1020=
2015062115 - METAR SBKG 211500Z 12009KT 9999 SCT020 BKN090 26/20 Q1020=
2015062116 - METAR SBKG 211600Z 14012KT 9999 SCT041 BKN070 28/18 Q1019=
2015062117 - METAR SBKG 211700Z 14011KT 9999 SCT040 BKN100 27/17 Q1018=
2015062118 - METAR SBKG 211800Z 14012KT 9999 FEW040 27/17 Q1018=
2015062119 - METAR SBKG 211900Z 12013KT 9999 FEW049 26/17 Q1018=
2015062120 - METAR SBKG 212000Z 12010KT CAVOK 25/17 Q1018=
2015062121 - METAR SBKG 212100Z 14008KT CAVOK 24/17 Q1019=
2015062122 - METAR SBKG 212200Z 15007KT CAVOK 23/16 Q1020=
2015062123 - METAR SBKG 212300Z 15006KT CAVOK 21/16 Q1020=
2015062200 - Mensagem METAR de 'SBKG' para 22/06/2015 as 00(UTC) não localizada na base de dados da REDEMET
2015062201 - METAR SBKG 220100Z 13005KT CAVOK 21/17 Q1020=
2015062202 - METAR SBKG 220200Z 14007KT CAVOK 21/18 Q1020=
2015062203 - METAR SBKG 220300Z 17006KT 9999 SCT015 20/18 Q1020=
2015062204 - METAR SBKG 220400Z 15002KT CAVOK 19/18 Q1019=
2015062205 - METAR SBKG 220500Z 15004KT CAVOK 19/18 Q1019=
2015062206 - METAR SBKG 220600Z 16004KT CAVOK 20/19 Q1019=
2015062207 - METAR SBKG 220700Z 15002KT 9999 BKN010 20/19 Q1019=
2015062208 - METAR SBKG 220800Z 15003KT 9999 BKN010 20/19 Q1019=
2015062209 - METAR SBKG 220900Z 14004KT 9999 BKN010 20/19 Q1019=
2015062209 - SPECI SBKG 220942Z 15004KT 9999 SCT012 BKN020 21/20 Q1020=
2015062210 - METAR SBKG 221000Z 16004KT 9999 SCT012 BKN020 21/20 Q1020=
2015062211 - METAR SBKG 221100Z 14011KT 9999 SCT011 BKN015 22/20 Q1020=
2015062212 - METAR SBKG 221200Z 14008KT 9000 -RA SCT013 BKN018 22/20 Q1021=
2015062213 - METAR SBKG 221300Z 14008KT 9999 BKN017 BKN025 23/20 Q1021=
2015062214 - METAR SBKG 221400Z 15010KT 9999 SCT017 BKN024 25/21 Q1020=
2015062215 - METAR SBKG 221500Z 14011KT 9000 -RA BKN016 BKN021 22/21 Q1020=
2015062216 - METAR SBKG 221600Z 16009KT 9999 SCT010 BKN015 23/21 Q1019=
2015062216 - SPECI SBKG 221635Z 14007KT 3000 -RA SCT007 BKN010 23/21 Q1019=
2015062217 - METAR SBKG 221700Z 12009KT 3000 -RA SCT007 BKN010 22/22 Q1019=
2015062218 - METAR SBKG 221800Z 14007KT 3000 -RA SCT006 BKN007 22/21 Q1019=
2015062219 - METAR SBKG 221900Z 14009KT 5000 BR SCT007 BKN010 21/20 Q1019=
2015062220 - METAR SBKG 222000Z 14005KT 4000 -RA BR SCT007 BKN010 21/20 Q1020=
2015062221 - METAR SBKG 222100Z 16007KT 3000 -RA BR SCT007 BKN010 21/20 Q1020=
2015062222 - Mensagem METAR de 'SBKG' para 22/06/2015 as 22(UTC) não localizada na base de dados da REDEMET
2015062223 - Mensagem METAR de 'SBKG' para 22/06/2015 as 23(UTC) não localizada na base de dados da REDEMET
2015062300 - Mensagem METAR de 'SBKG' para 23/06/2015 as 00(UTC) não localizada na base de dados da REDEMET
2015062301 - Mensagem METAR de 'SBKG' para 23/06/2015 as 01(UTC) não localizada na base de dados da REDEMET
2015062302 - Mensagem METAR de 'SBKG' para 23/06/2015 as 02(UTC) não localizada na base de dados da REDEMET
2015062303 - Mensagem METAR de 'SBKG' para 23/06/2015 as 03(UTC) não localizada na base de dados da REDEMET
2015062303 - SPECI SBKG 230315Z 16004KT 9999 FEW015 20/19 Q1020=
2015062304 - METAR SBKG 230400Z 00000KT CAVOK 19/19 Q1020=
2015062305 - METAR SBKG 230500Z 22003KT 9999 SCT015 19/19 Q1019=
2015062306 - METAR SBKG 230600Z 00000KT 9999 SCT010 19/18 Q1019=
2015062307 - METAR SBKG 230700Z 08002KT CAVOK 19/18 Q1019=
2015062308 - METAR SBKG 230800Z 17002KT 9999 FEW010 SCT080 19/19 Q1019=
2015062309 - METAR SBKG 230900Z 00000KT 9999 FEW015 19/19 Q1019=
2015062310 - METAR SBKG 231000Z 22004KT 180V250 9999 FEW009 21/19 Q1020=
2015062311 - METAR SBKG 231100Z 20005KT 160V220 9999 FEW009 BKN018 22/20 Q1020=
2015062312 - METAR SBKG 231200Z 14007KT 9999 FEW012 BKN021 23/20 Q1021=
2015062313 - METAR SBKG 231300Z 12005KT 090V170 9999 BKN018 SCT100 24/20 Q1021=
2015062314 - METAR SBKG 231400Z 09006KT 9999 BKN021 25/20 Q1020=
2015062315 - METAR SBKG 231500Z 12009KT 9999 BKN025 25/21 Q1020=
2015062316 - METAR SBKG 231600Z 10005KT 9999 SCT024 SCT042 BKN080 24/21 Q1019=
2015062317 - METAR SBKG 231700Z 07013KT 5000 -RA BKN011 BKN024 23/21 Q1018=
2015062318 - METAR SBKG 231800Z 09012KT 9999 SCT009 BKN027 BKN080 22/21 Q1019=
2015062319 - METAR SBKG 231900Z 09008KT 8000 VCSH SCT005 BKN027 BKN080 22/21 Q1019=
2015062320 - METAR SBKG 232000Z 10006KT 9999 SCT007 SCT029 BKN080 22/21 Q1019=
2015062321 - METAR SBKG 232100Z 12005KT CAVOK 22/21 Q1020=
2015062322 - METAR SBKG 232200Z 10006KT 9999 SCT013 21/21 Q1020=
2015062323 - METAR SBKG 232300Z 09005KT 9999 SCT006 21/21 Q1020=
2015062400 - Mensagem METAR de 'SBKG' para 24/06/2015 as 00(UTC) não localizada na base de dados da REDEMET
2015062401 - Mensagem METAR de 'SBKG' para 24/06/2015 as 01(UTC) não localizada na base de dados da REDEMET
2015062402 - Mensagem METAR de 'SBKG' para 24/06/2015 as 02(UTC) não localizada na base de dados da REDEMET
2015062403 - Mensagem METAR de 'SBKG' para 24/06/2015 as 03(UTC) não localizada na base de dados da REDEMET
2015062403 - SPECI SBKG 240315Z 10004KT 6000 -RA SCT004 BKN014 BKN018 21/21 Q1020=
2015062404 - METAR SBKG 240400Z 00000KT 9999 BKN018 BKN100 21/21 Q1020=
2015062405 - METAR SBKG 240500Z 06002KT 9999 VCSH BKN010 BKN016 21/20 Q1019=
2015062406 - METAR SBKG 240600Z 11004KT 9999 SCT008 BKN011 BKN070 21/20 Q1019=
2015062407 - METAR SBKG 240700Z 09002KT 7000 SCT009 BKN021 21/20 Q1019=
2015062408 - METAR SBKG 240800Z 12003KT 9999 SCT007 BKN012 21/20 Q1020=
2015062409 - METAR SBKG 240900Z 05002KT 9000 FEW005 BKN039 21/20 Q1020=
2015062410 - METAR SBKG 241000Z 08003KT 9999 SCT020 22/21 Q1021=
2015062411 - METAR SBKG 241100Z 06006KT 9999 BKN020 BKN090 23/21 Q1021=
2015062412 - METAR SBKG 241200Z 06007KT 9999 BKN020 BKN090 24/20 Q1021=
2015062413 - METAR SBKG 241300Z 10004KT 9999 BKN020 BKN090 25/20 Q1021=
2015062414 - METAR SBKG 241400Z 11006KT 9999 BKN025 25/20 Q1021=
2015062415 - METAR SBKG 241500Z 11007KT 9999 BKN025 26/20 Q1020=
2015062416 - METAR SBKG 241600Z 10009KT 9999 BKN030 26/20 Q1019=
2015062417 - METAR SBKG 241700Z 09006KT 9999 SCT046 28/19 Q1018=
2015062418 - METAR SBKG 241800Z 12006KT 9999 SCT048 28/19 Q1018=
2015062419 - METAR SBKG 241900Z 09008KT 9999 FEW044 28/19 Q1018=
2015062420 - METAR SBKG 242000Z 10007KT CAVOK 27/18 Q1019=
2015062421 - METAR SBKG 242100Z 10012KT CAVOK 25/21 Q1020=
2015062422 - Mensagem METAR de 'SBKG' para 24/06/2015 as 22(UTC) não localizada na base de dados da REDEMET
2015062423 - Mensagem METAR de 'SBKG' para 24/06/2015 as 23(UTC) não localizada na base de dados da REDEMET
2015062500 - Mensagem METAR de 'SBKG' para 25/06/2015 as 00(UTC) não localizada na base de dados da REDEMET
2015062501 - Mensagem METAR de 'SBKG' para 25/06/2015 as 01(UTC) não localizada na base de dados da REDEMET
2015062502 - Mensagem METAR de 'SBKG' para 25/06/2015 as 02(UTC) não localizada na base de dados da REDEMET
2015062503 - Mensagem METAR de 'SBKG' para 25/06/2015 as 03(UTC) não localizada na base de dados da REDEMET
2015062503 - SPECI SBKG 250315Z 12005KT 9999 BKN015 22/21 Q1021=
2015062504 - METAR SBKG 250400Z 11006KT 9999 BKN015 22/22 Q1020=
2015062505 - METAR SBKG 250500Z 11010KT 4000 -RA BKN010 21/21 Q1020=
2015062506 - METAR SBKG 250600Z 11006KT 4000 BR BKN010 21/21 Q1020=
2015062507 - METAR SBKG 250700Z 11007KT 5000 BR BKN015 21/21 Q1020=
2015062508 - METAR SBKG 250800Z 12004KT 4000 BR BKN010 21/21 Q1021=
2015062509 - METAR SBKG 250900Z 14005KT 4000 BR SCT007 BKN010 21/21 Q1021=
2015062510 - METAR SBKG 251000Z 13005KT 5000 BR SCT005 BKN013 22/21 Q1022=
2015062511 - METAR SBKG 251100Z 11012KT 2500 -RA BR SCT003 BKN012 21/20 Q1022=
2015062512 - METAR SBKG 251200Z 09008KT 3000 -RA BR SCT004 BKN012 OVC070 21/21 Q1023=
2015062513 - METAR SBKG 251300Z 11006KT 3000 -RA SCT005 BKN011 OVC070 22/21 Q1023=
2015062514 - METAR SBKG 251400Z 15009KT 2000 RA BR SCT005 BKN008 OVC070 21/21 Q1023=
2015062514 - SPECI SBKG 251437Z 14009KT 5000 -RA SCT005 BKN014 BKN070 21/21 Q1022 RERA=
2015062515 - METAR SBKG 251500Z 13011KT 5000 -RA SCT007 BKN015 BKN070 22/20 Q1022 RERA=
2015062515 - SPECI SBKG 251525Z 13013KT 3000 -RA BKN014 OVC080 21/20 Q1022=
2015062516 - METAR SBKG 251600Z 11014KT 4000 -RA SCT007 BKN011 OVC080 20/20 Q1022=
2015062516 - SPECI SBKG 251640Z 10011KT 6000 -RA SCT011 OVC080 21/19 Q1021=
2015062517 - METAR SBKG 251700Z 10007KT 9999 -RA SCT011 OVC080 21/20 Q1021=
2015062518 - METAR SBKG 251800Z 10006KT 9999 SCT012 OVC080 22/20 Q1021=
2015062518 - SPECI SBKG 251825Z 11007KT 4000 -RA SCT011 SCT015 OVC080 22/20 Q1021=
2015062519 - METAR SBKG 251900Z 14010KT 9999 FEW010 OVC080 21/19 Q1021=
2015062520 - METAR SBKG 252000Z 11003KT 9999 FEW010 OVC090 21/20 Q1021=
2015062521 - METAR SBKG 252100Z 10004KT CAVOK 21/20 Q1021=
2015062522 - Mensagem METAR de 'SBKG' para 25/06/2015 as 22(UTC) não localizada na base de dados da REDEMET
2015062523 - Mensagem METAR de 'SBKG' para 25/06/2015 as 23(UTC) não localizada na base de dados da REDEMET
2015062500 - Mensagem METAR de 'SBKG' para 25/06/2015 as 00(UTC) não localizada na base de dados da REDEMET
2015062501 - Mensagem METAR de 'SBKG' para 25/06/2015 as 01(UTC) não localizada na base de dados da REDEMET
2015062502 - Mensagem METAR de 'SBKG' para 25/06/2015 as 02(UTC) não localizada na base de dados da REDEMET
2015062503 - Mensagem METAR de 'SBKG' para 25/06/2015 as 03(UTC) não localizada na base de dados da REDEMET
2015062503 - SPECI SBKG 250315Z 12005KT 9999 BKN015 22/21 Q1021=
2015062504 - METAR SBKG 250400Z 11006KT 9999 BKN015 22/22 Q1020=
2015062505 - METAR SBKG 250500Z 11010KT 4000 -RA BKN010 21/21 Q1020=
2015062506 - METAR SBKG 250600Z 11006KT 4000 BR BKN010 21/21 Q1020=
2015062507 - METAR SBKG 250700Z 11007KT 5000 BR BKN015 21/21 Q1020=
2015062508 - METAR SBKG 250800Z 12004KT 4000 BR BKN010 21/21 Q1021=
2015062509 - METAR SBKG 250900Z 14005KT 4000 BR SCT007 BKN010 21/21 Q1021=
2015062510 - METAR SBKG 251000Z 13005KT 5000 BR SCT005 BKN013 22/21 Q1022=
2015062511 - METAR SBKG 251100Z 11012KT 2500 -RA BR SCT003 BKN012 21/20 Q1022=
2015062512 - METAR SBKG 251200Z 09008KT 3000 -RA BR SCT004 BKN012 OVC070 21/21 Q1023=
2015062513 - METAR SBKG 251300Z 11006KT 3000 -RA SCT005 BKN011 OVC070 22/21 Q1023=
2015062514 - METAR SBKG 251400Z 15009KT 2000 RA BR SCT005 BKN008 OVC070 21/21 Q1023=
2015062514 - SPECI SBKG 251437Z 14009KT 5000 -RA SCT005 BKN014 BKN070 21/21 Q1022 RERA=
2015062515 - METAR SBKG 251500Z 13011KT 5000 -RA SCT007 BKN015 BKN070 22/20 Q1022 RERA=
2015062515 - SPECI SBKG 251525Z 13013KT 3000 -RA BKN014 OVC080 21/20 Q1022=
2015062516 - METAR SBKG 251600Z 11014KT 4000 -RA SCT007 BKN011 OVC080 20/20 Q1022=
2015062516 - SPECI SBKG 251640Z 10011KT 6000 -RA SCT011 OVC080 21/19 Q1021=
2015062517 - METAR SBKG 251700Z 10007KT 9999 -RA SCT011 OVC080 21/20 Q1021=
2015062518 - METAR SBKG 251800Z 10006KT 9999 SCT012 OVC080 22/20 Q1021=
2015062518 - SPECI SBKG 251825Z 11007KT 4000 -RA SCT011 SCT015 OVC080 22/20 Q1021=
2015062519 - METAR SBKG 251900Z 14010KT 9999 FEW010 OVC080 21/19 Q1021=
2015062520 - METAR SBKG 252000Z 11003KT 9999 FEW010 OVC090 21/20 Q1021=
2015062521 - METAR SBKG 252100Z 10004KT CAVOK 21/20 Q1021=
2015062522 - Mensagem METAR de 'SBKG' para 25/06/2015 as 22(UTC) não localizada na base de dados da REDEMET
2015062523 - Mensagem METAR de 'SBKG' para 25/06/2015 as 23(UTC) não localizada na base de dados da REDEMET
2015062600 - Mensagem METAR de 'SBKG' para 26/06/2015 as 00(UTC) não localizada na base de dados da REDEMET
2015062701 - Mensagem METAR de 'SBKG' para 27/06/2015 as 01(UTC) não localizada na base de dados da REDEMET
2015062702 - Mensagem METAR de 'SBKG' para 27/06/2015 as 02(UTC) não localizada na base de dados da REDEMET
2015062703 - Mensagem METAR de 'SBKG' para 27/06/2015 as 03(UTC) não localizada na base de dados da REDEMET
2015062703 - SPECI COR SBKG 270315Z 15002KT CAVOK 19/18 Q1020=
2015062703 - SPECI SBKG 270315Z COR 15002KT CAVOK 19/18 Q1020=
2015062703 - SPECI SBKG 270315Z 15002KT CAVOK 19/18 Q10121=
2015062704 - METAR COR SBKG 270400Z 19004KT 9999 SCT015 20/18 Q1020=
2015062705 - METAR SBKG 270500Z 19005KT 9999 SCT015 20/18 Q1020=
2015062706 - METAR SBKG 270600Z 16006KT 9999 SCT010 19/19 Q1020=
2015062707 - METAR SBKG 270700Z 20002KT 9999 FEW009 SCT015 19/19 Q1020=
2015062708 - METAR SBKG 270800Z 21003KT 9999 -RA SCT008 BKN015 19/19 Q1020=
2015062708 - SPECI SBKG 270830Z 21004KT 3000 BR SCT007 BKN013 19/19 Q1020=
2015062709 - METAR SBKG 270900Z 20004KT 4000 -RA BR SCT007 BKN013 BKN080 19/19 Q1020=
2015062709 - SPECI SBKG 270925Z 18004KT 9999 FEW004 SCT015 20/19 Q1020=
2015062710 - METAR SBKG 271000Z 18003KT 140V210 9999 VCSH FEW004 BKN037 BKN070 20/20 Q1021=
2015062711 - METAR SBKG 271100Z 19007KT 9999 SCT007 BKN014 21/20 Q1021=
2015062712 - METAR SBKG 271200Z 15009KT 9999 SCT011 BKN017 22/20 Q1021=
2015062713 - METAR SBKG 271300Z 17008KT 9999 BKN018 23/20 Q1021=
2015062714 - METAR SBKG 271400Z 13009KT 9999 VCSH SCT015 BKN021 24/20 Q1021=
2015062715 - METAR SBKG 271500Z 15007KT 110V180 9999 VCSH SCT015 BKN028 24/20 Q1020=
2015062716 - METAR SBKG 271600Z 14006KT 9999 BKN020 24/20 Q1019=
2015062717 - METAR SBKG 271700Z 13007KT 9999 BKN020 24/20 Q1018=
2015062718 - METAR SBKG 271800Z 13011KT 9999 SCT030 26/20 Q1018=
2015062719 - METAR SBKG 271900Z 10007KT 9999 SCT030 26/20 Q1018=
2015062720 - METAR SBKG 272000Z 14008KT 9999 FEW030 25/19 Q1018=
2015062721 - METAR SBKG 272100Z 13007KT 9999 FEW030 23/19 Q1018=
2015062722 - Mensagem METAR de 'SBKG' para 27/06/2015 as 22(UTC) não localizada na base de dados da REDEMET
2015062723 - Mensagem METAR de 'SBKG' para 27/06/2015 as 23(UTC) não localizada na base de dados da REDEMET
2015062800 - Mensagem METAR de 'SBKG' para 28/06/2015 as 00(UTC) não localizada na base de dados da REDEMET
2015062801 - Mensagem METAR de 'SBKG' para 28/06/2015 as 01(UTC) não localizada na base de dados da REDEMET
2015062802 - Mensagem METAR de 'SBKG' para 28/06/2015 as 02(UTC) não localizada na base de dados da REDEMET
2015062803 - Mensagem METAR de 'SBKG' para 28/06/2015 as 03(UTC) não localizada na base de dados da REDEMET
2015062803 - SPECI SBKG 280315Z 14004KT 9999 FEW013 20/19 Q1020=
2015062804 - METAR SBKG 280400Z 00000KT CAVOK 20/19 Q1019=
2015062805 - METAR SBKG 280500Z 16003KT 9999 SCT015 20/19 Q1019=
2015062806 - METAR SBKG 280600Z 21003KT 9999 BKN020 20/19 Q1018=
2015062807 - METAR SBKG 280700Z 20005KT 9999 SCT010 20/19 Q1018=
2015062808 - METAR SBKG 280800Z 00000KT 9999 SCT020 19/19 Q1018=
2015062809 - METAR SBKG 280900Z 21004KT 9999 SCT010 19/19 Q1018=
2015062810 - METAR SBKG 281000Z 21004KT 150V250 9999 FEW017 21/20 Q1019=
2015062811 - METAR SBKG 281100Z 15007KT 9999 SCT012 SCT016 22/20 Q1020=
2015062812 - METAR SBKG 281200Z 16007KT 9999 FEW015 SCT019 24/20 Q1020=
2015062813 - METAR SBKG 281300Z 13009KT 9999 BKN023 25/20 Q1020=
2015062814 - METAR SBKG 281400Z 14009KT 9999 BKN024 25/20 Q1019=
2015062815 - METAR SBKG 281500Z 14010KT 110V170 9999 BKN042 26/20 Q1018=
2015062816 - METAR SBKG 281600Z 14011KT 9999 BKN048 27/20 Q1017=
2015062817 - METAR SBKG 281700Z 13007KT 9999 BKN030 27/21 Q1016=
2015062818 - METAR SBKG 281800Z 12013KT 9999 BKN026 FEW032TCU 27/20 Q1016=
2015062819 - METAR SBKG 281900Z 10013KT 9999 SCT017 SCT033 24/21 Q1017=
2015062820 - METAR SBKG 282000Z 13013KT 9999 SCT017 24/21 Q1017=
2015062821 - METAR SBKG 282100Z 12007KT 9999 SCT013 SCT024 23/21 Q1018=
2015062822 - Mensagem METAR de 'SBKG' para 28/06/2015 as 22(UTC) não localizada na base de dados da REDEMET
2015062823 - Mensagem METAR de 'SBKG' para 28/06/2015 as 23(UTC) não localizada na base de dados da REDEMET
2015062900 - Mensagem METAR de 'SBKG' para 29/06/2015 as 00(UTC) não localizada na base de dados da REDEMET
2015062901 - Mensagem METAR de 'SBKG' para 29/06/2015 as 01(UTC) não localizada na base de dados da REDEMET
2015062902 - Mensagem METAR de 'SBKG' para 29/06/2015 as 02(UTC) não localizada na base de dados da REDEMET
2015062903 - Mensagem METAR de 'SBKG' para 29/06/2015 as 03(UTC) não localizada na base de dados da REDEMET
2015062903 - SPECI SBKG 290335Z 10006KT 9999 VCSH BKN004 BKN012 21/20 Q1018=
2015062903 - SPECI SBKG 290315Z 11004KT 9999 VCSH BKN007 BKN012 21/20 Q1019=
2015062904 - METAR SBKG 290400Z 12007KT 9000 BKN002 BKN009 21/21 Q1018=
2015062905 - METAR SBKG 290500Z 10011KT 6000 -DZRA BKN002 BKN009 20/20 Q1018=
2015062905 - SPECI COR SBKG 290535Z 16003KT 9999 SCT003 SCT005 BKN007 19/19 Q1017=
2015062905 - SPECI SBKG 290535Z 16003KT 9999 SCT003 SCT005 BKN007 19/19 Q1017 REDZ=
2015062906 - METAR COR SBKG 290600Z 15005KT 110V200 9999 SCT005 BKN007 BKN020 19/19 Q1017=
2015062906 - SPECI SBKG 290630Z VRB02KT 9999 SCT005 SCT013 BKN080 20/19 Q1017=
2015062907 - METAR SBKG 290700Z 00000KT 9999 SCT012 BKN016 BKN080 20/19 Q1017=
2015062908 - METAR SBKG 290800Z 12004KT 8000 -DZ SCT005 BKN010 BKN070 20/19 Q1018=
2015062909 - METAR SBKG 290900Z 12006KT 7000 -DZ SCT003 BKN010 BKN012 20/20 Q1018=
2015062910 - METAR SBKG 291000Z 17003KT 5000 BR SCT010 BKN015 20/20 Q1019=
2015062911 - METAR SBKG 291100Z 16005KT 8000 SCT015 BKN018 21/20 Q1020=
2015062912 - METAR SBKG 291200Z 15004KT 9999 BKN018 22/21 Q1020=
2015062913 - METAR SBKG 291300Z 10010KT 9999 SCT015 BKN018 23/21 Q1020=
2015062913 - SPECI SBKG 291340Z 11003KT 3000 -RA SCT007 BKN010 22/21 Q1020=
2015062914 - METAR SBKG 291400Z 13008KT 3000 -RA SCT007 BKN010 22/21 Q1020=
2015062915 - METAR SBKG 291500Z 11006KT 6000 SCT010 BKN015 23/21 Q1019=
2015062916 - METAR SBKG 291600Z 11013KT 9999 SCT013 BKN027 24/22 Q1017=
2015062917 - METAR SBKG 291700Z 11010KT 8000 VCSH SCT017 SCT027 BKN080 24/21 Q1017=
2015062917 - SPECI SBKG 291725Z 10015KT 4000 -RA SCT005 BKN014 BKN080 22/21 Q1017=
2015062918 - METAR SBKG 291800Z 09007KT 3000 -RA SCT003 BKN013 BKN070 21/21 Q1017=
2015062918 - SPECI SBKG 291822Z 09006KT 9999 FEW006 SCT032 BKN080 21/21 Q1017=
2015062919 - METAR SBKG 291900Z 09008KT 9999 FEW005 BKN080 21/21 Q1017=
2015062920 - METAR SBKG 292000Z 09005KT 9999 SCT015 BKN080 22/21 Q1017=
2015062921 - METAR SBKG 292100Z 11009KT 5000 -RA SCT004 BKN033 21/21 Q1018=
2015062922 - Mensagem METAR de 'SBKG' para 29/06/2015 as 22(UTC) não localizada na base de dados da REDEMET
2015062923 - Mensagem METAR de 'SBKG' para 29/06/2015 as 23(UTC) não localizada na base de dados da REDEMET
2015063000 - Mensagem METAR de 'SBKG' para 30/06/2015 as 00(UTC) não localizada na base de dados da REDEMET
2015063001 - Mensagem METAR de 'SBKG' para 30/06/2015 as 01(UTC) não localizada na base de dados da REDEMET
2015063002 - Mensagem METAR de 'SBKG' para 30/06/2015 as 02(UTC) não localizada na base de dados da REDEMET
2015063003 - Mensagem METAR de 'SBKG' para 30/06/2015 as 03(UTC) não localizada na base de dados da REDEMET
2015063003 - SPECI SBKG 300315Z 15002KT 9999 SCT010 BKN015 21/21 Q1019=
2015063004 - METAR SBKG 300400Z 15003KT 9999 BKN018 21/21 Q1018=
2015063005 - METAR SBKG 300500Z 15004KT 9999 BKN018 21/21 Q1017=
2015063006 - METAR SBKG 300600Z 15003KT 9999 BKN015 21/20 Q1017=
2015063007 - METAR SBKG 300700Z 12003KT 9999 BKN015 21/21 Q1017=
2015063008 - METAR SBKG 300800Z 12004KT 9999 BKN015 21/21 Q1017=
2015063009 - METAR SBKG 300900Z 11003KT 9999 SCT015 BKN018 21/21 Q1018=
2015063010 - METAR SBKG 301000Z 10005KT 9999 SCT013 BKN016 22/21 Q1019=
2015063011 - METAR SBKG 301100Z 11006KT 9999 SCT007 BKN017 22/21 Q1019=
2015063012 - METAR SBKG 301200Z 12010KT 8000 VCSH FEW014 BKN033 BKN090 23/21 Q1020=
2015063013 - METAR SBKG 301300Z 11011KT 9999 SCT015 BKN032 BKN090 24/21 Q1019=
2015063014 - METAR SBKG 301400Z 11012KT 8000 VCSH SCT019 BKN021 FEW032TCU 25/21 Q1019=
2015063014 - SPECI SBKG 301420Z 13015KT 3500 -RA SCT005 BKN018 22/21 Q1019=
2015063015 - METAR SBKG 301500Z 11009KT 8000 VCSH SCT006 SCT016 BKN080 22/22 Q1019=
2015063015 - SPECI SBKG 301510Z 09010KT 4000 -RA SCT007 BKN015 OVC070 22/21 Q1019=
2015063016 - METAR SBKG 301600Z 11009KT 9999 SCT007 SCT018 BKN080 23/22 Q1017=
2015063017 - METAR SBKG 301700Z 09015KT 3000 RA SCT007 BKN013 OVC070 22/19 Q1017=
2015063017 - SPECI SBKG 301730Z 10012KT 4000 -RA SCT007 OVC010 OVC070 22/21 Q1017 RERA=
2015063018 - METAR SBKG 301800Z 11010KT 3000 -RA FEW007 BKN013 OVC070 22/21 Q1017 RERA=
2015063019 - METAR SBKG 301900Z 10009KT 3000 -RA BKN007 BKN014 OVC070 22/22 Q1017=
2015063019 - SPECI SBKG 301940Z 10008KT 6000 BKN007 SCT010 OVC080 22/21 Q1017=
2015063019 - SPECI SBKG 301915Z 10011KT 9999 VCSH SCT007 SCT014 OVC080 22/21 Q1017=
2015063020 - METAR SBKG 302000Z 10007KT 6000 BKN007 OVC070 22/21 Q1017=
2015063021 - METAR SBKG 302100Z 11008KT 6000 BKN006 OVC070 22/22 Q1017=
2015063022 - Mensagem METAR de 'SBKG' para 30/06/2015 as 22(UTC) não localizada na base de dados da REDEMET
2015063023 - Mensagem METAR de 'SBKG' para 30/06/2015 as 23(UTC) não localizada na base de dados da REDEMET