2016060100 - Mensagem METAR de 'SBKG' para 01/06/2016 as 00(UTC) não localizada na base de dados da REDEMET
2016060101 - Mensagem METAR de 'SBKG' para 01/06/2016 as 01(UTC) não localizada na base de dados da REDEMET
2016060102 - Mensagem METAR de 'SBKG' para 01/06/2016 as 02(UTC) não localizada na base de dados da REDEMET
2016060102 - SPECI SBKG 010215Z 10004KT CAVOK 22/21 Q1015=
2016060103 - METAR SBKG 010300Z 11004KT 9999 SCT011 BKN014 22/21 Q1015=
2016060104 - METAR SBKG 010400Z 12005KT 9999 SCT011 BKN014 22/21 Q1015=
2016060105 - METAR SBKG 010500Z 13003KT 9999 SCT010 21/20 Q1014=
2016060106 - METAR SBKG 010600Z 10003KT 9999 FEW010 20/20 Q1014=
2016060107 - METAR SBKG 010700Z 11002KT 9999 FEW010 20/20 Q1014=
2016060108 - METAR SBKG 010800Z 15002KT 9999 SCT007 20/20 Q1014=
2016060109 - METAR SBKG 010900Z 15003KT 9999 FEW007 20/20 Q1015=
2016060110 - METAR SBKG 011000Z 16004KT 9999 FEW010 22/20 Q1016=
2016060111 - METAR SBKG 011100Z 17008KT 140V200 9999 SCT013 23/20 Q1017=
2016060112 - METAR SBKG 011200Z 16009KT 9999 SCT015 24/20 Q1017=
2016060113 - METAR SBKG 011300Z 14010KT 9999 SCT021 25/20 Q1017=
2016060114 - METAR SBKG 011400Z 14008KT 120V180 9999 SCT028 26/20 Q1016=
2016060115 - METAR SBKG 011500Z 13009KT 9999 FEW030 27/20 Q1015=
2016060116 - METAR SBKG 011600Z 13008KT 9999 SCT030 28/19 Q1014=
2016060117 - METAR SBKG 011700Z 14009KT 9999 FEW040 29/19 Q1013=
2016060118 - METAR SBKG 011800Z 13008KT 9999 FEW040 28/19 Q1013=
2016060119 - METAR SBKG 011900Z 13010KT 9999 FEW030 27/19 Q1013=
2016060119 - SPECI SBKG 011945Z 12010KT CAVOK 27/19 Q1014=
2016060120 - Mensagem METAR de 'SBKG' para 01/06/2016 as 20(UTC) não localizada na base de dados da REDEMET
2016060121 - Mensagem METAR de 'SBKG' para 01/06/2016 as 21(UTC) não localizada na base de dados da REDEMET
2016060122 - Mensagem METAR de 'SBKG' para 01/06/2016 as 22(UTC) não localizada na base de dados da REDEMET
2016060123 - Mensagem METAR de 'SBKG' para 01/06/2016 as 23(UTC) não localizada na base de dados da REDEMET
2016060200 - Mensagem METAR de 'SBKG' para 02/06/2016 as 00(UTC) não localizada na base de dados da REDEMET
2016060201 - Mensagem METAR de 'SBKG' para 02/06/2016 as 01(UTC) não localizada na base de dados da REDEMET
2016060202 - Mensagem METAR de 'SBKG' para 02/06/2016 as 02(UTC) não localizada na base de dados da REDEMET
2016060202 - SPECI SBKG 020215Z 09004KT 9999 FEW010 21/21 Q1015=
2016060203 - METAR SBKG 020300Z 10003KT 9999 FEW010 21/21 Q1015=
2016060204 - METAR SBKG 020400Z 12003KT 9999 SCT006 21/20 Q1015=
2016060205 - METAR SBKG 020500Z 13004KT CAVOK 21/20 Q1014=
2016060206 - METAR SBKG 020600Z 13004KT 9999 FEW005 20/20 Q1014=
2016060207 - METAR SBKG 020700Z 14004KT 9999 BKN007 21/21 Q1014=
2016060208 - METAR SBKG 020800Z 14006KT 9999 BKN005 21/21 Q1014=
2016060209 - METAR SBKG 020900Z 13003KT 9999 SCT005 BKN007 21/21 Q1015=
2016060210 - METAR SBKG 021000Z 15006KT 9999 OVC007 22/21 Q1016=
2016060211 - METAR SBKG 021100Z 16007KT 9999 BKN010 23/21 Q1017=
2016060212 - METAR SBKG 021200Z 14007KT 9999 BKN013 25/21 Q1017=
2016060213 - METAR SBKG 021300Z 12008KT 9999 BKN015 25/21 Q1017=
2016060214 - METAR SBKG 021400Z 11008KT 9999 BKN018 26/21 Q1016=
2016060215 - METAR SBKG 021500Z 11009KT 9999 SCT040 28/21 Q1015=
2016060216 - METAR SBKG 021600Z 10007KT 9999 SCT040 29/20 Q1014=
2016060217 - METAR SBKG 021700Z 10008KT 9999 SCT040 28/21 Q1014=
2016060218 - METAR SBKG 021800Z 11011KT 9999 FEW040 28/21 Q1013=
2016060219 - METAR SBKG 021900Z 09010KT 9999 FEW040 28/19 Q1013=
2016060220 - METAR SBKG 022000Z 08011KT CAVOK 27/21 Q1014=
2016060220 - SPECI SBKG 022045Z 09009KT CAVOK 25/22 Q1014=
2016060221 - Mensagem METAR de 'SBKG' para 02/06/2016 as 21(UTC) não localizada na base de dados da REDEMET
2016060222 - Mensagem METAR de 'SBKG' para 02/06/2016 as 22(UTC) não localizada na base de dados da REDEMET
2016060223 - Mensagem METAR de 'SBKG' para 02/06/2016 as 23(UTC) não localizada na base de dados da REDEMET
2016060300 - Mensagem METAR de 'SBKG' para 03/06/2016 as 00(UTC) não localizada na base de dados da REDEMET
2016060301 - Mensagem METAR de 'SBKG' para 03/06/2016 as 01(UTC) não localizada na base de dados da REDEMET
2016060302 - Mensagem METAR de 'SBKG' para 03/06/2016 as 02(UTC) não localizada na base de dados da REDEMET
2016060302 - SPECI SBKG 030215Z 11007KT 9999 BKN004 BKN007 23/22 Q1016=
2016060303 - METAR SBKG 030300Z 10004KT 9999 BKN005 23/22 Q1016=
2016060304 - METAR SBKG 030400Z 00000KT 9999 SCT003 BKN009 22/22 Q1015=
2016060304 - SPECI SBKG 030440Z 06003KT 9999 FEW007 22/22 Q1014=
2016060305 - METAR SBKG 030500Z 07002KT 9999 FEW007 22/22 Q1014=
2016060306 - METAR SBKG 030600Z 10004KT 9999 SCT004 23/22 Q1014=
2016060307 - METAR SBKG 030700Z 10004KT 9999 FEW004 22/22 Q1014=
2016060308 - METAR SBKG 030800Z 06004KT 9999 FEW010 SCT080 22/22 Q1015=
2016060309 - METAR SBKG 030900Z 15002KT 9999 SCT010 BKN015 22/22 Q1016=
2016060310 - METAR SBKG 031000Z 19003KT 5000 BR SCT010 BKN015 23/22 Q1016=
2016060311 - METAR SBKG 031100Z 13005KT 9999 BKN018 24/22 Q1017=
2016060312 - METAR SBKG 031200Z 13008KT 9999 SCT010 BKN015 25/22 Q1017=
2016060313 - METAR SBKG 031300Z 13007KT 9999 SCT010 BKN015 25/22 Q1018=
2016060314 - METAR SBKG 031400Z 14007KT 9999 SCT010 BKN015 25/22 Q1017=
2016060315 - METAR SBKG 031500Z 13010KT 9999 SCT010 BKN015 24/22 Q1017=
2016060316 - METAR SBKG 031600Z 09011KT 8000 VCSH SCT006 BKN010 BKN015 23/22 Q1016=
2016060317 - METAR SBKG 031700Z 09011KT 8000 -RA SCT004 BKN010 BKN015 22/21 Q1015=
2016060318 - METAR SBKG 031800Z 10013KT 9999 SCT005 BKN010 BKN015 22/21 Q1015=
2016060318 - SPECI SBKG 031815Z 10013KT 3500 -DZ SCT005 BKN014 BKN016 22/21 Q1016=
2016060319 - METAR SBKG 031900Z 10011KT 3500 -RA BR SCT004 BKN010 BKN015 21/21 Q1016=
2016060319 - SPECI SBKG 031945Z 10010KT 4000 -RA BR SCT004 BKN010 BKN015 21/21 Q1016=
2016060320 - Mensagem METAR de 'SBKG' para 03/06/2016 as 20(UTC) não localizada na base de dados da REDEMET
2016060321 - Mensagem METAR de 'SBKG' para 03/06/2016 as 21(UTC) não localizada na base de dados da REDEMET
2016060322 - Mensagem METAR de 'SBKG' para 03/06/2016 as 22(UTC) não localizada na base de dados da REDEMET
2016060323 - METAR SBKG 032300Z 16005KT 9999 BKN010 21/20 Q1017=
2016060400 - METAR SBKG 040000Z 13005KT 9999 BKN010 21/21 Q1017=
2016060401 - METAR SBKG 040100Z 10007KT 9999 BKN010 21/21 Q1017=
2016060402 - METAR SBKG 040200Z 07006KT 9999 BKN007 21/21 Q1017=
2016060403 - METAR SBKG 040300Z 07007KT 9999 BKN007 21/21 Q1016=
2016060404 - METAR SBKG 040400Z 07005KT 5000 BR BKN007 21/21 Q1016=
2016060405 - METAR SBKG 040500Z 08007KT 3000 BR BKN007 21/20 Q1015=
2016060406 - METAR SBKG 040600Z 07004KT 3000 BR BKN007 20/20 Q1015=
2016060407 - METAR SBKG 040700Z 08005KT 5000 BR BKN007 21/20 Q1015=
2016060408 - METAR SBKG 040800Z 13004KT 3000 BR BKN007 21/20 Q1015=
2016060409 - METAR SBKG 040900Z 14004KT 1000 -DZ SCT004 BKN013 21/21 Q1015=
2016060410 - METAR SBKG 041000Z 18002KT 2000 -RADZ SCT005 BKN007 22/22 Q1016=
2016060411 - METAR SBKG 041100Z 12003KT 1800 -RADZ SCT003 BKN007 22/22 Q1017=
2016060412 - METAR SBKG 041200Z 15005KT 2500 -RADZ SCT004 BKN009 23/23 Q1017=
2016060413 - METAR SBKG 041300Z 10007KT 5000 BR BKN007 BKN015 24/22 Q1017=
2016060413 - SPECI SBKG 041330Z 11008KT 8000 VCSH FEW005 SCT007 BKN018 24/23 Q1017=
2016060414 - METAR SBKG 041400Z 09009KT 9999 SCT009 BKN016 24/22 Q1017=
2016060415 - METAR SBKG 041500Z 10010KT 060V140 9999 SCT013 BKN020 25/23 Q1016=
2016060416 - METAR SBKG 041600Z 08012KT 9999 VCSH BKN013 BKN020 23/22 Q1015=
2016060416 - SPECI SBKG 041631Z 09009KT 9999 SCT009 SCT020 FEW040TCU 25/23 Q1015=
2016060417 - METAR SBKG 041700Z 09009KT 9999 FEW009 BKN020 26/23 Q1014=
2016060418 - METAR SBKG 041800Z 11008KT 060V130 9999 SCT015 BKN020 26/22 Q1014=
2016060419 - METAR SBKG 041900Z 11009KT 9999 FEW011 SCT025 FEW040TCU 25/23 Q1014=
2016060419 - SPECI SBKG 041945Z 11008KT 9999 FEW014 SCT040TCU 25/23 Q1014=
2016060420 - Mensagem METAR de 'SBKG' para 04/06/2016 as 20(UTC) não localizada na base de dados da REDEMET
2016060421 - Mensagem METAR de 'SBKG' para 04/06/2016 as 21(UTC) não localizada na base de dados da REDEMET
2016060422 - Mensagem METAR de 'SBKG' para 04/06/2016 as 22(UTC) não localizada na base de dados da REDEMET
2016060423 - Mensagem METAR de 'SBKG' para 04/06/2016 as 23(UTC) não localizada na base de dados da REDEMET
2016060500 - Mensagem METAR de 'SBKG' para 05/06/2016 as 00(UTC) não localizada na base de dados da REDEMET
2016060501 - Mensagem METAR de 'SBKG' para 05/06/2016 as 01(UTC) não localizada na base de dados da REDEMET
2016060502 - Mensagem METAR de 'SBKG' para 05/06/2016 as 02(UTC) não localizada na base de dados da REDEMET
2016060502 - SPECI SBKG 050215Z 13005KT 0500 FG VV003 22/22 Q1017=
2016060503 - METAR SBKG 050300Z 09005KT 0500 BCFG OVC004 22/22 Q1017=
2016060504 - METAR SBKG 050400Z 11007KT 0500 FG OVC004 22/22 Q1016=
2016060505 - METAR SBKG 050500Z 11006KT 4000 BR SCT003 BKN010 22/22 Q1016=
2016060506 - METAR SBKG 050600Z 10008KT 2500 -RA SCT002 BKN008 22/22 Q1015=
2016060507 - METAR SBKG 050700Z 10010KT 2000 BR SCT003 BKN008 22/22 Q1016=
2016060508 - METAR SBKG 050800Z 10011KT 2000 BR SCT003 BKN007 22/22 Q1016=
2016060509 - METAR SBKG 050900Z 11012KT 4000 BR SCT003 BKN010 22/22 Q1017=
2016060510 - METAR SBKG 051000Z 10010KT 5000 BR SCT003 BKN010 22/22 Q1017=
2016060511 - METAR SBKG 051100Z 10013KT 9999 SCT006 BKN010 BKN015 23/22 Q1017=
2016060512 - METAR SBKG 051200Z 10014KT 9999 SCT015 25/22 Q1018=
2016060513 - METAR SBKG 051300Z 09013KT 9999 SCT020 26/21 Q1018=
2016060514 - METAR SBKG 051400Z 11015KT 9999 SCT020 27/21 Q1017=
2016060515 - METAR SBKG 051500Z 10014KT 070V130 9999 SCT033 28/20 Q1016=
2016060516 - METAR SBKG 051600Z 12012KT 9999 SCT040 28/19 Q1016=
2016060517 - METAR SBKG 051700Z 10012KT 070V130 9999 SCT040 28/19 Q1015=
2016060518 - METAR SBKG 051800Z 10012KT 080V140 9999 SCT036 28/19 Q1015=
2016060519 - METAR SBKG 051900Z 10011KT 9999 FEW035 27/19 Q1015=
2016060519 - SPECI SBKG 051945Z 10010KT 9999 FEW030 27/20 Q1015=
2016060520 - Mensagem METAR de 'SBKG' para 05/06/2016 as 20(UTC) não localizada na base de dados da REDEMET
2016060521 - Mensagem METAR de 'SBKG' para 05/06/2016 as 21(UTC) não localizada na base de dados da REDEMET
2016060522 - Mensagem METAR de 'SBKG' para 05/06/2016 as 22(UTC) não localizada na base de dados da REDEMET
2016060523 - Mensagem METAR de 'SBKG' para 05/06/2016 as 23(UTC) não localizada na base de dados da REDEMET
2016060600 - Mensagem METAR de 'SBKG' para 06/06/2016 as 00(UTC) não localizada na base de dados da REDEMET
2016060601 - Mensagem METAR de 'SBKG' para 06/06/2016 as 01(UTC) não localizada na base de dados da REDEMET
2016060602 - Mensagem METAR de 'SBKG' para 06/06/2016 as 02(UTC) não localizada na base de dados da REDEMET
2016060602 - SPECI SBKG 060215Z 19004KT 9999 SCT015 22/21 Q1017=
2016060603 - METAR SBKG 060300Z 08004KT 9999 FEW008 SCT015 22/21 Q1017=
2016060604 - METAR SBKG 060400Z 09004KT 9999 SCT013 SCT015 22/21 Q1016=
2016060605 - METAR SBKG 060500Z 09003KT 9999 FEW005 SCT010 22/21 Q1016=
2016060605 - SPECI SBKG 060515Z 09003KT 4000 -RA BR SCT004 BKN010 22/22 Q1015=
2016060606 - METAR SBKG 060600Z 09005KT 6000 SCT002 BKN010 BKN015 22/22 Q1015=
2016060607 - METAR SBKG 060700Z 09005KT 5000 BR SCT003 BKN008 22/22 Q1015=
2016060608 - METAR SBKG 060800Z 10006KT 2000 BR BKN002 BKN007 22/22 Q1015=
2016060609 - METAR COR SBKG 060900Z 10006KT 3000 1000S BCFG BR BKN002 BKN009 22/22 Q1016=
2016060609 - SPECI SBKG 060940Z 09005KT 8000 3500S SCT002 BKN009 22/22 Q1017=
2016060610 - METAR SBKG 061000Z 09005KT 060V120 8000 FEW003 SCT010 BKN015 22/22 Q1017=
2016060611 - METAR SBKG 061100Z 10006KT 060V120 9999 SCT007 SCT014 24/22 Q1017=
2016060612 - METAR SBKG 061200Z 10007KT 070V130 9999 BKN015 24/22 Q1018=
2016060613 - METAR SBKG 061300Z 09009KT 050V130 9999 BKN019 26/21 Q1018=
2016060614 - METAR SBKG 061400Z 09009KT 050V120 9999 SCT023 27/20 Q1017=
2016060615 - METAR SBKG 061500Z 09010KT 9999 SCT030 28/21 Q1016=
2016060616 - METAR SBKG 061600Z 09010KT 9999 SCT030 27/22 Q1015=
2016060617 - METAR SBKG 061700Z 08007KT 9999 SCT030 28/22 Q1014=
2016060618 - METAR SBKG 061800Z 09009KT 9999 SCT030 28/21 Q1014=
2016060619 - METAR SBKG 061900Z 07010KT 9999 SCT025 27/22 Q1014=
2016060619 - SPECI SBKG 061945Z 07010KT 9999 SCT020 26/22 Q1015=
2016060620 - Mensagem METAR de 'SBKG' para 06/06/2016 as 20(UTC) não localizada na base de dados da REDEMET
2016060621 - Mensagem METAR de 'SBKG' para 06/06/2016 as 21(UTC) não localizada na base de dados da REDEMET
2016060622 - Mensagem METAR de 'SBKG' para 06/06/2016 as 22(UTC) não localizada na base de dados da REDEMET
2016060623 - Mensagem METAR de 'SBKG' para 06/06/2016 as 23(UTC) não localizada na base de dados da REDEMET
2016060700 - Mensagem METAR de 'SBKG' para 07/06/2016 as 00(UTC) não localizada na base de dados da REDEMET
2016060701 - Mensagem METAR de 'SBKG' para 07/06/2016 as 01(UTC) não localizada na base de dados da REDEMET
2016060702 - Mensagem METAR de 'SBKG' para 07/06/2016 as 02(UTC) não localizada na base de dados da REDEMET
2016060702 - SPECI SBKG 070215Z 09008KT 3000 -RA BR SCT004 BKN009 23/22 Q1018=
2016060703 - METAR SBKG 070300Z 10009KT 5000 BR SCT003 SCT007 BKN012 22/22 Q1017=
2016060703 - SPECI SBKG 070332Z 08008KT 5000 BR SCT003 BKN008 BKN015 22/22 Q1017=
2016060704 - METAR SBKG 070400Z 09010KT 5000 BR SCT003 BKN008 BKN010 22/22 Q1017=
2016060705 - METAR SBKG 070500Z 09010KT 4000 BR BKN002 BKN008 22/22 Q1016=
2016060706 - METAR SBKG 070600Z 08008KT 3000 BR OVC002 22/22 Q1016=
2016060707 - METAR COR SBKG 070700Z 08008KT 5000 BR BKN002 BKN005 22/21 Q1016=
2016060708 - METAR SBKG 070800Z 10009KT 3000 BR BKN002 BKN007 22/21 Q1016=
2016060709 - METAR SBKG 070900Z 08006KT 0050 FG VV002 21/21 Q1016=
2016060709 - SPECI SBKG 070930Z 09006KT 2000 BR BKN003 22/21 Q1017=
2016060710 - METAR SBKG 071000Z 09006KT 8000 SCT003 BKN009 22/21 Q1017=
2016060711 - METAR SBKG 071100Z 10008KT 9999 FEW007 SCT010 24/21 Q1018=
2016060712 - METAR SBKG 071200Z 11008KT 9999 SCT012 24/21 Q1018=
2016060713 - METAR SBKG 071300Z 10007KT 9999 SCT015 26/20 Q1018=
2016060714 - METAR SBKG 071400Z 11007KT 9999 SCT020 27/19 Q1018=
2016060715 - METAR SBKG 071500Z 09008KT CAVOK 28/17 Q1017=
2016060716 - METAR SBKG 071600Z 09007KT 9999 FEW040 28/19 Q1016=
2016060717 - METAR SBKG 071700Z 09008KT 9999 FEW043 29/19 Q1015=
2016060718 - METAR SBKG 071800Z 08007KT 9999 FEW040 28/20 Q1015=
2016060719 - METAR SBKG 071900Z 07008KT CAVOK 28/19 Q1015=
2016060719 - SPECI SBKG 071945Z 09009KT CAVOK 27/20 Q1015=
2016060720 - Mensagem METAR de 'SBKG' para 07/06/2016 as 20(UTC) não localizada na base de dados da REDEMET
2016060721 - Mensagem METAR de 'SBKG' para 07/06/2016 as 21(UTC) não localizada na base de dados da REDEMET
2016060722 - Mensagem METAR de 'SBKG' para 07/06/2016 as 22(UTC) não localizada na base de dados da REDEMET
2016060723 - Mensagem METAR de 'SBKG' para 07/06/2016 as 23(UTC) não localizada na base de dados da REDEMET
2016060800 - Mensagem METAR de 'SBKG' para 08/06/2016 as 00(UTC) não localizada na base de dados da REDEMET
2016060801 - Mensagem METAR de 'SBKG' para 08/06/2016 as 01(UTC) não localizada na base de dados da REDEMET
2016060802 - Mensagem METAR de 'SBKG' para 08/06/2016 as 02(UTC) não localizada na base de dados da REDEMET
2016060802 - SPECI SBKG 080215Z 06008KT 9999 BKN007 22/21 Q1018=
2016060803 - METAR SBKG 080300Z 07008KT 9999 BKN007 22/21 Q1017=
2016060804 - METAR SBKG 080400Z 08008KT 8000 SCT005 BKN007 22/21 Q1017=
2016060805 - METAR SBKG 080500Z 09007KT 8000 SCT005 BKN007 22/21 Q1017=
2016060806 - METAR SBKG 080600Z 08005KT 2000 BR VV002 21/21 Q1017=
2016060807 - METAR SBKG 080700Z 08007KT 9999 BKN002 22/21 Q1017=
2016060808 - METAR SBKG 080800Z 08006KT 9999 BKN002 22/21 Q1017=
2016060809 - METAR SBKG 080900Z 10006KT 3000 BR BKN007 22/21 Q1017=
2016060810 - METAR SBKG 081000Z 09006KT 5000 BR SCT007 BKN010 22/22 Q1018=
2016060810 - SPECI SBKG 081015Z 10007KT 6000 SCT010 BKN018 22/21 Q1018=
2016060811 - METAR SBKG 081100Z 09007KT 9999 BKN018 24/22 Q1018=
2016060812 - METAR SBKG 081200Z 09008KT 9999 SCT020 25/22 Q1019=
2016060813 - METAR SBKG 081300Z 09010KT 9999 SCT030 26/21 Q1019=
2016060814 - METAR SBKG 081400Z 10009KT 9999 SCT030 27/21 Q1018=
2016060815 - METAR SBKG 081500Z 08009KT 9999 SCT030 28/21 Q1017=
2016060816 - METAR SBKG 081600Z 09007KT 9999 SCT030 29/21 Q1016=
2016060817 - METAR SBKG 081700Z 09009KT 9999 SCT030 29/20 Q1015=
2016060818 - METAR SBKG 081800Z 07008KT 9999 SCT036 29/20 Q1015=
2016060819 - METAR SBKG 081900Z 07009KT 9999 FEW030 29/20 Q1015=
2016060819 - SPECI SBKG 081945Z 08011KT 9999 FEW030 27/22 Q1016=
2016060820 - Mensagem METAR de 'SBKG' para 08/06/2016 as 20(UTC) não localizada na base de dados da REDEMET
2016060821 - Mensagem METAR de 'SBKG' para 08/06/2016 as 21(UTC) não localizada na base de dados da REDEMET
2016060822 - Mensagem METAR de 'SBKG' para 08/06/2016 as 22(UTC) não localizada na base de dados da REDEMET
2016060823 - Mensagem METAR de 'SBKG' para 08/06/2016 as 23(UTC) não localizada na base de dados da REDEMET
2016060900 - METAR SBKG 090000Z 07011KT 9999 BKN007 23/22 Q1018=
2016060901 - METAR SBKG 090100Z 07011KT 9999 BKN007 23/22 Q1018=
2016060902 - METAR SBKG 090200Z 08009KT 9999 BKN007 23/22 Q1018=
2016060903 - METAR SBKG 090300Z 09008KT 6000 BKN007 23/22 Q1018=
2016060904 - METAR SBKG 090400Z 10009KT 6000 BKN007 23/22 Q1018=
2016060905 - METAR SBKG 090500Z 11007KT 6000 BKN007 22/22 Q1018=
2016060906 - METAR SBKG 090600Z 09006KT 6000 BKN007 22/22 Q1017=
2016060907 - METAR SBKG 090700Z 09007KT 3000 BR BKN006 22/22 Q1017=
2016060908 - METAR SBKG 090800Z 08006KT 5000 BR BKN007 22/21 Q1017=
2016060909 - METAR SBKG 090900Z 09004KT 5000 BR SCT004 BKN007 BKN018 22/22 Q1018=
2016060909 - SPECI SBKG 090935Z 10008KT 5000 BR SCT004 SCT007 BKN019 22/21 Q1018=
2016060910 - METAR SBKG 091000Z 09007KT 6000 FEW005 SCT011 BKN017 23/22 Q1019=
2016060911 - METAR SBKG 091100Z 09010KT 9999 SCT011 SCT019 24/21 Q1019=
2016060912 - METAR SBKG 091200Z 11008KT 9999 FEW017 BKN026 26/21 Q1020=
2016060913 - METAR SBKG 091300Z 10008KT 9999 BKN026 26/21 Q1020=
2016060914 - METAR SBKG 091400Z 07008KT 9999 BKN030 28/19 Q1019=
2016060915 - METAR SBKG 091500Z 12008KT 080V150 9999 BKN032 27/21 Q1018=
2016060916 - METAR SBKG 091600Z 11010KT 060V130 9999 SCT032 28/21 Q1017=
2016060917 - METAR SBKG 091700Z 07009KT 050V110 9999 FEW039 29/20 Q1017=
2016060918 - METAR SBKG 091800Z 09011KT 070V130 9999 SCT036 29/20 Q1016=
2016060919 - METAR SBKG 091900Z 10012KT CAVOK 28/21 Q1017=
2016060919 - SPECI SBKG 091945Z 07011KT CAVOK 26/21 Q1016=
2016060920 - Mensagem METAR de 'SBKG' para 09/06/2016 as 20(UTC) não localizada na base de dados da REDEMET
2016060921 - Mensagem METAR de 'SBKG' para 09/06/2016 as 21(UTC) não localizada na base de dados da REDEMET
2016060922 - Mensagem METAR de 'SBKG' para 09/06/2016 as 22(UTC) não localizada na base de dados da REDEMET
2016060923 - Mensagem METAR de 'SBKG' para 09/06/2016 as 23(UTC) não localizada na base de dados da REDEMET
2016061000 - Mensagem METAR de 'SBKG' para 10/06/2016 as 00(UTC) não localizada na base de dados da REDEMET
2016061001 - Mensagem METAR de 'SBKG' para 10/06/2016 as 01(UTC) não localizada na base de dados da REDEMET
2016061002 - Mensagem METAR de 'SBKG' para 10/06/2016 as 02(UTC) não localizada na base de dados da REDEMET
2016061002 - SPECI SBKG 100215Z 08010KT 9999 SCT004 BKN011 22/22 Q1019=
2016061003 - METAR SBKG 100300Z 08009KT 4000 BR SCT003 BKN012 22/22 Q1019=
2016061004 - METAR SBKG 100400Z 08008KT 2500 BR SCT003 BKN011 BKN022 22/22 Q1018=
2016061005 - METAR SBKG 100500Z 09007KT 4000 BR SCT003 BKN010 BKN024 22/22 Q1018=
2016061006 - METAR SBKG 100600Z 07008KT 4000 BR SCT004 BKN013 22/21 Q1017=
2016061007 - METAR SBKG 100700Z 08007KT 4000 BR SCT004 BKN010 22/21 Q1018=
2016061008 - METAR SBKG 100800Z 09008KT 2000 BR SCT002 BKN007 22/22 Q1018=
2016061009 - METAR SBKG 100900Z 10009KT 3000 BR SCT003 BKN008 22/21 Q1019=
2016061010 - METAR SBKG 101000Z 09007KT 9999 FEW005 BKN010 BKN015 22/21 Q1019=
2016061011 - METAR SBKG 101100Z 09008KT 9999 SCT011 BKN015 24/21 Q1020=
2016061012 - METAR SBKG 101200Z 11009KT 9999 SCT017 25/21 Q1020=
2016061013 - METAR SBKG 101300Z 09009KT 9999 SCT020 27/20 Q1019=
2016061014 - METAR SBKG 101400Z 10010KT 9999 BKN025 28/19 Q1019=
2016061015 - METAR SBKG 101500Z 09008KT 9999 BKN040 29/19 Q1018=
2016061016 - METAR SBKG 101600Z 13009KT 9999 BKN040 29/19 Q1017=
2016061017 - METAR SBKG 101700Z 13007KT 9999 SCT044 29/19 Q1016=
2016061018 - METAR SBKG 101800Z 09008KT CAVOK 29/18 Q1016=
2016061019 - METAR SBKG 101900Z 09010KT 9999 FEW030 29/17 Q1017=
2016061019 - SPECI SBKG 101945Z 10011KT 9999 FEW030 27/20 Q1017=
2016061020 - Mensagem METAR de 'SBKG' para 10/06/2016 as 20(UTC) não localizada na base de dados da REDEMET
2016061021 - Mensagem METAR de 'SBKG' para 10/06/2016 as 21(UTC) não localizada na base de dados da REDEMET
2016061022 - Mensagem METAR de 'SBKG' para 10/06/2016 as 22(UTC) não localizada na base de dados da REDEMET
2016061023 - Mensagem METAR de 'SBKG' para 10/06/2016 as 23(UTC) não localizada na base de dados da REDEMET
2016061100 - Mensagem METAR de 'SBKG' para 11/06/2016 as 00(UTC) não localizada na base de dados da REDEMET
2016061100 - SPECI SBKG 110015Z 09007KT 9999 FEW006 SCT013 22/21 Q1020=
2016061101 - METAR SBKG 110100Z 09006KT 9999 FEW006 SCT011 22/21 Q1020=
2016061102 - METAR SBKG 110200Z 09006KT 9999 SCT003 BKN010 22/21 Q1020=
2016061103 - METAR SBKG 110300Z 13005KT 9999 SCT002 BKN010 21/21 Q1020=
2016061104 - METAR SBKG 110400Z 11004KT 9999 SCT005 BKN010 BKN015 22/21 Q1019=
2016061105 - METAR SBKG 110500Z 10007KT 9999 BKN010 BKN015 22/21 Q1019=
2016061106 - METAR SBKG 110600Z 12003KT 9999 FEW004 BKN010 BKN015 21/21 Q1019=
2016061107 - METAR SBKG 110700Z 10003KT 9999 BKN010 BKN015 21/20 Q1019=
2016061108 - METAR SBKG 110800Z 12002KT 9999 BKN010 20/20 Q1019=
2016061109 - METAR SBKG 110900Z 14003KT 9999 SCT011 SCT016 21/20 Q1019=
2016061110 - METAR SBKG 111000Z 10005KT 9999 SCT010 SCT014 22/20 Q1020=
2016061111 - METAR SBKG 111100Z 12008KT 9999 FEW011 SCT016 FEW020TCU 23/20 Q1021=
2016061112 - METAR SBKG 111200Z 15007KT 9999 BKN018 24/20 Q1021=
2016061113 - METAR SBKG 111300Z 12006KT 090V150 9999 SCT030 26/20 Q1021=
2016061114 - METAR SBKG 111400Z VRB05KT 9999 BKN033 27/18 Q1020=
2016061115 - METAR SBKG 111500Z 14005KT 9999 SCT040 28/18 Q1019=
2016061116 - METAR SBKG 111600Z 10009KT 9999 SCT040 28/18 Q1018=
2016061117 - METAR SBKG 111700Z 10006KT 9999 SCT040 29/17 Q1017=
2016061118 - METAR SBKG 111800Z 09009KT 9999 SCT040 28/18 Q1017=
2016061119 - METAR SBKG 111900Z 10010KT 9999 FEW040 28/18 Q1017=
2016061119 - SPECI SBKG 111945Z 09011KT CAVOK 27/18 Q1017=
2016061120 - Mensagem METAR de 'SBKG' para 11/06/2016 as 20(UTC) não localizada na base de dados da REDEMET
2016061121 - Mensagem METAR de 'SBKG' para 11/06/2016 as 21(UTC) não localizada na base de dados da REDEMET
2016061122 - Mensagem METAR de 'SBKG' para 11/06/2016 as 22(UTC) não localizada na base de dados da REDEMET
2016061123 - Mensagem METAR de 'SBKG' para 11/06/2016 as 23(UTC) não localizada na base de dados da REDEMET
2016061200 - Mensagem METAR de 'SBKG' para 12/06/2016 as 00(UTC) não localizada na base de dados da REDEMET
2016061201 - Mensagem METAR de 'SBKG' para 12/06/2016 as 01(UTC) não localizada na base de dados da REDEMET
2016061202 - Mensagem METAR de 'SBKG' para 12/06/2016 as 02(UTC) não localizada na base de dados da REDEMET
2016061202 - SPECI SBKG 120215Z 07006KT 9999 BKN006 21/20 Q1020=
2016061203 - METAR SBKG 120300Z 10006KT 9999 BKN005 21/20 Q1020=
2016061204 - METAR SBKG 120400Z 11003KT 080V140 9999 BKN005 21/20 Q1020=
2016061205 - METAR SBKG 120500Z 13003KT 9999 FEW006 BKN008 21/20 Q1019=
2016061206 - METAR SBKG 120600Z 13003KT 090V160 9999 BKN016 21/20 Q1019=
2016061207 - METAR SBKG 120700Z VRB01KT 9999 BKN018 21/20 Q1020=
2016061208 - METAR SBKG 120800Z VRB02KT 9999 FEW017 BKN080 20/19 Q1020=
2016061209 - METAR SBKG 120900Z 15003KT 9999 SCT012 SCT015 21/20 Q1020=
2016061210 - METAR SBKG 121000Z 14007KT 9999 SCT008 22/20 Q1021=
2016061211 - METAR SBKG 121100Z 15008KT 9999 SCT016 22/20 Q1022=
2016061212 - METAR SBKG 121200Z 14008KT 9999 FEW010 SCT015 24/19 Q1022=
2016061213 - METAR SBKG 121300Z 15010KT 9999 BKN020 26/18 Q1022=
2016061214 - METAR SBKG 121400Z 13010KT 9999 SCT030 27/17 Q1021=
2016061215 - METAR SBKG 121500Z 13008KT 9999 SCT040 28/18 Q1020=
2016061216 - METAR SBKG 121600Z 09009KT 9999 SCT040 29/15 Q1019=
2016061217 - METAR SBKG 121700Z 12011KT 9999 SCT040 28/18 Q1019=
2016061218 - METAR SBKG 121800Z 12011KT 9999 SCT040 28/18 Q1018=
2016061219 - METAR SBKG 121900Z 11010KT CAVOK 28/16 Q1018=
2016061219 - SPECI SBKG 121945Z 10013KT CAVOK 26/19 Q1019=
2016061220 - Mensagem METAR de 'SBKG' para 12/06/2016 as 20(UTC) não localizada na base de dados da REDEMET
2016061221 - Mensagem METAR de 'SBKG' para 12/06/2016 as 21(UTC) não localizada na base de dados da REDEMET
2016061222 - Mensagem METAR de 'SBKG' para 12/06/2016 as 22(UTC) não localizada na base de dados da REDEMET
2016061223 - Mensagem METAR de 'SBKG' para 12/06/2016 as 23(UTC) não localizada na base de dados da REDEMET
2016061300 - Mensagem METAR de 'SBKG' para 13/06/2016 as 00(UTC) não localizada na base de dados da REDEMET
2016061301 - Mensagem METAR de 'SBKG' para 13/06/2016 as 01(UTC) não localizada na base de dados da REDEMET
2016061302 - Mensagem METAR de 'SBKG' para 13/06/2016 as 02(UTC) não localizada na base de dados da REDEMET
2016061302 - SPECI SBKG 130215Z 11006KT CAVOK 20/18 Q1021=
2016061303 - METAR SBKG 130300Z 08003KT CAVOK 20/18 Q1021=
2016061304 - METAR SBKG 130400Z 12006KT CAVOK 20/18 Q1021=
2016061305 - METAR SBKG 130500Z 07002KT 9999 FEW010 20/19 Q1021=
2016061306 - METAR SBKG 130600Z 17003KT CAVOK 19/18 Q1021=
2016061307 - METAR SBKG 130700Z 00000KT CAVOK 19/18 Q1021=
2016061308 - METAR SBKG 130800Z 00000KT CAVOK 18/17 Q1021=
2016061309 - METAR SBKG 130900Z 19003KT 9999 SCT018 19/18 Q1022=
2016061310 - METAR SBKG 131000Z 15007KT 9999 FEW020 22/18 Q1022=
2016061311 - METAR SBKG 131100Z 15009KT 9999 FEW020 23/18 Q1023=
2016061312 - METAR SBKG 131200Z 15011KT 9999 SCT030 25/19 Q1023=
2016061313 - METAR SBKG 131300Z 13012KT 9999 SCT030 25/17 Q1023=
2016061314 - METAR SBKG 131400Z 13012KT 9999 SCT040 26/17 Q1022=
2016061315 - METAR SBKG 131500Z 14013KT 9999 SCT043 27/16 Q1021=
2016061316 - METAR SBKG 131600Z 11011KT CAVOK 28/15 Q1020=
2016061317 - METAR SBKG 131700Z 13012KT CAVOK 28/14 Q1020=
2016061318 - METAR SBKG 131800Z 11013KT CAVOK 28/15 Q1019=
2016061319 - METAR SBKG 131900Z 14012KT 9999 FEW044 27/17 Q1019=
2016061319 - SPECI SBKG 131945Z 13011KT CAVOK 26/19 Q1020=
2016061320 - Mensagem METAR de 'SBKG' para 13/06/2016 as 20(UTC) não localizada na base de dados da REDEMET
2016061321 - Mensagem METAR de 'SBKG' para 13/06/2016 as 21(UTC) não localizada na base de dados da REDEMET
2016061322 - Mensagem METAR de 'SBKG' para 13/06/2016 as 22(UTC) não localizada na base de dados da REDEMET
2016061323 - Mensagem METAR de 'SBKG' para 13/06/2016 as 23(UTC) não localizada na base de dados da REDEMET
2016061400 - Mensagem METAR de 'SBKG' para 14/06/2016 as 00(UTC) não localizada na base de dados da REDEMET
2016061401 - Mensagem METAR de 'SBKG' para 14/06/2016 as 01(UTC) não localizada na base de dados da REDEMET
2016061402 - Mensagem METAR de 'SBKG' para 14/06/2016 as 02(UTC) não localizada na base de dados da REDEMET
2016061402 - SPECI SBKG 140215Z 29002KT CAVOK 20/17 Q1022=
2016061403 - METAR SBKG 140300Z 11002KT CAVOK 20/18 Q1021=
2016061404 - METAR SBKG 140400Z 15004KT 9999 SCT018 20/18 Q1021=
2016061405 - METAR SBKG 140500Z 17005KT 9999 SCT018 20/18 Q1021=
2016061406 - METAR SBKG 140600Z 25002KT CAVOK 19/18 Q1020=
2016061407 - METAR SBKG 140700Z 15004KT CAVOK 20/18 Q1021=
2016061408 - METAR SBKG 140800Z 14003KT CAVOK 19/18 Q1021=
2016061409 - METAR SBKG 140900Z 15002KT 9999 SCT015 20/18 Q1021=
2016061410 - METAR SBKG 141000Z 16006KT CAVOK 21/19 Q1021=
2016061411 - METAR SBKG 141100Z 15007KT 9999 BKN017 23/19 Q1022=
2016061412 - METAR SBKG 141200Z 14012KT 9999 BKN020 25/19 Q1023=
2016061413 - METAR SBKG 141300Z 14012KT 9999 BKN023 24/18 Q1023=
2016061414 - METAR SBKG 141400Z 13014KT 9999 BKN015 BKN020 24/19 Q1022=
2016061415 - METAR SBKG 141500Z 14008KT 9999 BKN037 24/19 Q1022=
2016061416 - METAR SBKG 141600Z 13011KT 9999 BKN038 SCT070 27/18 Q1020=
2016061417 - METAR SBKG 141700Z 11011KT 9999 BKN041 SCT070 27/18 Q1019=
2016061418 - METAR SBKG 141800Z 11013KT 9999 BKN037 26/18 Q1019=
2016061419 - METAR SBKG 141900Z 08008KT 9999 BKN036 24/19 Q1020=
2016061419 - SPECI SBKG 141945Z 07009KT 9999 SCT040 FEW050TCU 23/20 Q1021=
2016061420 - Mensagem METAR de 'SBKG' para 14/06/2016 as 20(UTC) não localizada na base de dados da REDEMET
2016061421 - Mensagem METAR de 'SBKG' para 14/06/2016 as 21(UTC) não localizada na base de dados da REDEMET
2016061422 - Mensagem METAR de 'SBKG' para 14/06/2016 as 22(UTC) não localizada na base de dados da REDEMET
2016061423 - Mensagem METAR de 'SBKG' para 14/06/2016 as 23(UTC) não localizada na base de dados da REDEMET
2016061500 - Mensagem METAR de 'SBKG' para 15/06/2016 as 00(UTC) não localizada na base de dados da REDEMET
2016061501 - Mensagem METAR de 'SBKG' para 15/06/2016 as 01(UTC) não localizada na base de dados da REDEMET
2016061502 - Mensagem METAR de 'SBKG' para 15/06/2016 as 02(UTC) não localizada na base de dados da REDEMET
2016061502 - SPECI SBKG 150215Z 14005KT 9999 SCT013 SCT021 21/19 Q1022=
2016061503 - METAR SBKG 150300Z 14006KT 9999 FEW013 SCT021 21/19 Q1022=
2016061504 - METAR SBKG 150400Z 16003KT 9999 FEW011 20/19 Q1021=
2016061505 - METAR SBKG 150500Z 16002KT 9999 FEW011 20/19 Q1021=
2016061506 - METAR SBKG 150600Z 15004KT 9999 FEW015 20/18 Q1020=
2016061507 - METAR SBKG 150700Z 20002KT 9999 FEW013 19/18 Q1020=
2016061508 - METAR SBKG 150800Z 00000KT 9999 SCT011 19/18 Q1021=
2016061509 - METAR SBKG 150900Z 20003KT 9999 FEW015 19/18 Q1021=
2016061510 - METAR SBKG 151000Z 15003KT CAVOK 20/19 Q1022=
2016061511 - METAR SBKG 151100Z 16006KT 9999 BKN019 22/19 Q1022=
2016061512 - METAR SBKG 151200Z 13013KT 9999 BKN020 24/18 Q1023=
2016061513 - METAR SBKG 151300Z 15012KT 9999 BKN020 26/18 Q1022=
2016061514 - METAR SBKG 151400Z 13013KT 9999 SCT020 26/17 Q1022=
2016061515 - METAR SBKG 151500Z 14012KT 9999 SCT040 27/17 Q1020=
2016061516 - METAR SBKG 151600Z 14013KT 9999 SCT040 28/16 Q1020=
2016061517 - METAR SBKG 151700Z 14012KT 110V180 9999 SCT048 28/16 Q1019=
2016061518 - METAR SBKG 151800Z 12015KT 9999 SCT041 27/18 Q1019=
2016061519 - METAR SBKG 151900Z 12014KT 9999 SCT035 26/18 Q1019=
2016061519 - SPECI SBKG 151945Z 14012KT 9999 FEW030 25/18 Q1020=
2016061520 - Mensagem METAR de 'SBKG' para 15/06/2016 as 20(UTC) não localizada na base de dados da REDEMET
2016061521 - Mensagem METAR de 'SBKG' para 15/06/2016 as 21(UTC) não localizada na base de dados da REDEMET
2016061522 - Mensagem METAR de 'SBKG' para 15/06/2016 as 22(UTC) não localizada na base de dados da REDEMET
2016061523 - Mensagem METAR de 'SBKG' para 15/06/2016 as 23(UTC) não localizada na base de dados da REDEMET
2016061600 - Mensagem METAR de 'SBKG' para 16/06/2016 as 00(UTC) não localizada na base de dados da REDEMET
2016061601 - Mensagem METAR de 'SBKG' para 16/06/2016 as 01(UTC) não localizada na base de dados da REDEMET
2016061602 - Mensagem METAR de 'SBKG' para 16/06/2016 as 02(UTC) não localizada na base de dados da REDEMET
2016061602 - SPECI SBKG 160215Z 11004KT 9999 SCT011 20/18 Q1021=
2016061603 - METAR SBKG 160300Z 11002KT 9999 FEW010 19/18 Q1021=
2016061604 - METAR SBKG 160400Z 11004KT CAVOK 19/18 Q1020=
2016061605 - METAR SBKG 160500Z 15004KT CAVOK 19/18 Q1020=
2016061606 - METAR SBKG 160600Z 16003KT CAVOK 19/18 Q1019=
2016061607 - METAR SBKG 160700Z 15003KT 9999 SCT005 BKN010 19/19 Q1019=
2016061608 - METAR SBKG 160800Z 00000KT 9999 FEW005 BKN013 19/19 Q1019=
2016061609 - METAR SBKG 160900Z 00000KT 9999 SCT006 BKN012 19/19 Q1020=
2016061609 - SPECI SBKG 160940Z VRB02KT 9999 SCT006 SCT012 20/19 Q1020=
2016061610 - METAR SBKG 161000Z VRB02KT 9999 FEW006 SCT012 20/19 Q1020=
2016061611 - METAR SBKG 161100Z 16007KT 9999 SCT015 22/19 Q1021=
2016061612 - METAR SBKG 161200Z 16008KT 120V210 9999 BKN020 23/19 Q1022=
2016061613 - METAR SBKG 161300Z 17010KT 9999 BKN028 25/18 Q1021=
2016061614 - METAR SBKG 161400Z 14013KT 110V170 9999 SCT037 27/17 Q1020=
2016061615 - METAR SBKG 161500Z 14013KT 9999 SCT040 27/17 Q1019=
2016061616 - METAR COR SBKG 161600Z 14013KT 9999 SCT040 28/16 Q1018=
2016061617 - METAR SBKG 161700Z 13011KT 9999 SCT040 29/16 Q1017=
2016061618 - METAR SBKG 161800Z 13010KT 9999 SCT040 28/15 Q1017=
2016061619 - METAR SBKG 161900Z 13013KT 9999 FEW030 27/15 Q1018=
2016061620 - METAR SBKG 162000Z 13010KT CAVOK 26/18 Q1018=
2016061620 - SPECI SBKG 162015Z 13009KT CAVOK 25/18 Q1018=
2016061621 - Mensagem METAR de 'SBKG' para 16/06/2016 as 21(UTC) não localizada na base de dados da REDEMET
2016061622 - Mensagem METAR de 'SBKG' para 16/06/2016 as 22(UTC) não localizada na base de dados da REDEMET
2016061623 - Mensagem METAR de 'SBKG' para 16/06/2016 as 23(UTC) não localizada na base de dados da REDEMET
2016061700 - Mensagem METAR de 'SBKG' para 17/06/2016 as 00(UTC) não localizada na base de dados da REDEMET
2016061700 - SPECI SBKG 170015Z 11005KT CAVOK 21/19 Q1020=
2016061701 - METAR SBKG 170100Z 11005KT CAVOK 21/19 Q1020=
2016061702 - METAR SBKG 170200Z 09005KT CAVOK 20/19 Q1020=
2016061703 - METAR SBKG 170300Z 09004KT CAVOK 20/19 Q1020=
2016061704 - METAR SBKG 170400Z 11005KT CAVOK 20/19 Q1019=
2016061705 - METAR SBKG 170500Z 14004KT 9999 SCT010 19/18 Q1018=
2016061705 - SPECI SBKG 170530Z 17002KT 9999 BKN010 19/18 Q1018=
2016061706 - METAR SBKG 170600Z 16004KT 130V190 9999 SCT010 BKN015 19/19 Q1018=
2016061707 - METAR SBKG 170700Z 17005KT 9999 FEW006 SCT008 19/19 Q1018=
2016061708 - METAR SBKG 170800Z 17005KT 9999 SCT005 BKN018 19/19 Q1018=
2016061709 - METAR SBKG 170900Z 13003KT CAVOK 19/18 Q1018=
2016061710 - METAR SBKG 171000Z 17007KT 9999 SCT018 20/19 Q1019=
2016061711 - METAR SBKG 171100Z 16007KT 9999 SCT020 22/19 Q1019=
2016061712 - METAR SBKG 171200Z 14012KT 9999 FEW040 24/17 Q1020=
2016061713 - METAR SBKG 171300Z 15012KT 9999 FEW040 25/16 Q1019=
2016061714 - METAR SBKG 171400Z 15011KT CAVOK 27/15 Q1019=
2016061715 - METAR SBKG 171500Z 12009KT CAVOK 28/15 Q1018=
2016061716 - METAR SBKG 171600Z 11009KT 9999 SCT046 28/16 Q1017=
2016061717 - METAR SBKG 171700Z 14010KT 9999 SCT046 28/17 Q1016=
2016061718 - METAR SBKG 171800Z 14011KT CAVOK 28/16 Q1016=
2016061719 - METAR SBKG 171900Z 13009KT 9999 SCT046 27/17 Q1016=
2016061720 - METAR SBKG 172000Z 13011KT CAVOK 26/17 Q1017=
2016061721 - METAR SBKG 172100Z 13008KT CAVOK 24/17 Q1017=
2016061722 - METAR SBKG 172200Z 11007KT CAVOK 23/17 Q1018=
2016061722 - SPECI SBKG 172225Z 11008KT CAVOK 23/17 Q1018=
2016061723 - Mensagem METAR de 'SBKG' para 17/06/2016 as 23(UTC) não localizada na base de dados da REDEMET
2016061800 - Mensagem METAR de 'SBKG' para 18/06/2016 as 00(UTC) não localizada na base de dados da REDEMET
2016061801 - Mensagem METAR de 'SBKG' para 18/06/2016 as 01(UTC) não localizada na base de dados da REDEMET
2016061802 - Mensagem METAR de 'SBKG' para 18/06/2016 as 02(UTC) não localizada na base de dados da REDEMET
2016061802 - SPECI SBKG 180215Z 13005KT CAVOK 20/19 Q1020=
2016061803 - METAR SBKG 180300Z 13004KT CAVOK 20/18 Q1019=
2016061804 - METAR SBKG 180400Z 14002KT CAVOK 20/19 Q1019=
2016061805 - METAR SBKG 180500Z 13002KT 9999 BKN015 20/19 Q1018=
2016061806 - METAR SBKG 180600Z 11001KT 9999 SCT015 20/19 Q1018=
2016061807 - METAR SBKG 180700Z 12004KT 9999 SCT015 19/18 Q1018=
2016061808 - METAR SBKG 180800Z 13003KT 9999 SCT015 20/19 Q1018=
2016061809 - METAR SBKG 180900Z 10004KT 9999 SCT015 20/19 Q1019=
2016061810 - METAR SBKG 181000Z 11004KT CAVOK 21/20 Q1019=
2016061811 - METAR SBKG 181100Z 11008KT 9999 FEW016 23/19 Q1020=
2016061812 - METAR SBKG 181200Z 11013KT 9999 FEW018 25/16 Q1020=
2016061813 - METAR SBKG 181300Z 13011KT 9999 SCT033 26/18 Q1020=
2016061814 - METAR SBKG 181400Z 13010KT 9999 SCT043 27/16 Q1019=
2016061815 - METAR SBKG 181500Z 13010KT 9999 SCT043 28/16 Q1019=
2016061816 - METAR SBKG 181600Z 11011KT 9999 SCT047 28/15 Q1017=
2016061817 - METAR SBKG 181700Z 13011KT 9999 BKN047 27/16 Q1017=
2016061818 - METAR SBKG 181800Z 12011KT 9999 SCT040 28/17 Q1017=
2016061819 - METAR SBKG 181900Z 11009KT 9999 FEW040 28/16 Q1017=
2016061819 - SPECI SBKG 181945Z 11013KT 9999 FEW040 26/17 Q1017=
2016061820 - Mensagem METAR de 'SBKG' para 18/06/2016 as 20(UTC) não localizada na base de dados da REDEMET
2016061821 - Mensagem METAR de 'SBKG' para 18/06/2016 as 21(UTC) não localizada na base de dados da REDEMET
2016061822 - Mensagem METAR de 'SBKG' para 18/06/2016 as 22(UTC) não localizada na base de dados da REDEMET
2016061823 - Mensagem METAR de 'SBKG' para 18/06/2016 as 23(UTC) não localizada na base de dados da REDEMET
2016061900 - Mensagem METAR de 'SBKG' para 19/06/2016 as 00(UTC) não localizada na base de dados da REDEMET
2016061901 - Mensagem METAR de 'SBKG' para 19/06/2016 as 01(UTC) não localizada na base de dados da REDEMET
2016061902 - Mensagem METAR de 'SBKG' para 19/06/2016 as 02(UTC) não localizada na base de dados da REDEMET
2016061902 - SPECI SBKG 190215Z 11004KT CAVOK 20/18 Q1020=
2016061903 - METAR SBKG 190300Z 12004KT CAVOK 20/18 Q1020=
2016061904 - METAR SBKG 190400Z 14003KT CAVOK 20/18 Q1019=
2016061905 - METAR SBKG 190500Z 13002KT CAVOK 19/18 Q1019=
2016061906 - METAR SBKG 190600Z 15003KT CAVOK 20/19 Q1018=
2016061907 - METAR SBKG 190700Z 15003KT CAVOK 20/19 Q1018=
2016061908 - METAR SBKG 190800Z 15004KT CAVOK 20/19 Q1019=
2016061909 - METAR SBKG 190900Z 00000KT 9999 BKN021 20/19 Q1019=
2016061910 - METAR SBKG 191000Z 00000KT 9999 FEW011 BKN026 21/20 Q1020=
2016061911 - METAR SBKG 191100Z 17006KT 9999 FEW013 BKN027 22/20 Q1020=
2016061912 - METAR SBKG 191200Z 14012KT 9999 BKN017 24/19 Q1020=
2016061913 - METAR SBKG 191300Z 15008KT 9999 BKN033 25/19 Q1020=
2016061914 - METAR SBKG 191400Z 14011KT 9999 BKN030 27/20 Q1019=
2016061915 - METAR SBKG 191500Z 12014KT 090V150 9999 BKN036 28/19 Q1018=
2016061916 - METAR SBKG 191600Z 10012KT 9999 BKN039 28/19 Q1017=
2016061917 - METAR SBKG 191700Z 11012KT 9999 BKN037 27/19 Q1017=
2016061918 - METAR SBKG 191800Z 11014KT 9999 BKN031 28/20 Q1017=
2016061919 - METAR SBKG 191900Z 12015KT 9999 SCT033 27/19 Q1017=
2016061920 - METAR SBKG 192000Z 10012KT 9999 FEW026 FEW040TCU 25/20 Q1017=
2016061921 - METAR SBKG 192100Z 10012KT 9999 SCT018 23/20 Q1018=
2016061922 - METAR SBKG 192200Z 10009KT 9999 SCT011 BKN015 23/21 Q1018=
2016061923 - METAR SBKG 192300Z 10009KT 9999 SCT010 SCT015 22/20 Q1019=
2016062000 - METAR SBKG 200000Z 11008KT 9999 BKN026 22/20 Q1019=
2016062001 - METAR SBKG 200100Z 11006KT 9999 SCT011 BKN016 22/20 Q1020=
2016062001 - SPECI SBKG 200140Z 11009KT 3000 -RA SCT005 BKN008 BKN016 21/20 Q1019=
2016062002 - METAR SBKG 200200Z 12014KT 5000 -RA SCT005 BKN008 BKN017 21/21 Q1019=
2016062002 - SPECI SBKG 200225Z 11006KT 9999 SCT015 BKN018 21/20 Q1019=
2016062003 - METAR SBKG 200300Z 12005KT 9999 FEW010 BKN022 21/20 Q1019=
2016062004 - METAR SBKG 200400Z 12004KT 9999 FEW011 SCT018 21/20 Q1018=
2016062005 - METAR SBKG 200500Z 15006KT 9999 FEW011 SCT027 BKN080 21/20 Q1018=
2016062006 - METAR SBKG 200600Z 15004KT 8000 VCSH SCT008 BKN016 FEW025TCU 21/20 Q1017=
2016062006 - SPECI SBKG 200620Z 15005KT 4000 -DZ SCT005 BKN008 20/20 Q1017=
2016062007 - METAR SBKG 200700Z 13006KT 9999 FEW003 SCT029 20/20 Q1017=
2016062008 - METAR SBKG 200800Z 11005KT 5000 -RA SCT004 BKN006 BKN018 20/20 Q1018=
2016062009 - METAR SBKG 200900Z 12006KT 9999 SCT004 SCT015 BKN018 20/20 Q1018=
2016062010 - METAR SBKG 201000Z 09005KT 9999 SCT004 SCT015 BKN018 21/20 Q1019=
2016062011 - METAR SBKG 201100Z 14005KT 3000 -RA BR BKN004 BKN010 BKN015 21/20 Q1020=
2016062011 - SPECI SBKG 201115Z 14008KT 9999 FEW004 SCT011 BKN015 22/21 Q1020=
2016062012 - METAR COR SBKG 201200Z 13008KT 9999 SCT015 BKN020 23/20 Q1020=
2016062013 - METAR SBKG 201300Z 14009KT 9999 BKN020 23/21 Q1020=
2016062014 - METAR SBKG 201400Z 13011KT 9999 BKN021 25/19 Q1019=
2016062015 - METAR SBKG 201500Z 11015KT 9999 SCT026 26/19 Q1018=
2016062016 - METAR SBKG 201600Z 12013KT 9999 BKN033 26/19 Q1018=
2016062017 - METAR SBKG 201700Z 12010KT 080V170 9999 BKN046 27/18 Q1017=
2016062018 - METAR SBKG 201800Z 11008KT 070V140 9999 SCT041 27/18 Q1016=
2016062019 - METAR SBKG 201900Z 10012KT 9999 BKN038 25/18 Q1016=
2016062019 - SPECI SBKG 201945Z 12010KT 9999 SCT036 25/18 Q1017=
2016062020 - Mensagem METAR de 'SBKG' para 20/06/2016 as 20(UTC) não localizada na base de dados da REDEMET
2016062021 - Mensagem METAR de 'SBKG' para 20/06/2016 as 21(UTC) não localizada na base de dados da REDEMET
2016062022 - Mensagem METAR de 'SBKG' para 20/06/2016 as 22(UTC) não localizada na base de dados da REDEMET
2016062023 - Mensagem METAR de 'SBKG' para 20/06/2016 as 23(UTC) não localizada na base de dados da REDEMET
2016062100 - Mensagem METAR de 'SBKG' para 21/06/2016 as 00(UTC) não localizada na base de dados da REDEMET
2016062101 - Mensagem METAR de 'SBKG' para 21/06/2016 as 01(UTC) não localizada na base de dados da REDEMET
2016062102 - Mensagem METAR de 'SBKG' para 21/06/2016 as 02(UTC) não localizada na base de dados da REDEMET
2016062102 - SPECI SBKG 210215Z 15004KT CAVOK 19/18 Q1019=
2016062103 - METAR SBKG 210300Z 23002KT 9999 SCT017 19/18 Q1019=
2016062104 - METAR SBKG 210400Z 13002KT 9999 FEW016 20/18 Q1019=
2016062105 - METAR SBKG 210500Z 15002KT 9999 SCT011 19/18 Q1018=
2016062106 - METAR SBKG 210600Z 18004KT 9999 SCT011 BKN017 18/18 Q1018=
2016062107 - METAR SBKG 210700Z 20003KT 9999 SCT011 19/18 Q1018=
2016062108 - METAR SBKG 210800Z 17004KT 9999 SCT019 19/18 Q1018=
2016062109 - METAR SBKG 210900Z 20003KT 9999 SCT016 19/18 Q1019=
2016062110 - METAR SBKG 211000Z 21005KT 9999 FEW015 20/19 Q1019=
2016062111 - METAR SBKG 211100Z 16008KT 130V200 9999 SCT020 23/19 Q1020=
2016062112 - METAR SBKG 211200Z 17009KT 150V210 CAVOK 24/18 Q1020=
2016062113 - METAR SBKG 211300Z 15009KT 120V180 CAVOK 25/18 Q1020=
2016062114 - METAR SBKG 211400Z 15007KT 120V250 8888 FEW036 SCT100 27/18 Q1019=
2016062115 - METAR SBKG 211500Z 12009KT 9999 SCT040 27/17 Q1018=
2016062116 - METAR SBKG 211600Z 15008KT 9999 SCT040 28/17 Q1017=
2016062117 - METAR SBKG 211700Z 16003KT 9999 SCT040 28/17 Q1016=
2016062118 - METAR SBKG 211800Z 11011KT 9999 FEW040 29/17 Q1016=
2016062119 - METAR SBKG 211900Z 12011KT CAVOK 28/17 Q1016=
2016062119 - SPECI SBKG 211945Z 13011KT CAVOK 27/17 Q1017=
2016062120 - Mensagem METAR de 'SBKG' para 21/06/2016 as 20(UTC) não localizada na base de dados da REDEMET
2016062121 - Mensagem METAR de 'SBKG' para 21/06/2016 as 21(UTC) não localizada na base de dados da REDEMET
2016062122 - Mensagem METAR de 'SBKG' para 21/06/2016 as 22(UTC) não localizada na base de dados da REDEMET
2016062123 - Mensagem METAR de 'SBKG' para 21/06/2016 as 23(UTC) não localizada na base de dados da REDEMET
2016062200 - Mensagem METAR de 'SBKG' para 22/06/2016 as 00(UTC) não localizada na base de dados da REDEMET
2016062201 - Mensagem METAR de 'SBKG' para 22/06/2016 as 01(UTC) não localizada na base de dados da REDEMET
2016062202 - Mensagem METAR de 'SBKG' para 22/06/2016 as 02(UTC) não localizada na base de dados da REDEMET
2016062202 - SPECI SBKG 220215Z 14008KT 9999 BKN040 22/19 Q1019=
2016062203 - METAR SBKG 220300Z 14008KT 9999 BKN040 22/19 Q1019=
2016062204 - METAR SBKG 220400Z 17007KT 140V220 9999 VCSH BKN039 BKN070 22/19 Q1018=
2016062205 - METAR SBKG 220500Z 19007KT 9999 VCSH SCT007 BKN012 BKN100 21/20 Q1018=
2016062206 - METAR SBKG 220600Z 17010KT 9999 BKN006 BKN012 21/20 Q1018=
2016062207 - METAR SBKG 220700Z 15009KT 9999 BKN007 21/20 Q1018=
2016062208 - METAR SBKG 220800Z 16006KT 9999 BKN007 21/20 Q1018=
2016062209 - METAR SBKG 220900Z 13007KT 5000 BR BKN015 21/20 Q1019=
2016062210 - METAR SBKG 221000Z 13008KT 6000 SCT010 BKN015 21/20 Q1019=
2016062211 - METAR SBKG 221100Z 15009KT 5000 BR BKN010 BKN015 22/20 Q1020=
2016062212 - METAR SBKG 221200Z 15006KT 3000 -RA SCT007 BKN010 21/21 Q1021=
2016062213 - METAR SBKG 221300Z 16009KT 6000 SCT007 BKN010 22/21 Q1020=
2016062213 - SPECI SBKG 221330Z 16010KT 6000 SCT010 BKN015 22/21 Q1020=
2016062214 - METAR SBKG 221400Z 14011KT 6000 SCT010 BKN015 22/21 Q1020=
2016062214 - SPECI SBKG 221430Z 11011KT 3000 -RA SCT007 BKN014 22/21 Q1020=
2016062215 - METAR SBKG 221500Z 10008KT 9999 SCT007 BKN013 22/21 Q1019=
2016062216 - METAR SBKG 221600Z 11011KT 4000 -RA SCT007 BKN024 23/21 Q1019=
2016062217 - METAR SBKG 221700Z 13009KT 8000 VCSH SCT011 BKN033 22/21 Q1018=
2016062218 - METAR SBKG 221800Z 10011KT 9999 FEW015 BKN023 BKN070 23/20 Q1018=
2016062218 - SPECI SBKG 221818Z 08012KT 4000 -DZ SCT005 BKN013 BKN040 21/20 Q1018=
2016062219 - METAR SBKG 221900Z 11009KT 9999 SCT008 BKN026 BKN080 21/20 Q1018=
2016062220 - METAR SBKG 222000Z 10012KT 5000 -RADZ SCT004 BKN014 OVC070 21/19 Q1018=
2016062221 - METAR SBKG 222100Z 10005KT 9999 SCT042 BKN070 21/19 Q1018=
2016062222 - METAR SBKG 222200Z 11005KT CAVOK 21/19 Q1018=
2016062223 - METAR SBKG 222300Z 13004KT CAVOK 21/19 Q1019=
2016062300 - METAR SBKG 230000Z 13005KT 9999 FEW013 21/20 Q1019=
2016062301 - Mensagem METAR de 'SBKG' para 23/06/2016 as 01(UTC) não localizada na base de dados da REDEMET
2016062302 - Mensagem METAR de 'SBKG' para 23/06/2016 as 02(UTC) não localizada na base de dados da REDEMET
2016062302 - SPECI SBKG 230215Z 13006KT 9999 BKN010 21/20 Q1020=
2016062303 - METAR SBKG 230300Z 14007KT 9999 BKN010 21/20 Q1020=
2016062304 - METAR SBKG 230400Z 16005KT 9999 SCT010 BKN015 21/20 Q1019=
2016062304 - SPECI SBKG 230415Z 16004KT 9999 BKN010 21/20 Q1019=
2016062305 - METAR SBKG 230500Z 15006KT 9999 BKN010 21/20 Q1018=
2016062306 - METAR SBKG 230600Z 15005KT 9999 BKN007 21/20 Q1018=
2016062307 - METAR SBKG 230700Z 14005KT 9999 BKN010 21/20 Q1018=
2016062308 - METAR SBKG 230800Z 17004KT 9999 SCT015 20/20 Q1018=
2016062309 - METAR SBKG 230900Z 15004KT 9999 FEW013 SCT017 BKN080 21/20 Q1019=
2016062310 - METAR SBKG 231000Z 14007KT 9999 SCT013 SCT017 21/20 Q1019=
2016062311 - METAR SBKG 231100Z 15007KT 9999 SCT011 BKN018 22/20 Q1019=
2016062312 - METAR SBKG 231200Z 15012KT 9999 FEW012 BKN019 23/20 Q1020=
2016062313 - METAR SBKG 231300Z 14011KT 9999 BKN019 24/20 Q1019=
2016062314 - METAR SBKG 231400Z 12013KT 9999 BKN024 25/20 Q1019=
2016062315 - METAR SBKG 231500Z 16010KT 9999 BKN025 26/20 Q1018=
2016062316 - METAR SBKG 231600Z 15011KT 9999 BKN025 27/20 Q1017=
2016062317 - METAR SBKG 231700Z 12012KT 9999 FEW015 BKN030 27/20 Q1017=
2016062318 - METAR SBKG 231800Z 14013KT 9999 BKN030 26/20 Q1017=
2016062319 - METAR SBKG 231900Z 14011KT 9999 FEW012 BKN020 25/20 Q1017=
2016062320 - METAR SBKG 232000Z 15011KT 9999 BKN020 24/20 Q1017=
2016062321 - METAR SBKG 232100Z 16007KT 9999 SCT015 SCT020 23/20 Q1017=
2016062321 - SPECI SBKG 232120Z 12006KT CAVOK 22/20 Q1018=
2016062322 - Mensagem METAR de 'SBKG' para 23/06/2016 as 22(UTC) não localizada na base de dados da REDEMET
2016062323 - Mensagem METAR de 'SBKG' para 23/06/2016 as 23(UTC) não localizada na base de dados da REDEMET
2016062400 - METAR SBKG 240000Z 12008KT 9999 BKN015 22/20 Q1019=
2016062401 - METAR SBKG 240100Z 13007KT 9999 BKN010 22/20 Q1019=
2016062402 - METAR SBKG 240200Z 12006KT 9999 BKN010 21/19 Q1019=
2016062403 - METAR SBKG 240300Z 14007KT 9999 BKN010 21/20 Q1019=
2016062404 - METAR SBKG 240400Z 14005KT 9999 BKN010 21/19 Q1018=
2016062405 - METAR SBKG 240500Z 12004KT 9999 BKN015 21/19 Q1018=
2016062406 - METAR SBKG 240600Z 13004KT 9999 SCT015 21/19 Q1018=
2016062407 - METAR SBKG 240700Z 13004KT 9999 SCT015 20/19 Q1018=
2016062408 - METAR SBKG 240800Z 16002KT 9999 SCT015 20/18 Q1018=
2016062409 - METAR SBKG 240900Z 25004KT CAVOK 18/18 Q1018=
2016062410 - METAR SBKG 241000Z 00000KT CAVOK 21/19 Q1019=
2016062411 - METAR SBKG 241100Z 17006KT CAVOK 22/18 Q1019=
2016062412 - METAR SBKG 241200Z 14010KT CAVOK 24/18 Q1020=
2016062413 - METAR SBKG 241300Z 15007KT 9999 SCT028 25/19 Q1019=
2016062414 - METAR SBKG 241400Z 14005KT 9999 SCT033 27/18 Q1019=
2016062415 - METAR SBKG 241500Z 14011KT 9999 SCT033 27/18 Q1019=
2016062416 - METAR SBKG 241600Z 13009KT 9999 BKN040 27/18 Q1018=
2016062417 - METAR SBKG 241700Z 13010KT 9999 BKN040 27/18 Q1017=
2016062418 - METAR SBKG 241800Z 14009KT 9999 BKN040 28/18 Q1017=
2016062419 - METAR SBKG 241900Z 13011KT 9999 BKN040 27/18 Q1017=
2016062420 - METAR SBKG 242000Z 13013KT 9999 FEW015 SCT040 26/19 Q1017=
2016062421 - METAR SBKG 242100Z 11010KT 9999 FEW040 24/19 Q1018=
2016062422 - METAR SBKG 242200Z 12011KT 9999 FEW020 23/19 Q1018=
2016062423 - Mensagem METAR de 'SBKG' para 24/06/2016 as 23(UTC) não localizada na base de dados da REDEMET
2016062500 - Mensagem METAR de 'SBKG' para 25/06/2016 as 00(UTC) não localizada na base de dados da REDEMET
2016062500 - SPECI SBKG 250015Z 11006KT CAVOK 21/19 Q1020=
2016062501 - METAR SBKG 250100Z 11005KT CAVOK 21/19 Q1020=
2016062502 - METAR SBKG 250200Z 12003KT CAVOK 20/18 Q1020=
2016062503 - METAR SBKG 250300Z 14002KT CAVOK 20/18 Q1020=
2016062504 - METAR SBKG 250400Z 16004KT CAVOK 20/18 Q1019=
2016062505 - METAR SBKG 250500Z 14002KT CAVOK 19/18 Q1019=
2016062506 - METAR SBKG 250600Z 15003KT CAVOK 19/18 Q1018=
2016062507 - METAR SBKG 250700Z 15004KT CAVOK 19/17 Q1018=
2016062508 - METAR SBKG 250800Z 11002KT CAVOK 19/18 Q1018=
2016062509 - METAR SBKG 250900Z 14004KT CAVOK 19/18 Q1018=
2016062510 - METAR SBKG 251000Z 15004KT 9999 FEW004 SCT011 21/19 Q1019=
2016062511 - METAR SBKG 251100Z 15009KT 9999 BKN015 22/19 Q1020=
2016062512 - METAR SBKG 251200Z 15012KT 9999 BKN020 23/19 Q1020=
2016062513 - METAR SBKG 251300Z 16010KT 9999 BKN020 25/19 Q1020=
2016062514 - METAR SBKG 251400Z 14011KT 9999 BKN033 27/19 Q1019=
2016062515 - METAR SBKG 251500Z 15012KT 9999 SCT038 27/18 Q1018=
2016062516 - METAR SBKG 251600Z 12015KT 9999 SCT040 29/18 Q1017=
2016062517 - METAR SBKG 251700Z 14013KT 100V160 9999 SCT047 28/17 Q1016=
2016062518 - METAR SBKG 251800Z 12013KT 090V150 9999 SCT046 28/17 Q1016=
2016062519 - METAR SBKG 251900Z 13013KT 9999 FEW046 27/18 Q1016=
2016062520 - METAR SBKG 252000Z 14009KT CAVOK 26/19 Q1017=
2016062521 - Mensagem METAR de 'SBKG' para 25/06/2016 as 21(UTC) não localizada na base de dados da REDEMET
2016062522 - Mensagem METAR de 'SBKG' para 25/06/2016 as 22(UTC) não localizada na base de dados da REDEMET
2016062523 - Mensagem METAR de 'SBKG' para 25/06/2016 as 23(UTC) não localizada na base de dados da REDEMET
2016062500 - Mensagem METAR de 'SBKG' para 25/06/2016 as 00(UTC) não localizada na base de dados da REDEMET
2016062500 - SPECI SBKG 250015Z 11006KT CAVOK 21/19 Q1020=
2016062501 - METAR SBKG 250100Z 11005KT CAVOK 21/19 Q1020=
2016062502 - METAR SBKG 250200Z 12003KT CAVOK 20/18 Q1020=
2016062503 - METAR SBKG 250300Z 14002KT CAVOK 20/18 Q1020=
2016062504 - METAR SBKG 250400Z 16004KT CAVOK 20/18 Q1019=
2016062505 - METAR SBKG 250500Z 14002KT CAVOK 19/18 Q1019=
2016062506 - METAR SBKG 250600Z 15003KT CAVOK 19/18 Q1018=
2016062507 - METAR SBKG 250700Z 15004KT CAVOK 19/17 Q1018=
2016062508 - METAR SBKG 250800Z 11002KT CAVOK 19/18 Q1018=
2016062509 - METAR SBKG 250900Z 14004KT CAVOK 19/18 Q1018=
2016062510 - METAR SBKG 251000Z 15004KT 9999 FEW004 SCT011 21/19 Q1019=
2016062511 - METAR SBKG 251100Z 15009KT 9999 BKN015 22/19 Q1020=
2016062512 - METAR SBKG 251200Z 15012KT 9999 BKN020 23/19 Q1020=
2016062513 - METAR SBKG 251300Z 16010KT 9999 BKN020 25/19 Q1020=
2016062514 - METAR SBKG 251400Z 14011KT 9999 BKN033 27/19 Q1019=
2016062515 - METAR SBKG 251500Z 15012KT 9999 SCT038 27/18 Q1018=
2016062516 - METAR SBKG 251600Z 12015KT 9999 SCT040 29/18 Q1017=
2016062517 - METAR SBKG 251700Z 14013KT 100V160 9999 SCT047 28/17 Q1016=
2016062518 - METAR SBKG 251800Z 12013KT 090V150 9999 SCT046 28/17 Q1016=
2016062519 - METAR SBKG 251900Z 13013KT 9999 FEW046 27/18 Q1016=
2016062520 - METAR SBKG 252000Z 14009KT CAVOK 26/19 Q1017=
2016062521 - Mensagem METAR de 'SBKG' para 25/06/2016 as 21(UTC) não localizada na base de dados da REDEMET
2016062522 - Mensagem METAR de 'SBKG' para 25/06/2016 as 22(UTC) não localizada na base de dados da REDEMET
2016062523 - Mensagem METAR de 'SBKG' para 25/06/2016 as 23(UTC) não localizada na base de dados da REDEMET
2016062600 - Mensagem METAR de 'SBKG' para 26/06/2016 as 00(UTC) não localizada na base de dados da REDEMET
2016062600 - SPECI SBKG 260015Z 09008KT 9999 FEW015 22/20 Q1019=
2016062701 - Mensagem METAR de 'SBKG' para 27/06/2016 as 01(UTC) não localizada na base de dados da REDEMET
2016062702 - Mensagem METAR de 'SBKG' para 27/06/2016 as 02(UTC) não localizada na base de dados da REDEMET
2016062702 - SPECI SBKG 270240Z 10004KT 6000 -RA BKN008 SCT015 BKN080 20/20 Q1020=
2016062702 - SPECI SBKG 270215Z 08004KT 9000 SCT003 BKN015 BKN080 20/19 Q1020=
2016062703 - METAR SBKG 270300Z 10005KT 050V150 5000 -RA BR BKN005 BKN010 OVC080 20/20 Q1020=
2016062704 - METAR SBKG 270400Z 14004KT 110V180 9999 SCT015 SCT020 BKN070 20/19 Q1019=
2016062705 - METAR SBKG 270500Z 17005KT 9999 BKN015 SCT030 20/19 Q1019=
2016062706 - METAR SBKG 270600Z 17004KT 140V210 9999 SCT014 BKN018 20/19 Q1019=
2016062707 - METAR SBKG 270700Z 16004KT 9999 BKN015 20/19 Q1019=
2016062708 - METAR SBKG 270800Z 13003KT 9999 SCT014 BKN020 20/19 Q1019=
2016062709 - METAR SBKG 270900Z 15002KT 9999 SCT012 19/18 Q1020=
2016062710 - METAR SBKG 271000Z 14009KT 9999 SCT013 21/19 Q1020=
2016062711 - METAR SBKG 271100Z 13010KT 9999 SCT015 22/19 Q1021=
2016062712 - METAR SBKG 271200Z 15010KT 9999 SCT015 24/19 Q1021=
2016062713 - METAR SBKG 271300Z 12015KT 9999 SCT020 25/16 Q1021=
2016062714 - METAR SBKG 271400Z 14016KT 9999 SCT020 26/17 Q1020=
2016062715 - METAR SBKG 271500Z 14015KT 9999 SCT040 27/16 Q1019=
2016062716 - METAR SBKG 271600Z 15013KT 9999 SCT040 27/17 Q1019=
2016062717 - METAR SBKG 271700Z 13014KT 9999 SCT040 27/17 Q1018=
2016062718 - METAR SBKG 271800Z 14016KT 9999 SCT040 27/19 Q1018=
2016062719 - METAR SBKG 271900Z 17011KT 9999 SCT030 24/19 Q1019=
2016062719 - SPECI SBKG 271945Z 14016KT 9999 SCT020 23/18 Q1019=
2016062720 - Mensagem METAR de 'SBKG' para 27/06/2016 as 20(UTC) não localizada na base de dados da REDEMET
2016062721 - Mensagem METAR de 'SBKG' para 27/06/2016 as 21(UTC) não localizada na base de dados da REDEMET
2016062722 - Mensagem METAR de 'SBKG' para 27/06/2016 as 22(UTC) não localizada na base de dados da REDEMET
2016062723 - Mensagem METAR de 'SBKG' para 27/06/2016 as 23(UTC) não localizada na base de dados da REDEMET
2016062800 - Mensagem METAR de 'SBKG' para 28/06/2016 as 00(UTC) não localizada na base de dados da REDEMET
2016062801 - Mensagem METAR de 'SBKG' para 28/06/2016 as 01(UTC) não localizada na base de dados da REDEMET
2016062802 - Mensagem METAR de 'SBKG' para 28/06/2016 as 02(UTC) não localizada na base de dados da REDEMET
2016062802 - SPECI SBKG 280215Z 10006KT 9999 SCT004 BKN014 20/20 Q1020=
2016062803 - METAR SBKG 280300Z 11005KT 9999 -DZ SCT004 BKN010 20/20 Q1020=
2016062804 - METAR SBKG 280400Z 16006KT 9999 SCT007 BKN015 20/19 Q1019=
2016062804 - SPECI SBKG 280430Z 17007KT 9999 SCT007 BKN010 20/19 Q1019=
2016062805 - METAR SBKG 280500Z 15008KT 9999 SCT005 BKN010 20/19 Q1019=
2016062806 - METAR SBKG 280600Z 14006KT 9999 BKN011 20/19 Q1019=
2016062807 - METAR SBKG 280700Z 10004KT 9999 SCT011 19/19 Q1019=
2016062808 - METAR SBKG 280800Z 11003KT 9999 SCT013 19/18 Q1019=
2016062809 - METAR SBKG 280900Z 12004KT CAVOK 19/18 Q1020=
2016062810 - METAR SBKG 281000Z 12008KT CAVOK 21/18 Q1020=
2016062811 - METAR SBKG 281100Z 14013KT CAVOK 22/18 Q1021=
2016062812 - METAR SBKG 281200Z 12016KT 9999 SCT030 24/18 Q1021=
2016062813 - METAR SBKG 281300Z 13016KT 9999 SCT030 25/17 Q1021=
2016062814 - METAR SBKG 281400Z 12016KT 9999 SCT040 26/16 Q1020=
2016062815 - METAR SBKG 281500Z 12016KT 9999 SCT040 26/18 Q1020=
2016062816 - METAR SBKG 281600Z 13015KT 9999 SCT040 26/17 Q1019=
2016062817 - METAR SBKG 281700Z 12016KT 9999 SCT040 27/14 Q1018=
2016062818 - METAR SBKG 281800Z 13016KT 9999 SCT040 27/15 Q1018=
2016062819 - METAR SBKG 281900Z 13007KT CAVOK 26/15 Q1018=
2016062819 - SPECI SBKG 281945Z 14014KT CAVOK 25/12 Q1019=
2016062820 - Mensagem METAR de 'SBKG' para 28/06/2016 as 20(UTC) não localizada na base de dados da REDEMET
2016062821 - Mensagem METAR de 'SBKG' para 28/06/2016 as 21(UTC) não localizada na base de dados da REDEMET
2016062822 - Mensagem METAR de 'SBKG' para 28/06/2016 as 22(UTC) não localizada na base de dados da REDEMET
2016062823 - Mensagem METAR de 'SBKG' para 28/06/2016 as 23(UTC) não localizada na base de dados da REDEMET
2016062900 - Mensagem METAR de 'SBKG' para 29/06/2016 as 00(UTC) não localizada na base de dados da REDEMET
2016062901 - Mensagem METAR de 'SBKG' para 29/06/2016 as 01(UTC) não localizada na base de dados da REDEMET
2016062902 - Mensagem METAR de 'SBKG' para 29/06/2016 as 02(UTC) não localizada na base de dados da REDEMET
2016062902 - SPECI SBKG 290215Z 15006KT CAVOK 20/18 Q1020=
2016062903 - METAR SBKG 290300Z 14005KT 9999 SCT015 19/18 Q1020=
2016062904 - METAR COR SBKG 290400Z 16004KT 9999 SCT015 19/18 Q1019=
2016062905 - METAR SBKG 290500Z 13002KT CAVOK 19/18 Q1019=
2016062906 - METAR SBKG 290600Z 15004KT 9999 SCT018 18/18 Q1019=
2016062907 - METAR SBKG 290700Z 15003KT 9999 SCT015 18/18 Q1019=
2016062908 - METAR SBKG 290800Z 16002KT 9999 SCT018 18/17 Q1019=
2016062909 - METAR SBKG 290900Z 16004KT CAVOK 18/18 Q1020=
2016062910 - METAR SBKG 291000Z 16006KT CAVOK 20/18 Q1020=
2016062911 - METAR SBKG 291100Z 15011KT CAVOK 22/16 Q1021=
2016062912 - METAR SBKG 291200Z 15011KT CAVOK 24/15 Q1021=
2016062913 - METAR SBKG 291300Z 15012KT CAVOK 26/13 Q1020=
2016062914 - METAR SBKG 291400Z 14013KT CAVOK 27/13 Q1020=
2016062915 - METAR SBKG 291500Z 12013KT CAVOK 27/19 Q1019=
2016062916 - METAR SBKG 291600Z 11014KT 080V150 CAVOK 28/14 Q1018=
2016062917 - METAR SBKG 291700Z 12011KT 070V140 CAVOK 28/15 Q1017=
2016062918 - METAR SBKG 291800Z 14010KT CAVOK 28/16 Q1017=
2016062919 - METAR SBKG 291900Z 12013KT CAVOK 27/15 Q1017=
2016062920 - METAR SBKG 292000Z 13013KT CAVOK 25/16 Q1018=
2016062921 - METAR SBKG 292100Z 12012KT CAVOK 23/17 Q1019=
2016062921 - SPECI SBKG 292120Z 13010KT CAVOK 23/17 Q1019=
2016062922 - Mensagem METAR de 'SBKG' para 29/06/2016 as 22(UTC) não localizada na base de dados da REDEMET
2016062923 - Mensagem METAR de 'SBKG' para 29/06/2016 as 23(UTC) não localizada na base de dados da REDEMET
2016063000 - Mensagem METAR de 'SBKG' para 30/06/2016 as 00(UTC) não localizada na base de dados da REDEMET
2016063001 - Mensagem METAR de 'SBKG' para 30/06/2016 as 01(UTC) não localizada na base de dados da REDEMET
2016063002 - Mensagem METAR de 'SBKG' para 30/06/2016 as 02(UTC) não localizada na base de dados da REDEMET
2016063002 - SPECI SBKG 300215Z 19003KT CAVOK 18/15 Q1020=
2016063003 - METAR SBKG 300300Z 15002KT CAVOK 19/15 Q1020=
2016063004 - METAR SBKG 300400Z 18003KT CAVOK 18/15 Q1020=
2016063005 - METAR SBKG 300500Z 16003KT 9999 SCT019 18/16 Q1019=
2016063006 - METAR SBKG 300600Z 17005KT CAVOK 19/16 Q1019=
2016063007 - METAR SBKG 300700Z 15004KT CAVOK 18/16 Q1019=
2016063008 - METAR SBKG 300800Z 14004KT CAVOK 18/16 Q1019=
2016063009 - METAR SBKG 300900Z 17007KT CAVOK 19/16 Q1019=
2016063010 - METAR SBKG 301000Z 16005KT CAVOK 20/17 Q1020=
2016063011 - METAR SBKG 301100Z 16015KT 9999 SCT019 22/17 Q1020=
2016063012 - METAR SBKG 301200Z 14015KT 9999 SCT019 24/17 Q1020=
2016063013 - METAR SBKG 301300Z 13018KT 9999 FEW019 25/15 Q1020=
2016063014 - METAR SBKG 301400Z 14019KT 9999 SCT020 27/15 Q1020=
2016063015 - METAR SBKG 301500Z 13019KT 9999 BKN045 27/16 Q1019=
2016063016 - METAR SBKG 301600Z 15017KT 9999 SCT047 28/16 Q1018=
2016063017 - METAR SBKG 301700Z 13019KT CAVOK 28/15 Q1017=
2016063018 - METAR SBKG 301800Z 12020KT CAVOK 27/16 Q1017=
2016063019 - METAR SBKG 301900Z 12015KT 9999 SCT046 27/17 Q1017=
2016063019 - SPECI SBKG 301945Z 12016KT 9999 FEW038TCU 25/18 Q1017=
2016063020 - Mensagem METAR de 'SBKG' para 30/06/2016 as 20(UTC) não localizada na base de dados da REDEMET
2016063021 - Mensagem METAR de 'SBKG' para 30/06/2016 as 21(UTC) não localizada na base de dados da REDEMET
2016063022 - Mensagem METAR de 'SBKG' para 30/06/2016 as 22(UTC) não localizada na base de dados da REDEMET
2016063023 - Mensagem METAR de 'SBKG' para 30/06/2016 as 23(UTC) não localizada na base de dados da REDEMET