2006060100 - Mensagem METAR de 'SBKG' para 01/06/2006 as 00(UTC) não localizada na base de dados da REDEMET
2006060101 - Mensagem METAR de 'SBKG' para 01/06/2006 as 01(UTC) não localizada na base de dados da REDEMET
2006060102 - Mensagem METAR de 'SBKG' para 01/06/2006 as 02(UTC) não localizada na base de dados da REDEMET
2006060103 - SBKG 010300Z 18004KT CAVOK 20/19 Q1018=
2006060103 - SBKG 010315Z 18004KT CAVOK 20/19 Q1018=
2006060104 - SBKG 010400Z 17004KT CAVOK 20/18 Q1017=
2006060105 - SBKG 010500Z 18004KT CAVOK 19/18 Q1017=
2006060106 - SBKG 010600Z 18005KT CAVOK 18/18 Q1016=
2006060107 - SBKG 010700Z 18004KT CAVOK 19/18 Q1016=
2006060108 - SBKG 010800Z 16002KT CAVOK 19/18 Q1017=
2006060109 - SBKG 010900Z 03002KT 9999 SCT020 18/18 Q1018=
2006060110 - SBKG 011000Z 15004KT 9999 SCT020 19/19 Q1018=
2006060111 - SBKG 011100Z 15010KT 9999 SCT020 23/19 Q1019=
2006060112 - SBKG 011200Z 15012KT 9999 SCT020 25/18 Q1019=
2006060113 - SBKG 011300Z 16013KT CAVOK 27/16 Q1018=
2006060114 - SBKG 011400Z 16010KT 9999 SCT020 27/17 Q1018=
2006060115 - SBKG 011500Z 16010KT 9999 BKN020 27/18 Q1017=
2006060116 - SBKG 011600Z 18012KT 9999 BKN020 BKN100 28/19 Q1017=
2006060117 - SBKG 011700Z 16014KT 9999 SCT023 BKN100 27/19 Q1016=
2006060118 - SBKG 011800Z 16012KT 9999 SCT023 SCT100 28/19 Q1016=
2006060119 - SBKG 011900Z 19008KT 9999 SCT023 27/20 Q1016=
2006060120 - SBKG 012000Z 15007KT 9999 FEW023 26/19 Q1016=
2006060121 - SBKG 012100Z 14005KT 9999 FEW020 24/20 Q1017=
2006060122 - SBKG 012200Z 12004KT CAVOK 23/20 Q1017=
2006060123 - Mensagem METAR de 'SBKG' para 01/06/2006 as 23(UTC) não localizada na base de dados da REDEMET
2006060200 - Mensagem METAR de 'SBKG' para 02/06/2006 as 00(UTC) não localizada na base de dados da REDEMET
2006060201 - Mensagem METAR de 'SBKG' para 02/06/2006 as 01(UTC) não localizada na base de dados da REDEMET
2006060202 - Mensagem METAR de 'SBKG' para 02/06/2006 as 02(UTC) não localizada na base de dados da REDEMET
2006060203 - SBKG 020316Z 16002KT 9999 FEW015 20/19 Q1018=
2006060204 - SBKG 020400Z 18004KT 9999 FEW015 20/19 Q1017=
2006060205 - SBKG 020500Z 19006KT 9999 FEW015 20/19 Q1017=
2006060206 - SBKG 020600Z 16002KT CAVOK 20/19 Q1017=
2006060207 - SBKG 020700Z 15002KT CAVOK 20/19 Q1017=
2006060208 - SBKG 020800Z 16004KT CAVOK 20/19 Q1017=
2006060209 - SBKG 020900Z 16002KT 9999 SCT015 SCT300 20/19 Q1017=
2006060210 - SBKG 021000Z 17004KT 9999 SCT020 BKN300 22/21 Q1018=
2006060211 - SBKG 021100Z 17010KT 9999 BKN020 BKN300 22/20 Q1014=
2006060212 - SBKG 021200Z 16006KT 9999 BKN020 BKN300 24/21 Q1019=
2006060213 - SBKG 021300Z 16010KT 9999 BKN020 BKN300 25/21 Q1018=
2006060214 - SBKG 021400Z 13008KT 9999 BKN020 BKN100 24/21 Q1018=
2006060215 - SBKG 021500Z 15014KT 9999 BKN023 BKN100 26/20 Q1018=
2006060216 - SBKG 021600Z 16012KT 9999 SCT026 BKN100 26/19 Q1017=
2006060217 - SBKG 021700Z 12008KT 9999 FEW032 SCT100 27/19 Q1017=
2006060218 - SBKG 021800Z 15008KT 8000 VCSH SCT030 SCT100 27/21 Q1016=
2006060219 - SBKG 021900Z 17014KT 9999 SCT025 SCT100 25/20 Q1017=
2006060220 - SBKG 022000Z 15012KT 6000 -DZ FEW012 BKN018 BKN090 23/21 Q1017=
2006060221 - SBKG 022100Z 13004KT 9999 FEW016 SCT020 BKN090 22/20 Q1018=
2006060222 - SBKG 022200Z 14002KT 9999 SCT026 BKN090 21/20 Q1018=
2006060223 - Mensagem METAR de 'SBKG' para 02/06/2006 as 23(UTC) não localizada na base de dados da REDEMET
2006060300 - Mensagem METAR de 'SBKG' para 03/06/2006 as 00(UTC) não localizada na base de dados da REDEMET
2006060301 - Mensagem METAR de 'SBKG' para 03/06/2006 as 01(UTC) não localizada na base de dados da REDEMET
2006060302 - Mensagem METAR de 'SBKG' para 03/06/2006 as 02(UTC) não localizada na base de dados da REDEMET
2006060303 - SBKG 030315Z 12002KT 9999 BKN015 20/19 Q1018=
2006060304 - SBKG 030400Z 17003KT 9999 SCT015 20/19 Q1018=
2006060305 - SBKG 030500Z 16002KT 9999 SCT015 20/19 Q1017=
2006060306 - SBKG 030600Z 20004KT 9999 SCT015 20/19 Q1017=
2006060307 - SBKG 030700Z 19004KT 9999 BKN015 19/19 Q1017=
2006060308 - SBKG 030800Z 17002KT 9999 SCT015 19/19 Q1017=
2006060309 - SBKG 030900Z 16003KT 9999 SCT017 SCT100 20/19 Q1017=
2006060310 - SBKG 031000Z 16006KT 9999 SCT017 SCT100 21/20 Q1018=
2006060311 - SBKG 031100Z 16010KT 9999 BKN020 23/20 Q1018=
2006060312 - SBKG 031200Z 16012KT 9999 FEW015 BKN020 23/20 Q1018=
2006060313 - SBKG 031300Z 13015KT 9999 SCT020 26/19 Q1018=
2006060314 - SBKG 031400Z 16010KT 9999 SCT020 27/18 Q1018=
2006060315 - SBKG 031500Z 15012KT 9999 SCT020 28/17 Q1017=
2006060316 - SBKG 031600Z 14012KT 9999 BKN023 28/17 Q1016=
2006060317 - SBKG 031700Z 15012KT 9999 SCT030 BKN300 29/17 Q1015=
2006060318 - SBKG 031800Z 13012KT 9999 FEW030 SCT300 28/17 Q1015=
2006060319 - SBKG 031900Z 15008KT 9999 FEW030 BKN300 27/18 Q1015=
2006060320 - SBKG 032000Z 15008KT 9999 FEW030 BKN300 26/17 Q1016=
2006060321 - SBKG 032100Z 14009KT CAVOK 23/18 Q1016=
2006060322 - SBKG 032200Z 15010KT CAVOK 22/19 Q1017=
2006060323 - SBKG 032300Z 15008KT 9999 FEW018 22/19 Q1018=
2006060400 - SBKG 040000Z 13006KT 9999 FEW018 21/19 Q1018=
2006060401 - SBKG 040100Z 13006KT 9999 FEW016 21/19 Q1018=
2006060402 - Mensagem METAR de 'SBKG' para 04/06/2006 as 02(UTC) não localizada na base de dados da REDEMET
2006060403 - SBKG 040315Z 20006KT 9999 BKN017 21/20 Q1018=
2006060404 - SBKG 040400Z 18008KT 9999 BKN017 21/20 Q1017=
2006060405 - SBKG 040500Z 19010KT 9999 SCT015 21/20 Q1016=
2006060406 - SBKG 040600Z 19010KT 9999 SCT015 21/20 Q1016=
2006060407 - SBKG 040700Z 20004KT 9999 SCT015 20/19 Q1016=
2006060408 - SBKG 040800Z 20004KT 9999 SCT015 BKN100 21/19 Q1016=
2006060409 - SBKG 040900Z 19006KT 9999 SCT015 BKN100 21/19 Q1017=
2006060410 - SBKG 041000Z 17010KT 9999 SCT018 BKN100 21/19 Q1017=
2006060411 - SBKG 041100Z 16010KT 9999 SCT020 SCT100 23/19 Q1018=
2006060412 - SBKG 041200Z 16012KT 9999 SCT022 BKN100 24/18 Q1018=
2006060413 - SBKG 041300Z 16018KT 9999 SCT026 BKN100 25/17 Q1017=
2006060414 - SBKG 041400Z 15012KT 9999 BKN032 BKN100 26/18 Q1017=
2006060415 - SBKG 041500Z 13018KT 8000 VCSH BKN032 BKN100 25/19 Q1016=
2006060416 - SBKG 041600Z 15014KT 9999 BKN032 BKN100 26/19 Q1015=
2006060417 - SBKG 041700Z 15012KT 9999 BKN030 BKN100 25/19 Q1014=
2006060418 - SBKG 041800Z 15010KT 9999 BKN025 BKN100 25/18 Q1014=
2006060419 - SBKG 041900Z 15010KT 9999 BKN020 BKN100 25/19 Q1014=
2006060420 - SBKG 042000Z 15010KT 9999 FEW015 BKN020 BKN100 24/19 Q1014=
2006060421 - SBKG 042100Z 13008KT 9999 FEW010 BKN015 BKN100 23/19 Q1015=
2006060422 - Mensagem METAR de 'SBKG' para 04/06/2006 as 22(UTC) não localizada na base de dados da REDEMET
2006060423 - Mensagem METAR de 'SBKG' para 04/06/2006 as 23(UTC) não localizada na base de dados da REDEMET
2006060500 - Mensagem METAR de 'SBKG' para 05/06/2006 as 00(UTC) não localizada na base de dados da REDEMET
2006060501 - Mensagem METAR de 'SBKG' para 05/06/2006 as 01(UTC) não localizada na base de dados da REDEMET
2006060502 - Mensagem METAR de 'SBKG' para 05/06/2006 as 02(UTC) não localizada na base de dados da REDEMET
2006060503 - SBKG 050315Z 16010KT 9999 FEW006 BKN010 BKN015 21/20 Q1015=
2006060504 - SBKG 050400Z 17006KT 9999 FEW006 BKN010 BKN016 21/20 Q1015=
2006060504 - SBKG 050415Z 16006KT 3000 -DZ FEW006 BKN010 BKN016 21/21 Q1015=
2006060505 - SBKG 050500Z 15008KT 9000 FEW006 BKN010 BKN016 21/21 Q1014=
2006060506 - SBKG 050600Z 17004KT 9999 FEW006 BKN012 BKN016 21/21 Q1014=
2006060507 - SBKG 050700Z 14006KT 9999 FEW006 BKN014 BKN016 21/21 Q1014=
2006060507 - SBKG 050738Z 15006KT 4000 -RADZ SCT006 BKN012 BKN015 21/21 Q1015=
2006060508 - SBKG 050800Z 15004KT 5000 BR SCT006 BKN012 BKN015 21/21 Q1015=
2006060509 - SBKG 050900Z 17004KT 9999 FEW006 SCT012 BKN018 21/20 Q1015=
2006060510 - SBKG 051000Z 16006KT 9999 SCT009 BKN012 21/20 Q1016=
2006060511 - SBKG 051100Z 16006KT 9999 SCT010 BKN015 22/21 Q1017=
2006060512 - SBKG 051200Z 18007KT 9999 SCT015 BKN018 23/21 Q1017=
2006060513 - SBKG 051300Z 15008KT 9999 BKN020 26/19 Q1016=
2006060514 - SBKG 051400Z 12010KT 9999 BKN020 26/20 Q1016=
2006060515 - SBKG 051500Z 12008KT 9999 BKN020 27/20 Q1015=
2006060516 - SBKG 051600Z 15006KT 9999 BKN020 26/20 Q1014=
2006060517 - SBKG 051700Z 13010KT 9999 BKN015 26/19 Q1014=
2006060518 - SBKG 051800Z 12007KT 4000 -RA BR SCT010 BKN015 24/21 Q1016=
2006060519 - SBKG 051900Z 12002KT 6000 SCT010 BKN015 BKN100 23/21 Q1014=
2006060520 - SBKG 052000Z 12006KT 6000 -RA SCT010 BKN015 BKN100 22/21 Q1015=
2006060521 - SBKG 052100Z 12002KT 9999 SCT010 BKN015 22/21 Q1015=
2006060522 - SBKG 052200Z 13006KT 5000 -RA BR FEW006 SCT010 BKN015 21/20 Q1016=
2006060523 - Mensagem METAR de 'SBKG' para 05/06/2006 as 23(UTC) não localizada na base de dados da REDEMET
2006060600 - Mensagem METAR de 'SBKG' para 06/06/2006 as 00(UTC) não localizada na base de dados da REDEMET
2006060601 - Mensagem METAR de 'SBKG' para 06/06/2006 as 01(UTC) não localizada na base de dados da REDEMET
2006060602 - Mensagem METAR de 'SBKG' para 06/06/2006 as 02(UTC) não localizada na base de dados da REDEMET
2006060603 - SBKG 060315Z 00000KT 9999 BKN030 20/19 Q1017=
2006060604 - SBKG 060400Z 30002KT 9999 BKN020 20/19 Q1016=
2006060605 - SBKG 060500Z 00000KT CAVOK 20/20 Q1016=
2006060606 - SBKG 060600Z 00000KT CAVOK 20/19 Q1016=
2006060607 - SBKG 060700Z 28002KT 9999 BKN025 20/19 Q1016=
2006060608 - SBKG 060800Z 00000KT 5000 -RA BKN010 BKN018 20/19 Q1017=
2006060608 - SBKG 060812Z 00000KT 9999 SCT015 BKN100 20/19 Q1017=
2006060609 - SBKG 060900Z 00000KT 9999 SCT018 BKN100 20/19 Q1017=
2006060610 - SBKG 061000Z 21005KT 9999 SCT018 BKN100 20/20 Q1017=
2006060611 - SBKG 061100Z 24008KT 9999 FEW015 SCT100 22/20 Q1018=
2006060612 - SBKG 061200Z 21006KT 9999 SCT016 24/21 Q1018=
2006060613 - SBKG 061300Z 18002KT 9999 BKN022 25/20 Q1017=
2006060614 - SBKG 061400Z 21003KT 9999 BKN030 27/19 Q1017=
2006060615 - SBKG 061500Z 16004KT 9999 BKN032 27/20 Q1016=
2006060616 - SBKG 061600Z 11006KT 9999 BKN023 27/21 Q1015=
2006060617 - SBKG 061700Z 10004KT 9999 BKN023 28/20 Q1014=
2006060618 - SBKG 061800Z 08004KT 9999 BKN023 27/21 Q1014=
2006060619 - SBKG 061900Z 10004KT 9999 SCT020 27/21 Q1014=
2006060620 - SBKG 062000Z 12008KT 9999 BKN020 26/20 Q1015=
2006060621 - SBKG 062100Z 10006KT 9999 SCT020 24/20 Q1016=
2006060622 - SBKG 062200Z 11008KT 9999 SCT017 24/21 Q1016=
2006060623 - Mensagem METAR de 'SBKG' para 06/06/2006 as 23(UTC) não localizada na base de dados da REDEMET
2006060700 - Mensagem METAR de 'SBKG' para 07/06/2006 as 00(UTC) não localizada na base de dados da REDEMET
2006060701 - Mensagem METAR de 'SBKG' para 07/06/2006 as 01(UTC) não localizada na base de dados da REDEMET
2006060702 - SBKG 070215Z 12002KT 9999 FEW010 SCT012 BKN080 22/21 Q1017=
2006060703 - SBKG 070300Z 00000KT CAVOK 22/20 Q1017=
2006060704 - SBKG 070400Z 00000KT 9999 FEW010 21/21 Q1016=
2006060705 - SBKG 070500Z 00000KT 9999 SCT012 20/20 Q1016=
2006060706 - SBKG 070600Z 00000KT 9999 4000SW FG SKC 20/20 Q1016=
2006060707 - SBKG 070700Z 00000KT 9999 SCT012 20/20 Q1016=
2006060708 - SBKG 070800Z 00000KT CAVOK 20/20 Q1016=
2006060709 - SBKG 070900Z 00000KT 9999 BKN015 SCT300 20/20 Q1016=
2006060710 - SBKG 071000Z 22003KT 8000 NSC 21/21 Q1017=
2006060711 - SBKG 071100Z 18004KT 9999 FEW012 BKN015 BKN100 23/21 Q1017=
2006060712 - SBKG 071200Z 17005KT 9999 BKN020 BKN100 24/20 Q1018=
2006060713 - SBKG 071300Z 00000KT 9999 BKN022 27/19 Q1017=
2006060714 - SBKG 071400Z 15004KT 9999 BKN026 27/20 Q1017=
2006060715 - SBKG 071500Z 19003KT 9999 BKN032 28/20 Q1016=
2006060716 - SBKG 071600Z 11006KT 9999 BKN023 28/20 Q1014=
2006060717 - SBKG 071700Z 15008KT 9999 BKN023 28/21 Q1014=
2006060718 - SBKG 071800Z 14010KT 9999 BKN020 27/21 Q1013=
2006060719 - SBKG 071900Z 12012KT 9999 BKN020 25/22 Q1014=
2006060720 - SBKG 072000Z 13008KT 9999 BKN020 24/21 Q1014=
2006060721 - SBKG 072100Z 12006KT 9999 SCT017 BKN100 23/21 Q1016=
2006060722 - SBKG 072200Z 12006KT 9999 SCT017 BKN100 23/21 Q1016=
2006060723 - Mensagem METAR de 'SBKG' para 07/06/2006 as 23(UTC) não localizada na base de dados da REDEMET
2006060800 - Mensagem METAR de 'SBKG' para 08/06/2006 as 00(UTC) não localizada na base de dados da REDEMET
2006060801 - Mensagem METAR de 'SBKG' para 08/06/2006 as 01(UTC) não localizada na base de dados da REDEMET
2006060802 - Mensagem METAR de 'SBKG' para 08/06/2006 as 02(UTC) não localizada na base de dados da REDEMET
2006060803 - SBKG 080315Z 18006KT 9999 SCT006 BKN012 BKN090 21/21 Q1017=
2006060804 - SBKG 080400Z 17006KT 9999 SCT006 BKN012 BKN090 21/21 Q1016=
2006060805 - SBKG 080500Z 18006KT 3000 -RA SCT006 BKN010 BKN015 21/21 Q1016=
2006060806 - SBKG 080600Z 18006KT 4500 -RA FEW008 BKN016 OVC070 20/20 Q1016=
2006060807 - SBKG 080700Z 21004KT 9999 SCT006 BKN014 OVC070 20/20 Q1016=
2006060808 - SBKG 080800Z 00000KT 9999 -RA SCT008 BKN012 OVC070 20/20 Q1016=
2006060809 - SBKG 080900Z 21006KT 9000 BKN012 BKN015 BKN070 20/20 Q1017=
2006060809 - SBKG 080932Z 24006KT 9999 SCT012 BKN015 BKN090 21/19 Q1017=
2006060810 - SBKG 081000Z 23007KT 9999 SCT015 BKN017 BKN090 21/20 Q1017=
2006060811 - SBKG 081100Z 24006KT 9999 SCT015 BKN020 BKN090 22/20 Q1018=
2006060812 - SBKG 081200Z 22002KT 9999 BKN020 BKN090 23/20 Q1018=
2006060813 - SBKG 081300Z 17009KT 9999 BKN020 BKN100 24/21 Q1018=
2006060814 - SBKG 081400Z 20007KT 9999 BKN020 BKN100 26/20 Q1017=
2006060815 - SBKG 081500Z 19010KT 9999 BKN020 BKN100 25/21 Q1016=
2006060816 - SBKG 081600Z 16008KT 9999 BKN020 SCT300 24/20 Q1016=
2006060817 - SBKG 081700Z 16008KT 9999 BKN020 SCT300 25/19 Q1015=
2006060818 - SBKG 081800Z 19006KT 9999 BKN020 BKN300 25/19 Q1015=
2006060819 - SBKG 081900Z 19006KT 9999 BKN023 25/20 Q1015=
2006060820 - SBKG 082000Z 15006KT 9999 BKN025 24/20 Q1015=
2006060821 - SBKG 082100Z 15004KT 9999 SCT020 BKN070 23/19 Q1016=
2006060822 - SBKG 082200Z 13006KT 9999 FEW020 SCT030 23/20 Q1016=
2006060823 - Mensagem METAR de 'SBKG' para 08/06/2006 as 23(UTC) não localizada na base de dados da REDEMET
2006060900 - Mensagem METAR de 'SBKG' para 09/06/2006 as 00(UTC) não localizada na base de dados da REDEMET
2006060901 - Mensagem METAR de 'SBKG' para 09/06/2006 as 01(UTC) não localizada na base de dados da REDEMET
2006060902 - Mensagem METAR de 'SBKG' para 09/06/2006 as 02(UTC) não localizada na base de dados da REDEMET
2006060903 - SBKG 090315Z 26002KT 9999 FEW015 BKN100 21/20 Q1017=
2006060904 - SBKG 090400Z 23004KT CAVOK 21/20 Q1016=
2006060905 - SBKG 090500Z 26003KT CAVOK 21/20 Q1015=
2006060906 - SBKG 090600Z 20004KT CAVOK 20/19 Q1015=
2006060907 - SBKG 090700Z 22002KT CAVOK 20/19 Q1015=
2006060908 - SBKG 090800Z 20004KT CAVOK 20/19 Q1014=
2006060909 - SBKG 090900Z 22002KT CAVOK 20/19 Q1015=
2006060910 - SBKG 091000Z 18004KT CAVOK 20/19 Q1016=
2006060911 - SBKG 091100Z 19006KT CAVOK 21/19 Q1016=
2006060912 - SBKG 091200Z 17010KT 9999 SCT018 BKN100 24/19 Q1016=
2006060913 - SBKG 091300Z 17012KT 9999 BKN022 SCT100 27/19 Q1017=
2006060914 - SBKG 091400Z 18012KT 9999 SCT026 BKN100 27/19 Q1016=
2006060915 - SBKG 091500Z 16010KT 9999 SCT032 SCT100 27/19 Q1015=
2006060916 - SBKG 091600Z 16013KT 9999 BKN030 29/19 Q1014=
2006060917 - SBKG 091700Z 15010KT 9000 VCSH BKN025 28/20 Q1014=
2006060918 - SBKG 091800Z 14010KT 9999 BKN023 25/20 Q1014=
2006060919 - SBKG 091900Z 18006KT 9999 FEW015 BKN023 23/20 Q1014=
2006060920 - SBKG 092000Z 15006KT 9999 SCT018 SCT020 23/21 Q1014=
2006060921 - SBKG 092100Z 15004KT 9999 -RA SCT010 BKN018 22/21 Q1015=
2006060922 - SBKG 092200Z 12004KT 9999 FEW015 SCT100 21/20 Q1015=
2006060923 - Mensagem METAR de 'SBKG' para 09/06/2006 as 23(UTC) não localizada na base de dados da REDEMET
2006061000 - Mensagem METAR de 'SBKG' para 10/06/2006 as 00(UTC) não localizada na base de dados da REDEMET
2006061001 - Mensagem METAR de 'SBKG' para 10/06/2006 as 01(UTC) não localizada na base de dados da REDEMET
2006061002 - Mensagem METAR de 'SBKG' para 10/06/2006 as 02(UTC) não localizada na base de dados da REDEMET
2006061003 - SBKG 100315Z 13004KT 9999 FEW016 BKN100 21/20 Q1016=
2006061004 - SBKG 100400Z 16006KT 9999 FEW016 BKN100 20/20 Q1015=
2006061005 - SBKG 100500Z 18004KT 9999 SCT012 20/20 Q1014=
2006061006 - SBKG 100600Z 00000KT 9999 FEW007 BKN012 20/20 Q1014=
2006061007 - SBKG 100700Z 18002KT 9999 FEW012 BKN015 20/20 Q1014=
2006061008 - SBKG 100800Z 19006KT 9999 SCT012 BKN015 20/20 Q1014=
2006061009 - SBKG 100900Z 21004KT 6000 SCT010 SCT015 20/20 Q1015=
2006061010 - SBKG 101000Z 16002KT 9999 SCT012 SCT016 21/19 Q1015=
2006061011 - SBKG 101100Z 10008KT 9999 SCT020 23/20 Q1016=
2006061012 - SBKG 101200Z 15006KT 9999 BKN020 24/19 Q1016=
2006061013 - SBKG 101300Z 15012KT 9999 BKN023 26/19 Q1016=
2006061014 - SBKG 101400Z 16008KT 9999 BKN025 27/18 Q1016=
2006061015 - SBKG 101500Z 15008KT 9999 BKN025 28/19 Q1015=
2006061016 - SBKG 101600Z 18005KT 9999 BKN023 27/18 Q1013=
2006061017 - SBKG 101700Z 18010KT 9999 BKN023 27/19 Q1013=
2006061018 - SBKG 101800Z 16005KT 9999 BKN023 26/19 Q1013=
2006061019 - SBKG 101900Z 15008KT 9999 BKN020 26/19 Q1013=
2006061020 - SBKG 102000Z 15005KT 9999 BKN020 26/19 Q1013=
2006061021 - SBKG 102100Z 16005KT 9999 SCT020 BKN300 24/20 Q1013=
2006061022 - Mensagem METAR de 'SBKG' para 10/06/2006 as 22(UTC) não localizada na base de dados da REDEMET
2006061023 - Mensagem METAR de 'SBKG' para 10/06/2006 as 23(UTC) não localizada na base de dados da REDEMET
2006061100 - Mensagem METAR de 'SBKG' para 11/06/2006 as 00(UTC) não localizada na base de dados da REDEMET
2006061101 - Mensagem METAR de 'SBKG' para 11/06/2006 as 01(UTC) não localizada na base de dados da REDEMET
2006061102 - Mensagem METAR de 'SBKG' para 11/06/2006 as 02(UTC) não localizada na base de dados da REDEMET
2006061103 - SBKG 110315Z 00000KT CAVOK 20/19 Q1015=
2006061104 - SBKG 110400Z 25002KT CAVOK 20/18 Q1014=
2006061105 - SBKG 110500Z 28002KT CAVOK 19/18 Q1013=
2006061106 - SBKG 110600Z 28004KT 9999 FEW040 SCT150 19/18 Q1013=
2006061107 - SBKG 110700Z 28006KT 9999 FEW030 SCT140 19/18 Q1013=
2006061108 - SBKG 110800Z 26006KT CAVOK 20/18 Q1013=
2006061109 - SBKG 110900Z 27004KT CAVOK 20/18 Q1014=
2006061110 - SBKG 111000Z 28005KT 9999 FEW015 BKN100 20/18 Q1015=
2006061111 - SBKG 111100Z 27008KT 9999 FEW020 BKN100 22/18 Q1015=
2006061112 - SBKG 111200Z 10002KT 6000 -RA BKN015 BKN090 22/21 Q1014=
2006061113 - SBKG 111300Z 24006KT CAVOK 25/18 Q1015=
2006061114 - SBKG 111400Z 24005KT 9999 FEW020 BKN100 26/19 Q1015=
2006061115 - SBKG 111500Z 18005KT 9999 FEW020 SCT100 BKN300 27/19 Q1014=
2006061116 - SBKG 111600Z 20002KT 9999 BKN020 BKN100 27/20 Q1013=
2006061117 - SBKG 111700Z 13008KT 9999 BKN020 BKN100 26/20 Q1013=
2006061118 - SBKG 111800Z 14004KT 9999 SCT015 BKN020 BKN100 25/21 Q1014=
2006061119 - SBKG 111900Z 16002KT 5000 -RA BKN015 BKN090 24/21 Q1014=
2006061120 - SBKG 112000Z 10002KT 6000 -RA BKN015 BKN090 22/21 Q1014=
2006061121 - SBKG 112100Z 14002KT 5000 -RA BKN015 OVC090 22/20 Q1015=
2006061122 - Mensagem METAR de 'SBKG' para 11/06/2006 as 22(UTC) não localizada na base de dados da REDEMET
2006061123 - Mensagem METAR de 'SBKG' para 11/06/2006 as 23(UTC) não localizada na base de dados da REDEMET
2006061200 - Mensagem METAR de 'SBKG' para 12/06/2006 as 00(UTC) não localizada na base de dados da REDEMET
2006061201 - Mensagem METAR de 'SBKG' para 12/06/2006 as 01(UTC) não localizada na base de dados da REDEMET
2006061202 - Mensagem METAR de 'SBKG' para 12/06/2006 as 02(UTC) não localizada na base de dados da REDEMET
2006061203 - SBKG 120315Z 27005KT 1500 -RA BR SCT005 BKN008 OVC090 21/21 Q10 15=
2006061204 - SBKG 120400Z 30003KT 1500 -RA BR SCT005 BKN008 OVC090 20/20 Q1015=
2006061205 - SBKG 120500Z 33002KT 3000 -RA SCT005 BKN010 OVC090 20/20 Q1014=
2006061206 - SBKG 120600Z 30003KT 5000 -RA FEW005 BKN010 OVC090 20/20 Q1014=
2006061207 - SBKG 120700Z 23003KT 3000 -RA BR FEW005 BKN010 OVC090 20/20 Q1014=
2006061208 - SBKG 120800Z 28004KT 5000 -RA BR FEW005 BKN010 OVC090 20/20 Q1015=
2006061208 - SBKG 120820Z 30005KT 8000 SCT013 BKN090 20/20 Q1015=
2006061209 - SBKG 120900Z 33003KT 9999 SCT013 BKN090 20/20 Q1015=
2006061210 - SBKG 121000Z 04002KT 9999 SCT020 BKN090 22/20 Q1015=
2006061211 - SBKG 121100Z 20002KT 9999 SCT020 SCT100 24/21 Q1016=
2006061212 - SBKG 121200Z 14002KT 9999 SCT023 SCT100 26/21 Q1016=
2006061213 - SBKG 121300Z 15004KT 9999 SCT023 SCT300 26/21 Q1016=
2006061214 - SBKG 121400Z 17007KT 9999 SCT023 BKN300 27/21 Q1016=
2006061215 - SBKG 121500Z 17006KT 9999 BKN023 BKN300 27/21 Q1015=
2006061216 - SBKG 121600Z 15006KT 9999 BKN030 SCT100 28/22 Q1015=
2006061217 - SBKG 121700Z 16004KT 9999 BKN032 BKN100 29/22 Q1014=
2006061218 - SBKG 121800Z 15004KT 9999 SCT032 BKN100 28/22 Q1014=
2006061219 - SBKG 121900Z 12006KT 9999 FEW032 SCT100 27/21 Q1014=
2006061220 - SBKG 122000Z 13004KT 9999 FEW022 SCT032 26/22 Q1015=
2006061221 - SBKG 122100Z 12008KT 9999 SCT022 SCT026 25/22 Q1016=
2006061222 - SBKG 122200Z 12008KT 9999 BKN015 SCT022 24/22 Q1017=
2006061223 - Mensagem METAR de 'SBKG' para 12/06/2006 as 23(UTC) não localizada na base de dados da REDEMET
2006061300 - Mensagem METAR de 'SBKG' para 13/06/2006 as 00(UTC) não localizada na base de dados da REDEMET
2006061301 - Mensagem METAR de 'SBKG' para 13/06/2006 as 01(UTC) não localizada na base de dados da REDEMET
2006061302 - Mensagem METAR de 'SBKG' para 13/06/2006 as 02(UTC) não localizada na base de dados da REDEMET
2006061303 - SBKG 130315Z 15002KT 9999 SCT010 BKN015 22/21 Q1018=
2006061304 - SBKG 130400Z 17002KT 9999 BKN015 22/21 Q1017=
2006061305 - SBKG 130500Z 19004KT 9999 BKN017 22/21 Q1017=
2006061306 - SBKG 130600Z 18004KT 9999 BKN015 22/21 Q1016=
2006061307 - SBKG 130700Z 17003KT 9999 SCT017 BKN100 22/21 Q1016=
2006061308 - SBKG 130800Z 18003KT 9999 SCT017 BKN100 22/21 Q1017=
2006061309 - SBKG 130900Z 25004KT 9999 SCT010 BKN015 BKN100 22/21 Q1017=
2006061310 - SBKG 131000Z 33005KT 9999 SCT010 BKN015 BKN100 22/21 Q1018=
2006061310 - SBKG 131025Z 20008KT 4000 -RA BR SCT010 BKN015 BKN100 22/21 Q10 18=
2006061311 - SBKG 131100Z 18005KT 4000 -RA BR SCT010 SCT015 BKN100 22/21 Q10 18=
2006061312 - SBKG 131200Z 19007KT 9999 SCT010 BKN015 OVC100 22/21 Q1018=
2006061313 - SBKG 131300Z 18007KT 8000 -RA SCT010 BKN015 OVC100 23/21 Q1014=
2006061314 - SBKG 131400Z 18010KT 9999 SCT015 BKN017 BKN100 25/21 Q1018=
2006061315 - SBKG 131500Z 16010KT 9999 SCT020 BKN100 26/20 Q1017=
2006061316 - SBKG 131600Z 15010KT 9999 SCT016 BKN022 BKN100 26/20 Q1016=
2006061317 - SBKG 131700Z 16010KT 9999 SCT030 BKN100 26/20 Q1016=
2006061318 - SBKG 131800Z 17012KT 9999 SCT030 BKN100 26/19 Q1015=
2006061319 - SBKG 131900Z 18012KT 8000 VCSH SCT030 BKN100 25/19 Q1016=
2006061320 - SBKG 132000Z 13006KT 9999 SCT030 SCT100 BKN300 25/22 Q1016=
2006061321 - SBKG 132100Z 15005KT CAVOK 22/20 Q1017=
2006061322 - SBKG 132200Z 16004KT CAVOK 21/19 Q1018=
2006061323 - Mensagem METAR de 'SBKG' para 13/06/2006 as 23(UTC) não localizada na base de dados da REDEMET
2006061400 - Mensagem METAR de 'SBKG' para 14/06/2006 as 00(UTC) não localizada na base de dados da REDEMET
2006061401 - Mensagem METAR de 'SBKG' para 14/06/2006 as 01(UTC) não localizada na base de dados da REDEMET
2006061402 - Mensagem METAR de 'SBKG' para 14/06/2006 as 02(UTC) não localizada na base de dados da REDEMET
2006061403 - SBKG 140315Z 18005KT 9999 SCT007 BKN015 21/19 Q1017=
2006061404 - SBKG 140400Z 18006KT 9999 SCT010 BKN015 21/19 Q1017=
2006061405 - SBKG 140500Z 16007KT 9999 SCT007 BKN015 20/19 Q1017=
2006061406 - SBKG 140600Z 18005KT 9999 FEW007 BKN015 20/19 Q1016=
2006061407 - SBKG 140700Z 18002KT 9999 BKN015 20/19 Q1016=
2006061408 - SBKG 140800Z 18006KT 9999 SCT015 SCT017 BKN090 20/18 Q1017=
2006061409 - SBKG 140900Z 20006KT 9999 SCT015 BKN090 20/18 Q1017=
2006061410 - SBKG 141000Z 17004KT 9999 FEW018 BKN100 21/19 Q1017=
2006061411 - SBKG 141100Z 15008KT 9999 BKN018 SCT300 23/19 Q1018=
2006061412 - SBKG 141200Z 15010KT 9999 BKN022 SCT300 24/19 Q1018=
2006061413 - SBKG 141300Z 14012KT 9999 BKN026 BKN300 27/19 Q1018=
2006061414 - SBKG 141400Z 14018KT 9999 BKN030 BKN300 27/19 Q1018=
2006061415 - SBKG 141500Z 17012KT 9999 BKN030 BKN300 27/18 Q1017=
2006061416 - SBKG 141600Z 15013KT 9999 BKN030 SCT300 28/17 Q1017=
2006061417 - SBKG 141700Z 12012KT 9999 BKN030 SCT300 28/17 Q1016=
2006061418 - SBKG 141800Z 15010KT 9999 SCT030 28/18 Q1016=
2006061419 - SBKG 141900Z 15014KT 9999 FEW030 26/17 Q1016=
2006061420 - SBKG 142000Z 12004KT 9000 VCSH SCT025 BKN300 25/18 Q1016=
2006061421 - SBKG 142100Z 12002KT 9999 BKN018 SCT020 22/20 Q1017=
2006061422 - SBKG 142200Z 12004KT 9999 FEW030 21/20 Q1017=
2006061423 - SBKG 142300Z 15006KT 9999 SCT012 BKN020 21/20 Q1018=
2006061500 - Mensagem METAR de 'SBKG' para 15/06/2006 as 00(UTC) não localizada na base de dados da REDEMET
2006061501 - Mensagem METAR de 'SBKG' para 15/06/2006 as 01(UTC) não localizada na base de dados da REDEMET
2006061502 - Mensagem METAR de 'SBKG' para 15/06/2006 as 02(UTC) não localizada na base de dados da REDEMET
2006061503 - SBKG 150315Z 17006KT 9999 SCT017 21/19 Q1018=
2006061504 - SBKG 150400Z 18006KT 9999 BKN015 21/20 Q1017=
2006061505 - SBKG 150500Z 19006KT 9999 SCT015 21/20 Q1017=
2006061506 - SBKG 150600Z 19004KT 9999 SCT015 21/20 Q1017=
2006061507 - SBKG 150700Z 20005KT 9999 SCT015 21/20 Q1017=
2006061508 - SBKG 150800Z 17004KT 9999 SCT015 20/20 Q1017=
2006061509 - SBKG 150900Z 16005KT 9999 SCT017 20/19 Q1017=
2006061510 - SBKG 151000Z 17008KT CAVOK 20/19 Q1017=
2006061511 - SBKG 151100Z 17014KT 8000 VCSH FEW015 BKN018 BKN100 21/19 Q1018=
2006061512 - SBKG 151200Z 15010KT 8000 VCSH SCT015 BKN018 BKN100 23/19 Q1018=
2006061512 - SBKG 151220Z 17010KT 3000 RA BR SCT012 BKN018 BKN100 23/20 Q1018=
2006061513 - SBKG 151300Z 15012KT 3000 -DZ FEW006 SCT012 BKN018 22/21 Q1018=
2006061514 - SBKG 151400Z 17008KT 5000 BR BKN012 BKN016 BKN100 24/21 Q1018=
2006061515 - SBKG 151500Z 15006KT 8000 VCSH SCT014 BKN020 BKN100 24/21 Q1017=
2006061516 - SBKG 151600Z 13010KT 9999 BKN020 27/21 Q1016=
2006061517 - SBKG 151700Z 14006KT 9999 BKN025 27/20 Q1016=
2006061518 - SBKG 151800Z 15012KT 9999 9000NE VCSH BKN020 27/19 Q1015=
2006061519 - SBKG 151900Z 11004KT 9999 SCT023 24/21 Q1016=
2006061520 - SBKG 152000Z 12006KT 9999 FEW018 24/22 Q1016=
2006061521 - SBKG 152100Z 12004KT 9999 5000NE RA FEW018 SCT023TCU 23/22 Q1016=
2006061522 - Mensagem METAR de 'SBKG' para 15/06/2006 as 22(UTC) não localizada na base de dados da REDEMET
2006061523 - Mensagem METAR de 'SBKG' para 15/06/2006 as 23(UTC) não localizada na base de dados da REDEMET
2006061600 - Mensagem METAR de 'SBKG' para 16/06/2006 as 00(UTC) não localizada na base de dados da REDEMET
2006061601 - Mensagem METAR de 'SBKG' para 16/06/2006 as 01(UTC) não localizada na base de dados da REDEMET
2006061602 - Mensagem METAR de 'SBKG' para 16/06/2006 as 02(UTC) não localizada na base de dados da REDEMET
2006061603 - SBKG 160315Z 15005KT 9999 SCT014 SCT090 21/21 Q1017=
2006061604 - SBKG 160400Z 13004KT 8000 VCSH FEW015 SCT022 BKN090 21/21 Q1017=
2006061605 - SBKG 160500Z 14002KT 9999 SCT020 BKN090 20/20 Q1017=
2006061606 - SBKG 160600Z 17002KT 9999 SCT020 BKN090 21/21 Q1016=
2006061606 - SBKG 160625Z 15004KT 2000 -RADZ SCT006 BKN015 BKN080 21/21 Q1016=
2006061607 - SBKG 160700Z 00000KT 4000 BR SCT006 BKN010 BKN080 21/21 Q1016=
2006061608 - SBKG 160800Z 18002KT 4000 BR FEW005 SCT012 BKN080 20/20 Q1016=
2006061608 - SBKG 160813Z 00000KT 2000 -RADZ SCT006 BKN010 BKN080 20/20 Q1017=
2006061609 - SBKG 160900Z 13002KT 4000 BR SCT008 BKN016 BKN080 21/21 Q1017=
2006061609 - SBKG 160930Z 13004KT 4000 1000E -RADZ BR SCT008 BKN016 BKN080 21/21 Q1017=
2006061610 - SBKG 161000Z 12005KT 5000 BR SCT006 SCT010 BKN015 21/21 Q1018=
2006061611 - SBKG 161100Z 12008KT 9999 SCT009 BKN015 23/22 Q1018=
2006061612 - SBKG 161200Z 12012KT 9999 FEW012 BKN020 24/21 Q1019=
2006061613 - SBKG 161300Z 12010KT 9999 BKN023 25/20 Q1019=
2006061614 - SBKG 161400Z 12010KT 9999 SCT025 27/19 Q1018=
2006061615 - SBKG 161500Z 12010KT 9999 SCT030 28/19 Q1018=
2006061616 - SBKG 161600Z 16008KT 9999 SCT030 28/19 Q1017=
2006061617 - SBKG 161700Z 15010KT 9999 SCT030 28/19 Q1017=
2006061618 - SBKG 161800Z 14012KT 9999 FEW030 28/20 Q1016=
2006061619 - SBKG 161900Z 14006KT 9999 FEW030 27/19 Q1017=
2006061620 - SBKG 162000Z 14005KT 9999 FEW023 26/19 Q1017=
2006061621 - SBKG 162100Z 15004KT CAVOK 24/19 Q1018=
2006061622 - SBKG 162200Z 13004KT CAVOK 22/19 Q1018=
2006061623 - SBKG 162300Z 12004KT CAVOK 22/20 Q1019=
2006061700 - Mensagem METAR de 'SBKG' para 17/06/2006 as 00(UTC) não localizada na base de dados da REDEMET
2006061701 - Mensagem METAR de 'SBKG' para 17/06/2006 as 01(UTC) não localizada na base de dados da REDEMET
2006061702 - Mensagem METAR de 'SBKG' para 17/06/2006 as 02(UTC) não localizada na base de dados da REDEMET
2006061703 - SBKG 170315Z 00000KT 9999 FEW010 SCT012 20/19 Q1018=
2006061704 - SBKG 170400Z 16004KT 9999 SCT010 SCT012 20/20 Q1018=
2006061705 - SBKG 170500Z 14004KT 9999 SCT010 BKN012 20/20 Q1018=
2006061706 - SBKG 170600Z 00000KT 9999 FEW009 BKN012 20/19 Q1018=
2006061707 - SBKG 170700Z 00000KT CAVOK 19/18 Q1018=
2006061708 - SBKG 170800Z 00000KT 9999 SCT012 19/18 Q1018=
2006061709 - SBKG 170900Z 15002KT 9999 FEW018 19/19 Q1018=
2006061710 - SBKG 171000Z 20004KT 9999 FEW020 20/19 Q1018=
2006061711 - SBKG 171100Z 18008KT 9999 SCT023 23/19 Q1019=
2006061712 - SBKG 171200Z 17006KT 9999 SCT023 25/19 Q1019=
2006061713 - SBKG 171300Z 18008KT 9999 SCT023 25/19 Q1019=
2006061714 - SBKG 171400Z 15010KT 9999 SCT023 SCT300 27/20 Q1018=
2006061715 - SBKG 171500Z 15008KT 9999 SCT023 BKN100 27/20 Q1018=
2006061716 - SBKG 171600Z 14012KT 9999 BKN030 BKN100 27/20 Q1017=
2006061717 - SBKG 171700Z 13008KT 9999 SCT032 BKN100 BKN300 27/19 Q1016=
2006061718 - SBKG 171800Z 12006KT 9999 FEW032 BKN100 BKN300 27/20 Q1016=
2006061719 - SBKG 171900Z 12008KT CAVOK 26/20 Q1017=
2006061720 - SBKG 172000Z 12004KT 9999 FEW026 BKN100 BKN300 25/21 Q1017=
2006061721 - SBKG 172100Z 12006KT 9999 FEW018 BKN100 24/21 Q1018=
2006061722 - Mensagem METAR de 'SBKG' para 17/06/2006 as 22(UTC) não localizada na base de dados da REDEMET
2006061723 - Mensagem METAR de 'SBKG' para 17/06/2006 as 23(UTC) não localizada na base de dados da REDEMET
2006061800 - SBKG 180015Z 16002KT 9999 BKN017 22/20 Q1018=
2006061801 - SBKG 180100Z 13004KT 9999 SCT010 BKN015 22/20 Q1018=
2006061802 - SBKG 180200Z 12004KT 4000 -RA SCT006 BKN010 22/20 Q1018=
2006061803 - SBKG 180300Z 14006KT 4000 -RA SCT006 BKN010 BKN090 21/20 Q1018=
2006061804 - SBKG 180400Z 15008KT 5000 BR SCT006 BKN010 BKN090 21/20 Q1018=
2006061804 - SBKG 180416Z 14006KT 9999 SCT010 BKN015 21/20 Q1018=
2006061805 - SBKG 180500Z 13004KT 9999 BKN015 21/20 Q1018=
2006061806 - SBKG 180600Z 16004KT 9999 BKN015 21/20 Q1018=
2006061807 - SBKG 180700Z 13004KT 9999 BKN015 21/20 Q1018=
2006061808 - SBKG 180800Z 06004KT 9999 BKN015 21/20 Q1018=
2006061809 - SBKG 180900Z 17004KT 9999 SCT015 BKN017 21/20 Q1018=
2006061810 - SBKG 181000Z 13003KT 9999 SCT015 BKN017 22/20 Q1019=
2006061811 - SBKG 181100Z 15010KT 9999 BKN018 23/20 Q1019=
2006061812 - SBKG 181200Z 16010KT 9999 BKN020 25/20 Q1019=
2006061813 - SBKG 181300Z 16010KT 9999 BKN020 25/19 Q1019=
2006061814 - SBKG 181400Z 16012KT 5000 -RA SCT008 BKN010 OVC070 25/20 Q1019=
2006061815 - SBKG 181500Z 16008KT 9999 FEW015 BKN018 24/21 Q1018=
2006061816 - SBKG 181600Z 15008KT 8000 VCSH BKN022 BKN100 25/22 Q1017=
2006061817 - SBKG 181700Z 13007KT 9999 BKN022 SCT100 26/21 Q1016=
2006061818 - SBKG 181800Z 12008KT 8000 VCSH BKN030 FEW032TCU 25/22 Q1016=
2006061819 - SBKG 181900Z 15012KT 9999 SCT030 26/20 Q1016=
2006061820 - SBKG 182000Z 15008KT 9999 SCT030 24/20 Q1017=
2006061821 - SBKG 182100Z 15014KT 9999 SCT022 23/21 Q1017=
2006061822 - SBKG 182200Z 14006KT CAVOK 22/21 Q1017=
2006061823 - SBKG 182300Z 14006KT 9999 SCT015 22/20 Q1018=
2006061900 - SBKG 190000Z 15006KT 9999 SCT018 21/20 Q1018=
2006061901 - Mensagem METAR de 'SBKG' para 19/06/2006 as 01(UTC) não localizada na base de dados da REDEMET
2006061902 - Mensagem METAR de 'SBKG' para 19/06/2006 as 02(UTC) não localizada na base de dados da REDEMET
2006061903 - SBKG 190315Z 16008KT 5000 -RA SCT006 BKN010 21/20 Q1018=
2006061904 - SBKG 190400Z 18010KT 6000 -RA SCT010 BKN013 21/20 Q1018=
2006061905 - SBKG 190500Z 16012KT 6000 -RA SCT010 BKN013 21/20 Q1017=
2006061906 - SBKG 190600Z 17008KT 9999 BKN015 21/20 Q1017=
2006061907 - SBKG 190700Z 16008KT 9999 BKN015 20/20 Q1017=
2006061908 - SBKG 190800Z 16010KT 9999 SCT015 19/19 Q1018=
2006061909 - SBKG 190900Z 16008KT 9999 SCT017 19/18 Q1018=
2006061910 - SBKG 191000Z 14006KT 8000 VCSH SCT015 BKN018 20/20 Q1018=
2006061911 - SBKG 191100Z 14012KT 7000 SCT015 BKN022 22/20 Q1019=
2006061912 - SBKG 191200Z 15012KT 9999 SCT025 23/20 Q1019=
2006061913 - SBKG 191300Z 13010KT 9999 SCT026 25/20 Q1018=
2006061914 - SBKG 191400Z 13018KT 9999 SCT030 26/20 Q1018=
2006061915 - SBKG 191500Z 14018KT 9999 SCT032 27/19 Q1017=
2006061916 - SBKG 191600Z 15014KT 9999 SCT040 27/18 Q1017=
2006061917 - SBKG 191700Z 13012KT 9999 SCT040 28/16 Q1016=
2006061918 - SBKG 191800Z 13010KT 9999 SCT040 27/17 Q1016=
2006061919 - SBKG 191900Z 15014KT 9999 FEW040 26/17 Q1016=
2006061920 - SBKG 192000Z 15008KT 9999 FEW030 25/17 Q1017=
2006061921 - SBKG 192100Z 15010KT 9999 FEW030 23/18 Q1017=
2006061922 - SBKG 192200Z 15009KT 9999 FEW020 21/18 Q1018=
2006061923 - Mensagem METAR de 'SBKG' para 19/06/2006 as 23(UTC) não localizada na base de dados da REDEMET
2006062000 - Mensagem METAR de 'SBKG' para 20/06/2006 as 00(UTC) não localizada na base de dados da REDEMET
2006062001 - Mensagem METAR de 'SBKG' para 20/06/2006 as 01(UTC) não localizada na base de dados da REDEMET
2006062002 - Mensagem METAR de 'SBKG' para 20/06/2006 as 02(UTC) não localizada na base de dados da REDEMET
2006062003 - SBKG 200315Z 16008KT 9999 SCT015 SCT018 21/20 Q1018=
2006062004 - SBKG 200400Z 16008KT 9999 FEW015 BKN018 21/19 Q1018=
2006062005 - SBKG 200500Z 15012KT 9999 FEW016 BKN018 20/19 Q1018=
2006062006 - SBKG 200600Z 17008KT 9999 FEW016 BKN018 20/19 Q1017=
2006062007 - SBKG 200700Z 16010KT 9999 BKN018 20/19 Q1017=
2006062008 - SBKG 200800Z 17010KT 9999 SCT016 20/19 Q1017=
2006062009 - SBKG 200900Z 15008KT 9000 SCT016 SCT018 20/19 Q1018=
2006062010 - SBKG 201000Z 14009KT 9999 FEW016 21/18 Q1018=
2006062011 - SBKG 201100Z 15014KT 9999 FEW018 BKN020 22/18 Q1019=
2006062012 - SBKG 201200Z 15010KT 9999 FEW016 SCT020 23/19 Q1019=
2006062013 - SBKG 201300Z 16012KT 9999 SCT025 25/17 Q1019=
2006062014 - SBKG 201400Z 15012KT 9999 BKN025 26/17 Q1019=
2006062015 - SBKG 201500Z 15012KT 9999 BKN025 FEW030TCU 25/19 Q1018=
2006062016 - SBKG 201600Z 15012KT 9999 BKN025 27/18 Q1017=
2006062017 - SBKG 201700Z 16012KT 9999 SCT025 27/18 Q1017=
2006062018 - SBKG 201800Z 13010KT 9999 SCT025 27/18 Q1016=
2006062019 - SBKG 201900Z 15008KT 9999 SCT020 SCT300 26/17 Q1017=
2006062020 - SBKG 202000Z 15008KT 9999 SCT020 SCT100 BKN300 25/18 Q1017=
2006062021 - SBKG 202100Z 15006KT 9999 SCT020 SCT100 24/18 Q1017=
2006062022 - SBKG 202200Z 15010KT 9999 SCT015 22/19 Q1018=
2006062023 - Mensagem METAR de 'SBKG' para 20/06/2006 as 23(UTC) não localizada na base de dados da REDEMET
2006062100 - Mensagem METAR de 'SBKG' para 21/06/2006 as 00(UTC) não localizada na base de dados da REDEMET
2006062101 - Mensagem METAR de 'SBKG' para 21/06/2006 as 01(UTC) não localizada na base de dados da REDEMET
2006062102 - Mensagem METAR de 'SBKG' para 21/06/2006 as 02(UTC) não localizada na base de dados da REDEMET
2006062103 - SBKG 210315Z 15006KT 5000 -RADZ BKN012 BKN015 BKN100 21/20 Q1018=
2006062104 - SBKG 210400Z 12006KT 9000 4000NW -RADZ SCT008 BKN012 BKN100 21/20 Q1018=
2006062104 - SBKG 210415Z 13006KT 7000 SCT009 BKN010 BKN100 21/20 Q1018=
2006062105 - SBKG 210500Z 12005KT 9999 BKN010 BKN100 21/20 Q1018=
2006062106 - SBKG 210600Z 15005KT 8000 RA BKN010 SCT016 BKN100 21/20 Q1017=
2006062107 - SBKG 210700Z 15004KT 8000 BKN010 SCT016 BKN100 21/20 Q1017=
2006062108 - SBKG 210800Z 15004KT 8000 BKN010 SCT016 BKN100 21/20 Q1017=
2006062109 - SBKG 210900Z 15002KT 9999 BKN010 BKN015 BKN100 21/20 Q1018=
2006062110 - SBKG 211000Z 16006KT 9999 BKN010 BKN015 BKN100 21/20 Q1018=
2006062111 - SBKG 211100Z 15006KT 5000 -RA BR BKN010 BKN015 BKN100 21/20 Q1019=
2006062112 - SBKG 211200Z 16008KT 5000 -RA BR BKN010 BKN015 BKN100 22/21 Q1019=
2006062113 - SBKG 211300Z 16010KT 2000 -RA BR SCT006 BKN010 OVC100 22/21 Q1019=
2006062114 - SBKG 211400Z 15010KT 2000 -RA BR SCT006 BKN010 OVC100 22/21 Q1019=
2006062115 - SBKG 211500Z 15006KT 5000 BR SCT006 BKN010 BKN100 23/21 Q1018=
2006062116 - SBKG 211600Z 14008KT 9999 SCT010 BKN016 BKN100 23/22 Q1018=
2006062117 - SBKG 211700Z 13008KT 3000 -RADZ SCT006 BKN010 BKN016 23/22 Q101 7=
2006062118 - SBKG 211800Z 14008KT 8000 VCSH BKN012 BKN018 BKN070 22/22 Q1017=
2006062119 - SBKG 211900Z 13006KT 3000 -RADZ SCT006 BKN010 BKN015 21/21 Q1017=
2006062120 - SBKG 212000Z 14008KT 2000 -RADZ SCT006 BKN010 BKN015 21/21 Q1017=
2006062121 - SBKG 212100Z 14012KT 2000 RA SCT006 BKN010 OVC070 21/21 Q1018=
2006062122 - SBKG 212200Z 15002KT 4000 -RA SCT005 BKN010 OVC070 21/21 Q1018=
2006062123 - Mensagem METAR de 'SBKG' para 21/06/2006 as 23(UTC) não localizada na base de dados da REDEMET
2006062200 - Mensagem METAR de 'SBKG' para 22/06/2006 as 00(UTC) não localizada na base de dados da REDEMET
2006062201 - Mensagem METAR de 'SBKG' para 22/06/2006 as 01(UTC) não localizada na base de dados da REDEMET
2006062202 - Mensagem METAR de 'SBKG' para 22/06/2006 as 02(UTC) não localizada na base de dados da REDEMET
2006062203 - SBKG 220318Z 15008KT 9999 SCT006 BKN010 21/20 Q1019=
2006062204 - SBKG 220400Z 16006KT 9999 SCT006 BKN010 21/20 Q1018=
2006062205 - SBKG 220500Z 15008KT 9999 BKN010 20/19 Q1018=
2006062206 - SBKG 220600Z 15006KT 9999 SCT010 20/19 Q1017=
2006062207 - SBKG 220700Z 15006KT 9999 FEW006 SCT010 20/20 Q1017=
2006062208 - SBKG 220800Z 16010KT 9999 FEW006 SCT010 BKN015 20/19 Q1017=
2006062209 - SBKG 220900Z 15010KT 9999 SCT010 BKN015 20/19 Q1017=
2006062210 - SBKG 221000Z 18008KT 9999 SCT020 BKN300 22/19 Q1018=
2006062211 - SBKG 221100Z 19010KT 6000 VCSH SCT017 BKN020 BKN090 22/20 Q1019=
2006062212 - SBKG 221200Z 17010KT 4000 -RA SCT010 BKN015 BKN090 21/20 Q1020=
2006062212 - SBKG 221243Z 16008KT 6000 BKN017 BKN090 22/20 Q1020=
2006062213 - SBKG 221300Z 16010KT 9999 BKN020 BKN097 23/20 Q1019=
2006062214 - SBKG 221400Z 17010KT 9999 BKN020 BKN100 23/21 Q1019=
2006062215 - SBKG 221500Z 14008KT 9999 BKN020 BKN100 24/20 Q1018=
2006062216 - SBKG 221600Z 13010KT 8000 VCSH SCT020 BKN100 23/21 Q1017=
2006062217 - SBKG 221700Z 14012KT 9999 BKN026 25/21 Q1016=
2006062218 - SBKG 221800Z 13008KT 9999 BKN030 26/20 Q1016=
2006062219 - SBKG 221900Z 13010KT 9999 SCT032 25/19 Q1016=
2006062220 - SBKG 222000Z 14006KT CAVOK 24/19 Q1017=
2006062221 - SBKG 222100Z 14008KT 9999 FEW018 BKN100 23/19 Q1017=
2006062222 - SBKG 222200Z 13006KT 9999 SCT016 SCT100 22/20 Q1017=
2006062223 - Mensagem METAR de 'SBKG' para 22/06/2006 as 23(UTC) não localizada na base de dados da REDEMET
2006062300 - Mensagem METAR de 'SBKG' para 23/06/2006 as 00(UTC) não localizada na base de dados da REDEMET
2006062301 - Mensagem METAR de 'SBKG' para 23/06/2006 as 01(UTC) não localizada na base de dados da REDEMET
2006062302 - Mensagem METAR de 'SBKG' para 23/06/2006 as 02(UTC) não localizada na base de dados da REDEMET
2006062303 - SBKG 230315Z 17004KT 9999 SCT017 BKN100 21/19 Q1018=
2006062304 - SBKG 230400Z 18008KT 9999 FEW017 SCT100 20/19 Q1017=
2006062305 - SBKG 230500Z 16008KT 9999 FEW017 SCT100 20/19 Q1017=
2006062306 - SBKG 230600Z 17006KT 9999 SCT015 BKN100 19/19 Q1017=
2006062307 - SBKG 230700Z 18006KT 9999 SCT015 BKN100 20/19 Q1017=
2006062308 - SBKG 230800Z 17004KT 9999 SCT015 BKN100 20/19 Q1017=
2006062309 - SBKG 230900Z 14004KT 6000 SCT010 BKN015 BKN100 20/19 Q1017=
2006062310 - SBKG 231000Z 15006KT 9999 FEW010 SCT015 20/19 Q1018=
2006062311 - SBKG 231100Z 13006KT 9999 FEW010 BKN015 22/20 Q1019=
2006062312 - SBKG 231200Z 15010KT 9999 BKN020 23/20 Q1019=
2006062313 - SBKG 231300Z 15010KT 9999 BKN020 23/20 Q1019=
2006062314 - SBKG 231400Z 16010KT 9999 BKN020 23/20 Q1018=
2006062315 - SBKG 231500Z 15008KT 9999 BKN020 25/19 Q1017=
2006062316 - SBKG 231600Z 12010KT 9999 BKN023 25/19 Q1016=
2006062317 - SBKG 231700Z 13008KT 9999 7000E -RA BKN023 24/21 Q1016=
2006062318 - SBKG 231800Z 12006KT 9999 FEW020 BKN100 23/22 Q1016=
2006062319 - SBKG 231900Z 12006KT 9999 BKN020 SCT100 23/20 Q1016=
2006062320 - SBKG 232000Z 12006KT 9999 FEW018 22/20 Q1016=
2006062321 - SBKG 232100Z 12004KT 9999 SCT020 21/21 Q1016=
2006062322 - SBKG 232200Z 12004KT 9999 BKN018 21/20 Q1017=
2006062323 - Mensagem METAR de 'SBKG' para 23/06/2006 as 23(UTC) não localizada na base de dados da REDEMET
2006062400 - Mensagem METAR de 'SBKG' para 24/06/2006 as 00(UTC) não localizada na base de dados da REDEMET
2006062401 - Mensagem METAR de 'SBKG' para 24/06/2006 as 01(UTC) não localizada na base de dados da REDEMET
2006062402 - Mensagem METAR de 'SBKG' para 24/06/2006 as 02(UTC) não localizada na base de dados da REDEMET
2006062403 - SBKG 240315Z 07004KT CAVOK 20/19 Q1018=
2006062404 - SBKG 240400Z 00000KT CAVOK 19/18 Q1017=
2006062405 - SBKG 240500Z 00000KT CAVOK 19/18 Q1017=
2006062406 - SBKG 240600Z 15002KT 9999 SCT015 19/18 Q1016=
2006062407 - SBKG 240700Z 18004KT 9999 SCT015 19/18 Q1016=
2006062408 - SBKG 240800Z 16004KT 9999 SCT015 20/19 Q1016=
2006062409 - SBKG 240900Z 18002KT 9999 SCT015 BKN017 20/19 Q1017=
2006062410 - SBKG 241000Z 14002KT 6000 SCT016 SCT100 20/20 Q1017=
2006062411 - SBKG 241100Z 12004KT 9999 SCT018 SCT100 22/20 Q1018=
2006062412 - SBKG 241200Z 13012KT 9999 BKN018 24/20 Q1018=
2006062413 - SBKG 241300Z 13008KT 9999 BKN020 25/20 Q1018=
2006062413 - SBKG 241325Z 14008KT 3000 -RA SCT012 BKN015 BKN080 24/21 Q1018=
2006062414 - SBKG 241400Z 13006KT 8000 VCSH SCT012 SCT018 BKN080 24/22 Q1018=
2006062415 - SBKG 241500Z 14010KT 9999 SCT015 BKN018 BKN080 23/21 Q1017=
2006062416 - SBKG 241600Z 13008KT 9999 BKN018 BKN080 24/21 Q1016=
2006062417 - SBKG 241700Z 13010KT 4000 -RA BKN015 BKN018 BKN080 24/21 Q1016=
2006062417 - SBKG 241720Z 13012KT 3000 RADZ BKN007 BKN012 BKN080 22/20 Q1016=
2006062418 - SBKG 241800Z 13009KT 6000 RA BKN006 BKN012 BKN080 22/21 Q1016 RERA=
2006062419 - SBKG 241900Z 13008KT 9999 5000E RA SCT007 BKN016 BKN080 22/21 Q1016=
2006062420 - SBKG 242000Z 14004KT 7000 BKN011 BKN012 BKN150 22/21 Q1016=
2006062421 - SBKG 242100Z 12008KT 9999 4000E RA SCT010 BKN012 BKN080 21/20 Q1016=
2006062422 - SBKG 242200Z 13006KT 5000 -RA SCT010 BKN012 BKN080 21/20 Q1017=
2006062423 - SBKG 242300Z 12010KT 4500 2000E -RA BR SCT005 BKN010 BKN080 20/20 Q1018=
2006062500 - Mensagem METAR de 'SBKG' para 25/06/2006 as 00(UTC) não localizada na base de dados da REDEMET
2006062501 - Mensagem METAR de 'SBKG' para 25/06/2006 as 01(UTC) não localizada na base de dados da REDEMET
2006062502 - Mensagem METAR de 'SBKG' para 25/06/2006 as 02(UTC) não localizada na base de dados da REDEMET
2006062503 - SBKG 250315Z 15006KT 8000 SCT006 BKN010 OVC070 20/20 Q1019=
2006062503 - SBKG 250325Z 15004KT 9999 SCT012 SCT015 OVC070 20/20 Q1017=
2006062504 - SBKG 250400Z 17006KT 7000 -RA SCT006 BKN012 OVC070 20/20 Q1018=
2006062504 - SBKG 250430Z 18006KT 4000 -RA SCT006 BKN012 OVC070 20/20 Q1018=
2006062505 - SBKG 250500Z 14004KT 4000 -RA SCT006 BKN012 OVC070 20/20 Q1018=
2006062505 - SBKG 250528Z 15004KT 9999 SCT012 SCT015 OVC070 20/20 Q1017=
2006062506 - SBKG 250600Z 15005KT 9000 -RA BKN012 BKN016 OVC070 20/20 Q1017=
2006062506 - SBKG 250630Z 15004KT 3000 -RA SCT006 BKN012 OVC070 20/20 Q1017=
2006062507 - SBKG 250700Z 14008KT 6000 FEW006 BKN012 OVC070 20/20 Q1017=
2006062508 - SBKG 250800Z 14006KT 5000 -RADZ FEW006 BKN012 OVC070 20/20 Q1017=
2006062509 - SBKG 250900Z 13004KT 4000 -RADZ SCT006 BKN012 OVC070 20/20 Q1017=
2006062510 - SBKG 251000Z 14006KT 8000 BKN010 BKN012 OVC080 20/20 Q1018=
2006062511 - SBKG 251100Z 15008KT 9999 SCT015 BKN100 21/20 Q1018=
2006062512 - SBKG 251200Z 15008KT 5000 -RA BKN015 BKN018 BKN100 22/20 Q1019=
2006062513 - SBKG 251300Z 12006KT 8000 BKN015 BKN018 BKN100 22/21 Q1019=
2006062514 - SBKG 251400Z 14006KT 9000 BKN015 BKN100 23/21 Q1019=
2006062515 - SBKG 251500Z 15006KT 9999 SCT010 BKN016 BKN100 23/22 Q1018=
2006062516 - SBKG 251600Z 13006KT 5000 -RA BR SCT010 BKN015 BKN100 22/20 Q1018=
2006062517 - Mensagem METAR de 'SBKG' para 25/06/2006 as 17(UTC) não localizada na base de dados da REDEMET
2006062518 - Mensagem METAR de 'SBKG' para 25/06/2006 as 18(UTC) não localizada na base de dados da REDEMET
2006062519 - Mensagem METAR de 'SBKG' para 25/06/2006 as 19(UTC) não localizada na base de dados da REDEMET
2006062520 - SBKG 252000Z 19002KT 9999 SCT010 BKN015 BKN100 21/20 Q1017=
2006062521 - SBKG 252100Z 18004KT 9999 SCT010 BKN015 21/20 Q1017=
2006062522 - Mensagem METAR de 'SBKG' para 25/06/2006 as 22(UTC) não localizada na base de dados da REDEMET
2006062523 - Mensagem METAR de 'SBKG' para 25/06/2006 as 23(UTC) não localizada na base de dados da REDEMET
2006062500 - Mensagem METAR de 'SBKG' para 25/06/2006 as 00(UTC) não localizada na base de dados da REDEMET
2006062501 - Mensagem METAR de 'SBKG' para 25/06/2006 as 01(UTC) não localizada na base de dados da REDEMET
2006062502 - Mensagem METAR de 'SBKG' para 25/06/2006 as 02(UTC) não localizada na base de dados da REDEMET
2006062503 - SBKG 250315Z 15006KT 8000 SCT006 BKN010 OVC070 20/20 Q1019=
2006062503 - SBKG 250325Z 15004KT 9999 SCT012 SCT015 OVC070 20/20 Q1017=
2006062504 - SBKG 250400Z 17006KT 7000 -RA SCT006 BKN012 OVC070 20/20 Q1018=
2006062504 - SBKG 250430Z 18006KT 4000 -RA SCT006 BKN012 OVC070 20/20 Q1018=
2006062505 - SBKG 250500Z 14004KT 4000 -RA SCT006 BKN012 OVC070 20/20 Q1018=
2006062505 - SBKG 250528Z 15004KT 9999 SCT012 SCT015 OVC070 20/20 Q1017=
2006062506 - SBKG 250600Z 15005KT 9000 -RA BKN012 BKN016 OVC070 20/20 Q1017=
2006062506 - SBKG 250630Z 15004KT 3000 -RA SCT006 BKN012 OVC070 20/20 Q1017=
2006062507 - SBKG 250700Z 14008KT 6000 FEW006 BKN012 OVC070 20/20 Q1017=
2006062508 - SBKG 250800Z 14006KT 5000 -RADZ FEW006 BKN012 OVC070 20/20 Q1017=
2006062509 - SBKG 250900Z 13004KT 4000 -RADZ SCT006 BKN012 OVC070 20/20 Q1017=
2006062510 - SBKG 251000Z 14006KT 8000 BKN010 BKN012 OVC080 20/20 Q1018=
2006062511 - SBKG 251100Z 15008KT 9999 SCT015 BKN100 21/20 Q1018=
2006062512 - SBKG 251200Z 15008KT 5000 -RA BKN015 BKN018 BKN100 22/20 Q1019=
2006062513 - SBKG 251300Z 12006KT 8000 BKN015 BKN018 BKN100 22/21 Q1019=
2006062514 - SBKG 251400Z 14006KT 9000 BKN015 BKN100 23/21 Q1019=
2006062515 - SBKG 251500Z 15006KT 9999 SCT010 BKN016 BKN100 23/22 Q1018=
2006062516 - SBKG 251600Z 13006KT 5000 -RA BR SCT010 BKN015 BKN100 22/20 Q1018=
2006062517 - Mensagem METAR de 'SBKG' para 25/06/2006 as 17(UTC) não localizada na base de dados da REDEMET
2006062518 - Mensagem METAR de 'SBKG' para 25/06/2006 as 18(UTC) não localizada na base de dados da REDEMET
2006062519 - Mensagem METAR de 'SBKG' para 25/06/2006 as 19(UTC) não localizada na base de dados da REDEMET
2006062520 - SBKG 252000Z 19002KT 9999 SCT010 BKN015 BKN100 21/20 Q1017=
2006062521 - SBKG 252100Z 18004KT 9999 SCT010 BKN015 21/20 Q1017=
2006062522 - Mensagem METAR de 'SBKG' para 25/06/2006 as 22(UTC) não localizada na base de dados da REDEMET
2006062523 - Mensagem METAR de 'SBKG' para 25/06/2006 as 23(UTC) não localizada na base de dados da REDEMET
2006062600 - Mensagem METAR de 'SBKG' para 26/06/2006 as 00(UTC) não localizada na base de dados da REDEMET
2006062701 - Mensagem METAR de 'SBKG' para 27/06/2006 as 01(UTC) não localizada na base de dados da REDEMET
2006062702 - SBKG 270218Z 10004KT 9999 BKN006 BKN015 21/20 Q1019=
2006062703 - SBKG 270315Z 10004KT 9999 BKN010 21/20 Q1019=
2006062704 - SBKG 270400Z 15002KT 9999 BKN010 21/20 Q1018=
2006062705 - SBKG 270500Z 18002KT 9999 BKN010 20/19 Q1018=
2006062706 - SBKG 270600Z 20004KT 9999 BKN015 20/19 Q1018=
2006062707 - SBKG 270700Z 26002KT 6000 BKN015 20/19 Q1018=
2006062708 - SBKG 270800Z 27004KT 6000 SCT015 21/19 Q1018=
2006062709 - SBKG 270900Z 25004KT 5000 BR BKN015 BKN09O 21/20 Q1019=
2006062710 - SBKG 271000Z 22002KT 5000 BR BKN015 BKN097 21/20 Q1020=
2006062711 - SBKG 271100Z 16002KT 9999 SCT015 SCT018 BKN100 22/21 Q1020=
2006062712 - SBKG 271200Z 15006KT 9999 SCT015 SCT018 BKN100 24/21 Q1021=
2006062713 - SBKG 271300Z 12008KT 9999 FEW015 SCT020 BKN100 24/20 Q1021=
2006062714 - SBKG 271400Z 13006KT 9999 FEW015 SCT020 BKN100 25/21 Q1020=
2006062715 - SBKG 271500Z 11008KT 4000 RA BR SCT014 BKN016 BKN080 24/21 Q1020=
2006062716 - SBKG 271600Z 12008KT 8000 VCSH SCT018 BKN100 BKN300 25/22 Q1019=
2006062717 - SBKG 271700Z 09008KT 8000 VCSH FEW020 SCT100 BKN300 25/21 Q1018=
2006062718 - SBKG 271800Z 12008KT 9999 SCT016 SCT100 BKN300 24/21 Q1018=
2006062719 - SBKG 271900Z 12008KT 9999 FEW015 SCT100 BKN300 23/22 Q1018=
2006062720 - SBKG 272000Z 13003KT 9999 FEW014 BKN100 22/21 Q1018=
2006062721 - SBKG 272100Z 12006KT 9999 SCT018 BKN090 22/21 Q1019=
2006062722 - SBKG 272200Z 10004KT 5000 RA SCT006 SCT010 BKN090 22/21 Q1019=
2006062723 - Mensagem METAR de 'SBKG' para 27/06/2006 as 23(UTC) não localizada na base de dados da REDEMET
2006062800 - Mensagem METAR de 'SBKG' para 28/06/2006 as 00(UTC) não localizada na base de dados da REDEMET
2006062801 - Mensagem METAR de 'SBKG' para 28/06/2006 as 01(UTC) não localizada na base de dados da REDEMET
2006062802 - Mensagem METAR de 'SBKG' para 28/06/2006 as 02(UTC) não localizada na base de dados da REDEMET
2006062803 - SBKG 280317Z 12002KT 8000 BKN005 BKN010 21/21 Q1020=
2006062804 - SBKG 280400Z 13004KT 8000 BKN005 BKN010 21/21 Q1020=
2006062805 - SBKG 280500Z 13004KT 8000 SCT005 BKN010 21/21 Q1019=
2006062806 - SBKG 280600Z 16002KT 8000 FEW006 BKN010 21/20 Q1019=
2006062807 - SBKG 280700Z 00000KT 9999 BKN010 21/20 Q1019=
2006062808 - SBKG 280800Z 19002KT 9999 BKN010 21/20 Q1019=
2006062809 - SBKG 280900Z 18004KT 9999 SCT010 SCT300 21/20 Q1019=
2006062810 - SBKG 281000Z 18006KT 9999 SCT015 BKN017 BKN300 22/20 Q1020=
2006062811 - SBKG 281100Z 20006KT 9999 SCT015 BKN017 BKN300 22/21 Q1021=
2006062812 - SBKG 281200Z 16006KT 9999 SCT015 BKN020 BKN300 23/21 Q1021=
2006062813 - SBKG 281300Z 17006KT 9999 BKN023 BKN300 24/21 Q1021=
2006062814 - SBKG 281400Z 16010KT 9999 SCT023 26/20 Q1020=
2006062815 - SBKG 281500Z 13010KT 9999 BKN023 26/20 Q1020=
2006062816 - SBKG 281600Z 14010KT 9999 BKN025 27/20 Q1019=
2006062817 - SBKG 281700Z 12010KT 5000 RA BKN025 FEW028TCU 27/21 Q1018=
2006062818 - SBKG 281800Z 14008KT 6000 -RA BKN022 FEW025TCU 25/21 Q1018=
2006062819 - SBKG 281900Z 17006KT 8000 -RA SCT022 BKN080 23/22 Q1019=
2006062820 - SBKG 282000Z 15006KT CAVOK 23/21 Q1019=
2006062821 - SBKG 282100Z 16003KT CAVOK 22/21 Q1019=
2006062822 - SBKG 282200Z 16004KT CAVOK 21/19 Q1020=
2006062823 - Mensagem METAR de 'SBKG' para 28/06/2006 as 23(UTC) não localizada na base de dados da REDEMET
2006062900 - Mensagem METAR de 'SBKG' para 29/06/2006 as 00(UTC) não localizada na base de dados da REDEMET
2006062901 - Mensagem METAR de 'SBKG' para 29/06/2006 as 01(UTC) não localizada na base de dados da REDEMET
2006062902 - Mensagem METAR de 'SBKG' para 29/06/2006 as 02(UTC) não localizada na base de dados da REDEMET
2006062903 - SBKG 290315Z 14004KT 9999 SCT015 21/19 Q1021=
2006062904 - SBKG 290400Z 14004KT 9999 SCT015 21/19 Q1021=
2006062905 - SBKG 290500Z 19006KT 9999 SCT015 20/20 Q1020=
2006062906 - SBKG 290600Z 16006KT 9999 SCT015 20/19 Q1020=
2006062907 - SBKG 290700Z 18004KT 9999 SCT015 20/19 Q1019=
2006062908 - SBKG 290800Z 19004KT 9999 SCT015 20/19 Q1020=
2006062908 - SBKG 290834Z 18006KT 3000 -RA SCT006 BKN010 20/19 Q1020=
2006062909 - SBKG 290900Z 16008KT 6000 -RA SCT015 BKN017 20/19 Q1020=
2006062910 - SBKG 291000Z 15008KT 9999 FEW015 BKN100 20/20 Q1020=
2006062911 - SBKG 291100Z 14012KT 9999 SCT016 SCT100 22/20 Q1021=
2006062912 - SBKG 291200Z 15010KT 9999 SCT020 24/19 Q1021=
2006062913 - SBKG 291300Z 15010KT 9999 SCT026 25/20 Q1021=
2006062914 - SBKG 291400Z 17010KT 9999 SCT030 26/19 Q1020=
2006062915 - SBKG 291500Z 15012KT 9999 SCT032 27/19 Q1019=
2006062916 - SBKG 291600Z 13012KT 9999 SCT040 27/18 Q1018=
2006062917 - SBKG 291700Z 15011KT 9999 SCT040 27/18 Q1018=
2006062918 - SBKG 291800Z 16012KT 9999 SCT040 27/17 Q1018=
2006062919 - SBKG 291900Z 14012KT CAVOK 27/17 Q1018=
2006062920 - SBKG 292000Z 14007KT CAVOK 25/17 Q1018=
2006062921 - SBKG 292100Z 13004KT CAVOK 23/18 Q1019=
2006062922 - SBKG 292200Z 13004KT CAVOK 23/18 Q1019=
2006062923 - SBKG 292300Z 13006KT CAVOK 21/18 Q1020=
2006063000 - SBKG 300000Z 14006KT CAVOK 20/19 Q1020=
2006063001 - SBKG 300100Z 17006KT CAVOK 20/19 Q1020=
2006063002 - SBKG 300200Z 17004KT CAVOK 19/19 Q1020=
2006063003 - SBKG 300300Z 18004KT CAVOK 19/18 Q1020=
2006063004 - SBKG 300400Z 19004KT CAVOK 19/18 Q1020=
2006063005 - SBKG 300500Z 00000KT 9999 SCT016 18/18 Q1019=
2006063006 - SBKG 300600Z 18002KT 9999 SCT016 19/18 Q1019=
2006063007 - SBKG 300700Z 19006KT 9999 BKN018 19/18 Q1019=
2006063008 - SBKG 300800Z 19004KT 5000 -RADZ FEW012 SCT015 BKN018 19/19 Q1019=
2006063009 - SBKG 300900Z 16004KT 8000 SCT015 SCT018 19/19 Q1019=
2006063010 - SBKG 301000Z 16005KT 9999 SCT012 20/20 Q1020=
2006063011 - SBKG 301100Z 16009KT 9000 VCSH FEW012 BKN018 22/20 Q1020=
2006063012 - SBKG 301200Z 16008KT 9000 VCSH SCT012 BKN018 23/20 Q1021=
2006063013 - SBKG 301300Z 12008KT 9999 SCT020 24/20 Q1021=
2006063014 - SBKG 301400Z 12010KT 9999 BKN025 26/21 Q1020=
2006063015 - SBKG 301500Z 16011KT 9999 BKN030 27/19 Q1019=
2006063016 - SBKG 301600Z 12014KT 9999 BKN030 27/19 Q1019=
2006063017 - SBKG 301700Z 13010KT 9999 BKN030 27/19 Q1018=
2006063018 - SBKG 301800Z 13010KT 9999 SCT025 27/19 Q1018=
2006063019 - SBKG 301900Z 12008KT 9999 SCT025 25/20 Q1018=
2006063020 - SBKG 302000Z 12008KT 9999 SCT020 SCT025 24/20 Q1018=
2006063021 - SBKG 302100Z 13008KT 9999 SCT015 24/20 Q1019=
2006063022 - SBKG 302200Z 13010KT 9999 FEW015 22/19 Q1020=
2006063023 - Mensagem METAR de 'SBKG' para 30/06/2006 as 23(UTC) não localizada na base de dados da REDEMET