2013060100 - Mensagem METAR de 'SBKG' para 01/06/2013 as 00(UTC) não localizada na base de dados da REDEMET
2013060101 - Mensagem METAR de 'SBKG' para 01/06/2013 as 01(UTC) não localizada na base de dados da REDEMET
2013060102 - Mensagem METAR de 'SBKG' para 01/06/2013 as 02(UTC) não localizada na base de dados da REDEMET
2013060103 - METAR SBKG 010300Z 10005KT CAVOK 19/19 Q1018=
2013060104 - METAR SBKG 010400Z 14002KT 9999 FEW018 19/19 Q1017=
2013060105 - METAR SBKG 010500Z 16003KT CAVOK 19/19 Q1017=
2013060106 - METAR SBKG 010600Z 18004KT 9999 FEW016 19/19 Q1016=
2013060107 - METAR SBKG 010700Z 16006KT 9999 FEW013 20/20 Q1016=
2013060108 - METAR SBKG 010800Z 19004KT CAVOK 19/19 Q1017=
2013060109 - METAR SBKG 010900Z 15002KT 9999 FEW025 19/19 Q1017=
2013060110 - METAR SBKG 011000Z 16005KT 9999 SCT020 22/20 Q1017=
2013060111 - METAR SBKG 011100Z 15008KT 9999 FEW020 23/20 Q1017=
2013060112 - METAR SBKG 011200Z 15009KT 9999 SCT020 26/18 Q1017=
2013060113 - METAR SBKG 011300Z 17008KT 9999 FEW025 27/18 Q1017=
2013060114 - METAR SBKG 011400Z 16012KT CAVOK 28/16 Q1016=
2013060115 - METAR SBKG 011500Z 15011KT 9999 FEW030 30/16 Q1015=
2013060116 - METAR SBKG 011600Z 15011KT 9999 SCT040 30/17 Q1014=
2013060117 - METAR SBKG 011700Z 12012KT 9999 BKN040 30/18 Q1013=
2013060118 - METAR SBKG 011800Z 14013KT 9999 SCT040 28/18 Q1013=
2013060119 - METAR SBKG 011900Z 12009KT 9999 BKN040 27/19 Q1014=
2013060120 - METAR SBKG 012000Z 11007KT 9999 BKN040 25/19 Q1014=
2013060121 - METAR SBKG 012100Z 12008KT 9999 BKN025 24/20 Q1015=
2013060122 - Mensagem METAR de 'SBKG' para 01/06/2013 as 22(UTC) não localizada na base de dados da REDEMET
2013060123 - Mensagem METAR de 'SBKG' para 01/06/2013 as 23(UTC) não localizada na base de dados da REDEMET
2013060200 - Mensagem METAR de 'SBKG' para 02/06/2013 as 00(UTC) não localizada na base de dados da REDEMET
2013060201 - Mensagem METAR de 'SBKG' para 02/06/2013 as 01(UTC) não localizada na base de dados da REDEMET
2013060202 - Mensagem METAR de 'SBKG' para 02/06/2013 as 02(UTC) não localizada na base de dados da REDEMET
2013060203 - METAR SBKG 020300Z 18007KT 9999 SCT015 BKN018 23/18 Q1016=
2013060204 - METAR SBKG 020400Z 19007KT 9999 SCT015 BKN018 22/18 Q1016=
2013060205 - METAR SBKG 020500Z 16007KT 9000 -RA BKN015 BKN018 21/19 Q1015=
2013060206 - METAR COR SBKG 020600Z 17002KT 9999 SCT015 BKN018 20/19 Q1015=
2013060207 - METAR SBKG 020700Z 22006KT 9999 SCT015 19/19 Q1015=
2013060208 - METAR SBKG 020800Z 23006KT 9999 SCT015 19/19 Q1016=
2013060209 - METAR SBKG 020900Z 25003KT 9999 BKN015 BKN018 20/19 Q1016=
2013060209 - SPECI SBKG 020920Z 23003KT 2000 -RA SCT007 BKN015 20/19 Q1016=
2013060210 - METAR SBKG 021000Z 23004KT 9999 VCSH SCT006 BKN013 20/20 Q1016=
2013060211 - METAR SBKG 021100Z 21003KT 1500 -RA SCT005 BKN010 OVC070 20/20 Q1017=
2013060212 - METAR SBKG 021200Z 20004KT 4000 -RA SCT005 BKN010 21/21 Q1017=
2013060213 - METAR SBKG 021300Z 21004KT 7000 -RA BKN010 OVC070 23/22 Q1017=
2013060214 - METAR SBKG 021400Z 19004KT 9999 SCT013 BKN020 26/22 Q1017=
2013060215 - METAR SBKG 021500Z 15005KT 9999 BKN020 SCT070 27/20 Q1016=
2013060216 - METAR SBKG 021600Z 15005KT 9999 BKN025 29/20 Q1015=
2013060217 - METAR COR SBKG 021700Z 19004KT 9999 BKN025 28/19 Q1014=
2013060217 - SPECI SBKG 021745Z 11012KT 3000 -RA SCT015 BKN018 24/20 Q1014=
2013060218 - METAR SBKG 021800Z 12010KT 3000 -RA SCT015 BKN018 23/22 Q1014=
2013060219 - METAR SBKG 021900Z 16004KT 4000 -RA SCT015 BKN018 22/22 Q1015=
2013060219 - SPECI SBKG 021930Z 13004KT 5000 BR SCT015 BKN018 22/22 Q1015=
2013060220 - METAR SBKG 022000Z 17003KT 9999 BKN018 BKN090 22/22 Q1016=
2013060221 - METAR SBKG 022100Z 17003KT 9999 SCT018 BKN090 22/21 Q1017=
2013060222 - Mensagem METAR de 'SBKG' para 02/06/2013 as 22(UTC) não localizada na base de dados da REDEMET
2013060223 - Mensagem METAR de 'SBKG' para 02/06/2013 as 23(UTC) não localizada na base de dados da REDEMET
2013060300 - Mensagem METAR de 'SBKG' para 03/06/2013 as 00(UTC) não localizada na base de dados da REDEMET
2013060301 - Mensagem METAR de 'SBKG' para 03/06/2013 as 01(UTC) não localizada na base de dados da REDEMET
2013060302 - Mensagem METAR de 'SBKG' para 03/06/2013 as 02(UTC) não localizada na base de dados da REDEMET
2013060303 - METAR SBKG 030300Z 00000KT 9999 FEW012 20/20 Q1017=
2013060304 - METAR SBKG 030400Z 16003KT CAVOK 21/21 Q1016=
2013060305 - METAR SBKG 030500Z 00000KT CAVOK 20/20 Q1016=
2013060306 - METAR SBKG 030600Z 00000KT CAVOK 20/20 Q1016=
2013060307 - METAR COR SBKG 030700Z 00000KT CAVOK 20/20 Q1016=
2013060308 - METAR SBKG 030800Z 00000KT CAVOK 20/20 Q1016=
2013060309 - METAR SBKG 030900Z 00000KT CAVOK 20/20 Q1017=
2013060310 - METAR SBKG 031000Z 20001KT CAVOK 25/24 Q1017=
2013060311 - METAR SBKG 031100Z 11003KT 9999 SCT014 27/23 Q1018=
2013060312 - METAR SBKG 031200Z 12005KT 9999 SCT020 28/20 Q1014=
2013060313 - METAR SBKG 031300Z 11006KT 9999 BKN020 SCT100 28/20 Q1018=
2013060314 - METAR SBKG 031400Z 12007KT 9999 SCT020 29/20 Q1018=
2013060315 - METAR SBKG 031500Z 10008KT 9999 SCT020 30/19 Q1017=
2013060316 - METAR SBKG 031600Z 09008KT 9999 SCT030 30/19 Q1016=
2013060317 - METAR SBKG 031700Z 09009KT 9999 SCT030 30/20 Q1015=
2013060318 - METAR SBKG 031800Z 10007KT 9999 SCT040 29/19 Q1015=
2013060319 - METAR SBKG 031900Z 09007KT 9999 FEW040 29/18 Q1015=
2013060320 - METAR SBKG 032000Z 09007KT 9999 FEW040 27/19 Q1016=
2013060321 - METAR SBKG 032100Z 08007KT 9999 FEW030 24/21 Q1016=
2013060322 - Mensagem METAR de 'SBKG' para 03/06/2013 as 22(UTC) não localizada na base de dados da REDEMET
2013060323 - Mensagem METAR de 'SBKG' para 03/06/2013 as 23(UTC) não localizada na base de dados da REDEMET
2013060400 - Mensagem METAR de 'SBKG' para 04/06/2013 as 00(UTC) não localizada na base de dados da REDEMET
2013060401 - Mensagem METAR de 'SBKG' para 04/06/2013 as 01(UTC) não localizada na base de dados da REDEMET
2013060402 - Mensagem METAR de 'SBKG' para 04/06/2013 as 02(UTC) não localizada na base de dados da REDEMET
2013060403 - METAR SBKG 040300Z 11006KT 3500 BR BKN003 BKN070 21/21 Q1017=
2013060404 - METAR SBKG 040400Z 11004KT 0300 FG VV002 21/21 Q1017=
2013060405 - METAR SBKG 040500Z 12004KT 0200 FG VV002 21/21 Q1016=
2013060405 - SPECI SBKG 040530Z 15005KT 1500 BR SCT002 BKN006 21/21 Q1016=
2013060406 - METAR SBKG 040600Z 11003KT 1500 BR BKN002 BKN020 21/21 Q1016=
2013060406 - SPECI SBKG 040640Z 13002KT 4500 1500N BCFG BR BKN010 21/21 Q1016=
2013060406 - SPECI SBKG 040615Z 12002KT 0200 FG VV002 21/21 Q1016=
2013060407 - METAR SBKG 040700Z 16001KT 9999 BKN010 20/20 Q1016=
2013060407 - SPECI SBKG 040725Z 00000KT CAVOK 20/20 Q1017=
2013060408 - METAR SBKG 040800Z 00000KT 9999 FEW019 20/20 Q1017=
2013060409 - METAR SBKG 040900Z 26002KT 9999 SCT010 SCT080 21/21 Q1017=
2013060410 - METAR SBKG 041000Z 00000KT 6000 BKN020 21/21 Q1018=
2013060411 - METAR SBKG 041100Z 15005KT 9999 BKN025 23/22 Q1014=
2013060412 - METAR SBKG 041200Z 13005KT 9999 SCT030 26/20 Q1018=
2013060413 - METAR SBKG 041300Z 14007KT 9999 SCT030 27/20 Q1018=
2013060414 - METAR SBKG 041400Z 07006KT 9999 SCT040 30/20 Q1017=
2013060415 - METAR SBKG 041500Z 09007KT 9999 SCT040 30/19 Q1017=
2013060416 - METAR SBKG 041600Z 12006KT 9999 SCT030 FEW040TCU 31/18 Q1016=
2013060417 - METAR SBKG 041700Z 13008KT 9999 SCT025 SCT100 31/20 Q1015=
2013060418 - METAR SBKG 041800Z 12011KT 9999 SCT025 FEW040TCU 26/21 Q1015=
2013060419 - METAR SBKG 041900Z 10008KT 9999 FEW030 SCT040 25/21 Q1015=
2013060420 - METAR SBKG 042000Z 09009KT 9999 SCT018 FEW030TCU 24/21 Q1016=
2013060421 - METAR SBKG 042100Z 10006KT 9999 FEW010 SCT020 22/21 Q1016=
2013060421 - SPECI SBKG 042135Z 11006KT 9999 SCT014 BKN020 22/21 Q1017=
2013060422 - Mensagem METAR de 'SBKG' para 04/06/2013 as 22(UTC) não localizada na base de dados da REDEMET
2013060423 - Mensagem METAR de 'SBKG' para 04/06/2013 as 23(UTC) não localizada na base de dados da REDEMET
2013060500 - Mensagem METAR de 'SBKG' para 05/06/2013 as 00(UTC) não localizada na base de dados da REDEMET
2013060501 - Mensagem METAR de 'SBKG' para 05/06/2013 as 01(UTC) não localizada na base de dados da REDEMET
2013060502 - Mensagem METAR de 'SBKG' para 05/06/2013 as 02(UTC) não localizada na base de dados da REDEMET
2013060503 - METAR SBKG 050300Z 13005KT 3000 BR SCT004 BKN010 21/21 Q1017=
2013060504 - METAR SBKG 050400Z 10003KT 5000 BR BKN010 21/21 Q1017=
2013060505 - METAR SBKG 050500Z 10004KT 5000 BR SCT015 21/21 Q1016=
2013060506 - METAR SBKG 050600Z 09003KT 5000 BR BKN015 21/21 Q1016=
2013060507 - METAR SBKG 050700Z 10004KT 4000 BR SCT007 BKN015 21/21 Q1016=
2013060508 - METAR SBKG 050800Z 10005KT 4000 BR SCT010 BKN015 21/21 Q1016=
2013060509 - METAR SBKG 050900Z 10003KT 5000 BR SCT018 21/21 Q1017=
2013060510 - METAR SBKG 051000Z 11004KT 9999 SCT004 SCT070 23/23 Q1017=
2013060511 - METAR SBKG 051100Z 11006KT 9999 FEW012 BKN018 26/24 Q1018=
2013060512 - METAR SBKG 051200Z 12009KT 9999 SCT017 BKN019 28/21 Q1018=
2013060513 - METAR SBKG 051300Z 14011KT 9999 SCT018 BKN025 27/21 Q1018=
2013060514 - METAR SBKG 051400Z 15012KT 9999 BKN024 SCT070 26/21 Q1017=
2013060515 - METAR SBKG 051500Z 13009KT 9999 SCT019 SCT024 27/21 Q1017=
2013060516 - METAR SBKG 051600Z 11008KT 5000 -RA BKN018 25/21 Q1016=
2013060517 - METAR SBKG 051700Z 10007KT 9999 VCSH FEW018 SCT025TCU 22/22 Q1015=
2013060518 - METAR SBKG 051800Z 09005KT 9999 FEW020 FEW025TCU 26/22 Q1015=
2013060519 - METAR SBKG 051900Z 11007KT 9999 FEW020 26/21 Q1015=
2013060520 - METAR SBKG 052000Z 11006KT 7000 -RA SCT022 24/21 Q1015=
2013060520 - SPECI SBKG 052030Z 13007KT 9999 -RA SCT020 22/22 Q1016 RERA=
2013060520 - SPECI SBKG 052010Z 11008KT 9000 RA SCT025 23/21 Q1015=
2013060521 - METAR SBKG 052100Z 09005KT 9999 FEW020 SCT080 22/22 Q1016=
2013060521 - SPECI SBKG 052130Z 09005KT 9999 FEW010 BKN070 22/22 Q1016=
2013060522 - Mensagem METAR de 'SBKG' para 05/06/2013 as 22(UTC) não localizada na base de dados da REDEMET
2013060523 - Mensagem METAR de 'SBKG' para 05/06/2013 as 23(UTC) não localizada na base de dados da REDEMET
2013060600 - Mensagem METAR de 'SBKG' para 06/06/2013 as 00(UTC) não localizada na base de dados da REDEMET
2013060601 - Mensagem METAR de 'SBKG' para 06/06/2013 as 01(UTC) não localizada na base de dados da REDEMET
2013060602 - Mensagem METAR de 'SBKG' para 06/06/2013 as 02(UTC) não localizada na base de dados da REDEMET
2013060603 - METAR SBKG 060300Z 14003KT 6000 SCT011 BKN015 22/22 Q1017=
2013060604 - METAR SBKG 060400Z 14003KT 9999 BKN015 21/21 Q1017=
2013060605 - METAR SBKG 060500Z 19005KT 9999 SCT011 SCT018 21/21 Q1016=
2013060606 - METAR SBKG 060600Z 19005KT 9999 SCT011 BKN018 21/21 Q1016=
2013060607 - METAR SBKG 060700Z 15004KT 6000 SCT011 BKN016 21/21 Q1016=
2013060608 - METAR SBKG 060800Z 18003KT 9999 SCT016 SCT018 21/21 Q1017=
2013060609 - METAR SBKG 060900Z 16002KT 9999 SCT011 SCT016 21/21 Q1017=
2013060610 - METAR SBKG 061000Z 17006KT 9999 SCT011 BKN015 23/22 Q1018=
2013060611 - METAR SBKG 061100Z 16008KT 9999 SCT020 23/21 Q1018=
2013060612 - METAR SBKG 061200Z 13010KT 9999 SCT025 24/20 Q1018=
2013060613 - METAR SBKG 061300Z 12009KT 9999 SCT027 28/20 Q1018=
2013060614 - METAR SBKG 061400Z 12011KT 9999 SCT030 28/17 Q1018=
2013060615 - METAR SBKG 061500Z 14010KT 9999 SCT040 28/18 Q1017=
2013060616 - METAR SBKG 061600Z 14009KT 9999 SCT040 28/18 Q1016=
2013060617 - METAR SBKG 061700Z 11007KT 9999 SCT040 29/18 Q1015=
2013060618 - METAR SBKG 061800Z 10008KT 9999 SCT040 29/18 Q1015=
2013060619 - METAR SBKG 061900Z 11009KT 9999 SCT025 28/19 Q1015=
2013060620 - METAR SBKG 062000Z 10009KT 9999 FEW020 25/19 Q1016=
2013060621 - METAR SBKG 062100Z 10006KT CAVOK 23/20 Q1016=
2013060622 - Mensagem METAR de 'SBKG' para 06/06/2013 as 22(UTC) não localizada na base de dados da REDEMET
2013060623 - Mensagem METAR de 'SBKG' para 06/06/2013 as 23(UTC) não localizada na base de dados da REDEMET
2013060700 - Mensagem METAR de 'SBKG' para 07/06/2013 as 00(UTC) não localizada na base de dados da REDEMET
2013060701 - Mensagem METAR de 'SBKG' para 07/06/2013 as 01(UTC) não localizada na base de dados da REDEMET
2013060702 - Mensagem METAR de 'SBKG' para 07/06/2013 as 02(UTC) não localizada na base de dados da REDEMET
2013060703 - METAR SBKG 070300Z 10002KT CAVOK 19/19 Q1018=
2013060704 - METAR SBKG 070400Z 00000KT CAVOK 19/19 Q1017=
2013060705 - METAR SBKG 070500Z 00000KT CAVOK 18/18 Q1017=
2013060706 - METAR SBKG 070600Z 00000KT CAVOK 19/19 Q1017=
2013060707 - METAR SBKG 070700Z 00000KT CAVOK 19/19 Q1017=
2013060708 - METAR SBKG 070800Z 00000KT CAVOK 19/19 Q1017=
2013060709 - METAR SBKG 070900Z 00000KT 9999 SCT010 19/19 Q1017=
2013060710 - METAR SBKG 071000Z 00000KT 9999 SCT015 22/22 Q1018=
2013060711 - METAR SBKG 071100Z 17003KT 9999 SCT018 25/23 Q1019=
2013060712 - METAR SBKG 071200Z 11007KT 9999 BKN020 25/20 Q1019=
2013060713 - METAR SBKG 071300Z 14007KT 9999 SCT020 26/19 Q1019=
2013060714 - METAR SBKG 071400Z 11006KT 9999 SCT025 28/19 Q1018=
2013060715 - METAR SBKG 071500Z 12008KT 9999 SCT025 29/17 Q1017=
2013060716 - METAR SBKG 071600Z 10011KT 9999 SCT040 29/15 Q1017=
2013060717 - METAR SBKG 071700Z 06007KT 9999 FEW040 29/16 Q1016=
2013060718 - METAR SBKG 071800Z 10009KT 9999 FEW040 29/15 Q1015=
2013060719 - METAR SBKG 071900Z 10007KT CAVOK 28/15 Q1016=
2013060720 - METAR SBKG 072000Z 10005KT CAVOK 26/14 Q1016=
2013060721 - METAR SBKG 072100Z 10004KT CAVOK 22/15 Q1017=
2013060722 - METAR SBKG 072200Z 10004KT CAVOK 22/16 Q1017=
2013060723 - METAR SBKG 072300Z 10006KT CAVOK 21/16 Q1018=
2013060800 - METAR SBKG 080000Z 10005KT CAVOK 21/17 Q1018=
2013060801 - METAR SBKG 080100Z 10004KT 9999 FEW040 22/18 Q1019=
2013060802 - METAR SBKG 080200Z 12003KT 9999 SCT040 21/18 Q1018=
2013060803 - METAR SBKG 080300Z 00000KT 9999 SCT030 21/19 Q1018=
2013060804 - METAR SBKG 080400Z 18004KT 9999 SCT015 BKN030 22/20 Q1017=
2013060805 - METAR SBKG 080500Z 17006KT 4000 -RA BKN014 BKN022 21/20 Q1017=
2013060806 - METAR SBKG 080600Z 17004KT 9999 BKN013 21/21 Q1016=
2013060807 - METAR SBKG 080700Z 19006KT 9999 BKN010 21/21 Q1016=
2013060808 - METAR SBKG 080800Z 17006KT 9999 BKN010 21/21 Q1017=
2013060809 - METAR SBKG 080900Z 17007KT 9999 BKN010 21/21 Q1017=
2013060810 - METAR SBKG 081000Z 15004KT 4000 BR SCT007 BKN010 22/22 Q1018=
2013060811 - METAR SBKG 081100Z 14008KT 6000 SCT015 BKN018 22/21 Q1018=
2013060812 - METAR SBKG 081200Z 16008KT 9999 BKN020 24/21 Q1019=
2013060813 - METAR SBKG 081300Z 10007KT 9999 BKN020 24/22 Q1019=
2013060814 - METAR SBKG 081400Z 19011KT 9999 BKN025 27/19 Q1018=
2013060815 - METAR SBKG 081500Z 14008KT 9999 BKN025 27/20 Q1017=
2013060816 - METAR SBKG 081600Z 14011KT 9999 VCSH BKN031 27/19 Q1016=
2013060817 - METAR SBKG 081700Z 10007KT 9999 SCT012 BKN030 24/22 Q1015=
2013060818 - METAR SBKG 081800Z 15010KT 9999 VCSH SCT015 BKN021 26/20 Q1015=
2013060819 - METAR SBKG 081900Z 12007KT 9999 SCT011 SCT018 BKN100 23/22 Q1016=
2013060820 - METAR SBKG 082000Z 11005KT 9999 FEW015 SCT100 22/21 Q1016=
2013060821 - METAR SBKG 082100Z 13007KT 6000 -RA SCT010 BKN015 22/21 Q1016=
2013060822 - Mensagem METAR de 'SBKG' para 08/06/2013 as 22(UTC) não localizada na base de dados da REDEMET
2013060823 - Mensagem METAR de 'SBKG' para 08/06/2013 as 23(UTC) não localizada na base de dados da REDEMET
2013060823 - SPECI SBKG 082315Z 15006KT 9999 -RA BKN010 BKN015 22/21 Q1017=
2013060900 - METAR SBKG 090000Z 16006KT 8000 -RA BKN010 BKN015 21/21 Q1018=
2013060901 - METAR SBKG 090100Z 14006KT 5000 -RA BR SCT004 BKN010 BKN015 21/21 Q1018=
2013060902 - METAR SBKG 090200Z 17003KT 4000 -RA BR SCT004 BKN010 21/21 Q1018=
2013060903 - METAR SBKG 090300Z 19005KT 3000 -RA BR SCT004 BKN010 21/21 Q1017=
2013060904 - METAR SBKG 090400Z 18005KT 3000 -RA BR SCT004 BKN010 20/20 Q1017=
2013060905 - METAR SBKG 090500Z 21006KT 8000 SCT005 BKN010 20/20 Q1016=
2013060906 - METAR SBKG 090600Z 17005KT 8000 -RA BR BKN010 20/20 Q1016=
2013060907 - METAR SBKG 090700Z 18003KT 9999 BKN010 20/20 Q1016=
2013060908 - METAR SBKG 090800Z 16004KT 9999 BKN015 20/20 Q1016=
2013060909 - METAR SBKG 090900Z 22002KT 9999 BKN015 20/20 Q1016=
2013060910 - METAR SBKG 091000Z 23004KT 5000 BR SCT015 BKN018 21/21 Q1017=
2013060911 - METAR SBKG 091100Z 20006KT 2000 -RA SCT007 BKN010 20/20 Q1018=
2013060912 - METAR SBKG 091200Z 19009KT 2000 -RA SCT007 BKN010 20/20 Q1018=
2013060913 - METAR SBKG 091300Z 15006KT 4000 -RA SCT007 BKN010 21/21 Q1018=
2013060913 - SPECI SBKG 091320Z 18008KT 5000 BR SCT010 BKN015 22/21 Q1018=
2013060914 - METAR SBKG 091400Z 12008KT 9999 SCT015 BKN018 24/21 Q1018=
2013060915 - METAR SBKG 091500Z 10006KT 9999 SCT018 BKN020 27/21 Q1017=
2013060916 - METAR SBKG 091600Z 12007KT 9999 SCT023 27/19 Q1016=
2013060917 - METAR SBKG 091700Z 14013KT 9999 FEW025 27/18 Q1015=
2013060918 - METAR SBKG 091800Z 14011KT 9999 FEW025 27/17 Q1015=
2013060919 - METAR SBKG 091900Z 13007KT 9999 FEW037 27/18 Q1015=
2013060920 - METAR SBKG 092000Z 12006KT 9999 SCT020 BKN050 25/18 Q1015=
2013060921 - METAR SBKG 092100Z 11005KT CAVOK 23/19 Q1016=
2013060922 - METAR SBKG 092200Z 17013KT 5000 -RA BR SCT015 BKN019 OVC080 20/20 Q1017=
2013060923 - METAR SBKG 092300Z 10005KT 8000 SCT018 OVC070 20/20 Q1017=
2013061000 - METAR SBKG 100000Z 11002KT 9999 FEW010 SCT031 20/20 Q1018=
2013061001 - METAR SBKG 100100Z 00000KT 9999 SCT018 19/19 Q1018=
2013061002 - METAR SBKG 100200Z 00000KT 9999 SCT018 19/19 Q1018=
2013061003 - METAR SBKG 100300Z 18004KT 9999 SCT018 19/19 Q1017=
2013061004 - METAR SBKG 100400Z 17004KT 9999 SCT018 19/19 Q1017=
2013061005 - METAR SBKG 100500Z 15003KT 9999 SCT018 19/19 Q1016=
2013061006 - METAR SBKG 100600Z 12003KT 9999 SCT018 19/19 Q1015=
2013061007 - METAR SBKG 100700Z 16003KT 9999 SCT018 19/19 Q1015=
2013061008 - METAR SBKG 100800Z 12002KT 9999 SCT018 19/19 Q1016=
2013061009 - METAR SBKG 100900Z 18002KT 9999 SCT020 19/19 Q1016=
2013061010 - METAR SBKG 101000Z 14004KT 9999 FEW007 BKN016 BKN018 22/21 Q1016=
2013061011 - METAR SBKG 101100Z 15006KT 9999 VCSH SCT009 BKN018 22/20 Q1017=
2013061012 - METAR SBKG 101200Z 12007KT 9999 SCT015 BKN017 25/21 Q1018=
2013061013 - METAR SBKG 101300Z 11010KT 9999 SCT022 27/20 Q1018=
2013061014 - METAR SBKG 101400Z 11012KT 9999 FEW023 28/19 Q1017=
2013061015 - METAR SBKG 101500Z 11011KT 9999 SCT034 28/19 Q1017=
2013061016 - METAR SBKG 101600Z 12011KT 9999 BKN030 28/20 Q1016=
2013061017 - METAR SBKG 101700Z 10012KT 9999 FEW030 28/19 Q1015=
2013061018 - METAR SBKG 101800Z 11011KT 9999 SCT030 28/18 Q1015=
2013061019 - METAR SBKG 101900Z 11010KT 9999 FEW030 24/21 Q1015=
2013061020 - METAR SBKG 102000Z 11007KT 9999 FEW025 25/19 Q1016=
2013061021 - METAR SBKG 102100Z 11007KT CAVOK 23/19 Q1016=
2013061022 - METAR SBKG 102200Z 12005KT CAVOK 21/20 Q1017=
2013061023 - METAR SBKG 102300Z 11007KT CAVOK 21/20 Q1017=
2013061100 - METAR SBKG 110000Z 12006KT CAVOK 21/20 Q1018=
2013061101 - METAR SBKG 110100Z 11003KT 9999 FEW005 SCT009 20/20 Q1018=
2013061102 - METAR SBKG 110200Z 11004KT 9999 FEW010 20/20 Q1018=
2013061103 - METAR SBKG 110300Z 13002KT 9999 FEW013 20/20 Q1018=
2013061104 - METAR SBKG 110400Z 12001KT 9999 SCT011 20/20 Q101=
2013061105 - METAR SBKG 110500Z 11003KT 9999 FEW009 SCT012 20/20 Q1017=
2013061106 - METAR SBKG 110600Z 12003KT 9999 FEW011 20/20 Q1017=
2013061107 - METAR SBKG 110700Z 11004KT 9999 FEW030 20/20 Q1017=
2013061108 - METAR SBKG 110800Z 11004KT 9999 FEW011 19/19 Q1017=
2013061109 - METAR SBKG 110900Z 14003KT 9999 FEW018 20/20 Q1017=
2013061110 - METAR SBKG 111000Z 15004KT 9999 FEW015 22/21 Q1018=
2013061111 - METAR SBKG 111100Z 16007KT 9999 SCT017 SCT070 23/20 Q1018=
2013061112 - METAR SBKG 111200Z 14010KT 9999 SCT020 SCT070 25/19 Q1019=
2013061113 - METAR SBKG 111300Z 14012KT 9999 SCT033 26/18 Q1019=
2013061114 - METAR SBKG 111400Z 13011KT 9999 BKN032 28/19 Q1019=
2013061115 - METAR SBKG 111500Z 16010KT 9999 SCT036 SCT070 28/18 Q1018=
2013061116 - METAR SBKG 111600Z 11009KT 9999 SCT040 SCT070 28/19 Q1017=
2013061117 - METAR SBKG 111700Z 12007KT 9999 SCT040 SCT080 29/19 Q1017=
2013061118 - METAR SBKG 111800Z 08006KT 9999 SCT040 26/20 Q1016=
2013061119 - METAR SBKG 111900Z 09007KT 9999 FEW030 SCT080 25/20 Q1016=
2013061120 - METAR SBKG 112000Z 08006KT CAVOK 25/20 Q1017=
2013061121 - METAR SBKG 112100Z 09005KT CAVOK 24/20 Q1017=
2013061122 - METAR SBKG 112200Z 11005KT CAVOK 23/20 Q1018=
2013061123 - METAR SBKG 112300Z 11006KT CAVOK 22/20 Q1018=
2013061200 - METAR SBKG 120000Z 12005KT 9999 FEW020 BKN100 22/20 Q1019=
2013061201 - METAR SBKG 120100Z 12004KT 9999 SCT012 21/20 Q1019=
2013061202 - METAR SBKG 120200Z 16003KT 9999 -RA FEW012 BKN100 22/21 Q1018=
2013061203 - METAR SBKG 120300Z 15005KT 9999 SCT012 SCT100 22/20 Q1018=
2013061204 - METAR SBKG 120400Z 10003KT 9999 FEW012 BKN070 21/20 Q1018=
2013061205 - METAR SBKG 120500Z 16002KT 9999 FEW013 BKN070 22/20 Q1017=
2013061206 - METAR SBKG 120600Z 18003KT 9999 FEW013 BKN070 22/20 Q1017=
2013061207 - METAR SBKG 120700Z 13002KT 9999 FEW012 SCT030 BKN070 21/19 Q1017=
2013061208 - METAR SBKG 120800Z 21004KT 9999 SCT020 BKN030 BKN070 21/20 Q1015=
2013061209 - METAR SBKG 120900Z 21004KT 9999 SCT017 BKN030 21/20 Q1017=
2013061210 - METAR SBKG 121000Z 19007KT 9999 SCT018 SCT080 23/21 Q1018=
2013061211 - METAR SBKG 121100Z 17007KT 9999 BKN018 SCT070 23/20 Q1018=
2013061212 - METAR SBKG 121200Z 17009KT 9999 VCSH BKN015 23/20 Q1019=
2013061213 - METAR SBKG 121300Z 16009KT 6000 -RA BKN015 24/21 Q1019=
2013061214 - METAR SBKG 121400Z 14010KT 9999 VCSH BKN015 24/22 Q1019=
2013061215 - METAR SBKG 121500Z 13009KT 9999 VCSH BKN015 OVC080 23/22 Q1018=
2013061216 - METAR SBKG 121600Z 14011KT 9999 SCT018 BKN020 BKN090 23/22 Q1017=
2013061217 - METAR SBKG 121700Z 13011KT 5000 -RA SCT010 BKN018 OVC070 23/22 Q1017=
2013061217 - SPECI SBKG 121745Z 12011KT 3000 -RA BR SCT007 BKN010 OVC070 22/22 Q1017=
2013061218 - METAR SBKG 121800Z 11009KT 3000 -RA BR SCT007 BKN010 OVC070 22/22 Q1017=
2013061219 - METAR SBKG 121900Z 10006KT 3000 -RA BR SCT007 BKN010 OVC070 22/22 Q1016=
2013061220 - METAR SBKG 122000Z 10008KT 2000 -RA BR SCT001 BKN007 OVC070 22/22 Q1017=
2013061221 - METAR SBKG 122100Z 10007KT 1000 -RA BR SCT001 BKN007 OVC070 21/21 Q1017=
2013061222 - Mensagem METAR de 'SBKG' para 12/06/2013 as 22(UTC) não localizada na base de dados da REDEMET
2013061223 - Mensagem METAR de 'SBKG' para 12/06/2013 as 23(UTC) não localizada na base de dados da REDEMET
2013061300 - Mensagem METAR de 'SBKG' para 13/06/2013 as 00(UTC) não localizada na base de dados da REDEMET
2013061301 - Mensagem METAR de 'SBKG' para 13/06/2013 as 01(UTC) não localizada na base de dados da REDEMET
2013061302 - Mensagem METAR de 'SBKG' para 13/06/2013 as 02(UTC) não localizada na base de dados da REDEMET
2013061303 - METAR SBKG 130300Z 11006KT 4000 -RA SCT004 BKN007 OVC070 21/21 Q1018=
2013061304 - METAR SBKG 130400Z 13005KT 4000 -RA SCT004 BKN008 OVC080 21/21 Q1017=
2013061305 - METAR SBKG 130500Z 11004KT 9999 4000S VCFG SCT004 BKN008 OVC080 21/21 Q1017=
2013061306 - METAR SBKG 130600Z 13003KT 9999 SCT006 BKN010 OVC080 21/21 Q1017=
2013061307 - METAR SBKG 130700Z 18003KT 9999 FEW004 BKN010 OVC070 21/21 Q1017=
2013061308 - METAR SBKG 130800Z 16004KT 9999 SCT004 BKN010 OVC070 21/21 Q1017=
2013061309 - METAR SBKG 130900Z 14003KT 9999 SCT011 BKN090 21/21 Q1017=
2013061310 - METAR SBKG 131000Z 16003KT 3000 -RA BR SCT007 BKN010 21/21 Q1018=
2013061311 - METAR SBKG 131100Z 10003KT 5000 BR SCT010 BKN015 BKN070 22/22 Q1018=
2013061312 - METAR SBKG 131200Z 12007KT 6000 SCT010 BKN015 OVC070 23/23 Q1018=
2013061313 - METAR SBKG 131300Z 11008KT 4000 -RA BR SCT007 BKN010 OVC070 23/23 Q1018=
2013061314 - METAR SBKG 131400Z 10006KT 6000 SCT015 BKN018 BKN070 24/23 Q1017=
2013061315 - METAR SBKG 131500Z 10008KT 5000 BR SCT010 BKN015 BKN070 23/21 Q1017=
2013061316 - METAR SBKG 131600Z 10009KT 3000 -RADZ BR SCT005 BKN009 BKN016 23/22 Q1016=
2013061317 - METAR SBKG 131700Z 11010KT 7000 3000E VCSH SCT005 BKN009 BKN016 23/23 Q1015=
2013061318 - METAR SBKG 131800Z 12008KT 3000 -RA BR SCT004 BKN008 BKN014 22/22 Q1015=
2013061319 - METAR SBKG 131900Z 13008KT 6000 SCT006 BKN013 22/22 Q1015=
2013061319 - SPECI SBKG 131945Z 10005KT 9999 BKN018 22/22 Q1015=
2013061320 - METAR SBKG 132000Z 10006KT 9999 FEW004 SCT023 FEW025TCU 22/22 Q1015=
2013061321 - METAR SBKG 132100Z 11008KT 5000 -RA SCT005 BKN010 BKN015 21/21 Q1016=
2013061322 - Mensagem METAR de 'SBKG' para 13/06/2013 as 22(UTC) não localizada na base de dados da REDEMET
2013061323 - Mensagem METAR de 'SBKG' para 13/06/2013 as 23(UTC) não localizada na base de dados da REDEMET
2013061400 - Mensagem METAR de 'SBKG' para 14/06/2013 as 00(UTC) não localizada na base de dados da REDEMET
2013061401 - Mensagem METAR de 'SBKG' para 14/06/2013 as 01(UTC) não localizada na base de dados da REDEMET
2013061402 - Mensagem METAR de 'SBKG' para 14/06/2013 as 02(UTC) não localizada na base de dados da REDEMET
2013061403 - METAR SBKG 140300Z 13005KT 2000 -RA BKN003 OVC005 21/21 Q1017=
2013061404 - METAR SBKG 140400Z 12006KT 1500 -RA BR BKN003 OVC005 21/21 Q1016=
2013061405 - METAR SBKG 140500Z 12007KT 2000 BR BKN004 BKN007 21/21 Q1016=
2013061406 - METAR SBKG 140600Z 10004KT 3000 BR BKN005 BKN010 21/21 Q1015=
2013061407 - METAR SBKG 140700Z 10005KT 3000 BR BKN005 BKN010 21/21 Q1015=
2013061408 - METAR SBKG 140800Z 10005KT 3000 -RA BR BKN004 BKN010 21/21 Q1015=
2013061409 - METAR SBKG 140900Z 11005KT 0500 FG BKN004 BKN005 21/21 Q1016=
2013061410 - METAR SBKG 141000Z 11005KT 2000 -RA BR SCT003 BKN007 OVC070 21/21 Q1016=
2013061410 - SPECI SBKG 141025Z 12007KT 4000 BR SCT007 BKN010 OVC070 21/21 Q1016=
2013061411 - METAR SBKG 141100Z 13009KT 3000 -RA BR SCT007 BKN010 OVC070 21/21 Q1017=
2013061412 - METAR SBKG 141200Z 11008KT 5000 BR SCT010 BKN015 OVC070 22/22 Q1017=
2013061413 - METAR SBKG 141300Z 12006KT 9999 BKN020 BKN090 25/24 Q1017=
2013061414 - METAR SBKG 141400Z 17009KT 9999 SCT015 BKN020 BKN070 23/21 Q1017=
2013061415 - METAR SBKG 141500Z 10007KT 9999 BKN020 BKN090 27/21 Q1016=
2013061416 - METAR SBKG 141600Z 13011KT 9999 3000E -RA VCSH SCT016 BKN020 23/22 Q1015=
2013061417 - METAR SBKG 141700Z 12010KT 9999 FEW007 BKN018 24/20 Q1015=
2013061418 - METAR SBKG 141800Z 07004KT 9999 BKN040 SCT050 24/19 Q1014=
2013061419 - METAR SBKG 141900Z 08005KT 9999 BKN040 25/20 Q1014=
2013061420 - METAR SBKG 142000Z 11006KT CAVOK 24/20 Q1015=
2013061421 - METAR SBKG 142100Z 09005KT CAVOK 23/21 Q1015=
2013061422 - Mensagem METAR de 'SBKG' para 14/06/2013 as 22(UTC) não localizada na base de dados da REDEMET
2013061423 - Mensagem METAR de 'SBKG' para 14/06/2013 as 23(UTC) não localizada na base de dados da REDEMET
2013061500 - Mensagem METAR de 'SBKG' para 15/06/2013 as 00(UTC) não localizada na base de dados da REDEMET
2013061501 - Mensagem METAR de 'SBKG' para 15/06/2013 as 01(UTC) não localizada na base de dados da REDEMET
2013061502 - Mensagem METAR de 'SBKG' para 15/06/2013 as 02(UTC) não localizada na base de dados da REDEMET
2013061503 - METAR SBKG 150300Z 13004KT CAVOK 20/20 Q1017=
2013061504 - METAR SBKG 150400Z 08004KT 9999 SCT018 20/20 Q1016=
2013061505 - METAR SBKG 150500Z 14002KT 9999 SCT018 20/20 Q1016=
2013061506 - METAR SBKG 150600Z 12001KT 9999 SCT018 19/19 Q1016=
2013061507 - METAR SBKG 150700Z 15003KT 9999 SCT018 19/19 Q1016=
2013061508 - METAR SBKG 150800Z 14003KT CAVOK 19/19 Q1016=
2013061509 - METAR SBKG 150900Z 23002KT CAVOK 19/19 Q1016=
2013061510 - METAR SBKG 151000Z 17004KT 9999 FEW015 22/20 Q1017=
2013061511 - METAR SBKG 151100Z 18004KT 9999 SCT013 25/22 Q1017=
2013061512 - METAR SBKG 151200Z 19007KT 9999 FEW013 SCT018 25/19 Q1017=
2013061513 - METAR SBKG 151300Z 17007KT 9999 SCT020 26/20 Q1016=
2013061514 - METAR SBKG 151400Z 17005KT CAVOK 28/20 Q1016=
2013061515 - METAR SBKG 151500Z 17006KT 9999 SCT030 29/19 Q1015=
2013061516 - METAR SBKG 151600Z 15006KT 9999 SCT030 29/19 Q1015=
2013061517 - METAR SBKG 151700Z 12004KT 9999 BKN040 29/20 Q1014=
2013061518 - METAR SBKG 151800Z 16007KT 9999 SCT040 29/19 Q1014=
2013061519 - METAR SBKG 151900Z 11007KT 9999 FEW030 29/20 Q1015=
2013061520 - METAR SBKG 152000Z 09005KT 9999 FEW027 26/20 Q1015=
2013061521 - METAR SBKG 152100Z 08005KT CAVOK 24/20 Q1015=
2013061521 - SPECI SBKG 152115Z 09005KT CAVOK 24/20 Q1015=
2013061522 - Mensagem METAR de 'SBKG' para 15/06/2013 as 22(UTC) não localizada na base de dados da REDEMET
2013061523 - Mensagem METAR de 'SBKG' para 15/06/2013 as 23(UTC) não localizada na base de dados da REDEMET
2013061600 - Mensagem METAR de 'SBKG' para 16/06/2013 as 00(UTC) não localizada na base de dados da REDEMET
2013061601 - Mensagem METAR de 'SBKG' para 16/06/2013 as 01(UTC) não localizada na base de dados da REDEMET
2013061602 - Mensagem METAR de 'SBKG' para 16/06/2013 as 02(UTC) não localizada na base de dados da REDEMET
2013061603 - Mensagem METAR de 'SBKG' para 16/06/2013 as 03(UTC) não localizada na base de dados da REDEMET
2013061604 - Mensagem METAR de 'SBKG' para 16/06/2013 as 04(UTC) não localizada na base de dados da REDEMET
2013061605 - Mensagem METAR de 'SBKG' para 16/06/2013 as 05(UTC) não localizada na base de dados da REDEMET
2013061606 - Mensagem METAR de 'SBKG' para 16/06/2013 as 06(UTC) não localizada na base de dados da REDEMET
2013061607 - Mensagem METAR de 'SBKG' para 16/06/2013 as 07(UTC) não localizada na base de dados da REDEMET
2013061608 - Mensagem METAR de 'SBKG' para 16/06/2013 as 08(UTC) não localizada na base de dados da REDEMET
2013061609 - Mensagem METAR de 'SBKG' para 16/06/2013 as 09(UTC) não localizada na base de dados da REDEMET
2013061610 - Mensagem METAR de 'SBKG' para 16/06/2013 as 10(UTC) não localizada na base de dados da REDEMET
2013061611 - Mensagem METAR de 'SBKG' para 16/06/2013 as 11(UTC) não localizada na base de dados da REDEMET
2013061612 - Mensagem METAR de 'SBKG' para 16/06/2013 as 12(UTC) não localizada na base de dados da REDEMET
2013061613 - Mensagem METAR de 'SBKG' para 16/06/2013 as 13(UTC) não localizada na base de dados da REDEMET
2013061614 - Mensagem METAR de 'SBKG' para 16/06/2013 as 14(UTC) não localizada na base de dados da REDEMET
2013061615 - Mensagem METAR de 'SBKG' para 16/06/2013 as 15(UTC) não localizada na base de dados da REDEMET
2013061616 - Mensagem METAR de 'SBKG' para 16/06/2013 as 16(UTC) não localizada na base de dados da REDEMET
2013061617 - Mensagem METAR de 'SBKG' para 16/06/2013 as 17(UTC) não localizada na base de dados da REDEMET
2013061618 - Mensagem METAR de 'SBKG' para 16/06/2013 as 18(UTC) não localizada na base de dados da REDEMET
2013061619 - Mensagem METAR de 'SBKG' para 16/06/2013 as 19(UTC) não localizada na base de dados da REDEMET
2013061620 - Mensagem METAR de 'SBKG' para 16/06/2013 as 20(UTC) não localizada na base de dados da REDEMET
2013061621 - Mensagem METAR de 'SBKG' para 16/06/2013 as 21(UTC) não localizada na base de dados da REDEMET
2013061622 - Mensagem METAR de 'SBKG' para 16/06/2013 as 22(UTC) não localizada na base de dados da REDEMET
2013061623 - Mensagem METAR de 'SBKG' para 16/06/2013 as 23(UTC) não localizada na base de dados da REDEMET
2013061700 - Mensagem METAR de 'SBKG' para 17/06/2013 as 00(UTC) não localizada na base de dados da REDEMET
2013061701 - Mensagem METAR de 'SBKG' para 17/06/2013 as 01(UTC) não localizada na base de dados da REDEMET
2013061702 - Mensagem METAR de 'SBKG' para 17/06/2013 as 02(UTC) não localizada na base de dados da REDEMET
2013061703 - Mensagem METAR de 'SBKG' para 17/06/2013 as 03(UTC) não localizada na base de dados da REDEMET
2013061704 - Mensagem METAR de 'SBKG' para 17/06/2013 as 04(UTC) não localizada na base de dados da REDEMET
2013061705 - Mensagem METAR de 'SBKG' para 17/06/2013 as 05(UTC) não localizada na base de dados da REDEMET
2013061706 - Mensagem METAR de 'SBKG' para 17/06/2013 as 06(UTC) não localizada na base de dados da REDEMET
2013061707 - Mensagem METAR de 'SBKG' para 17/06/2013 as 07(UTC) não localizada na base de dados da REDEMET
2013061708 - Mensagem METAR de 'SBKG' para 17/06/2013 as 08(UTC) não localizada na base de dados da REDEMET
2013061709 - Mensagem METAR de 'SBKG' para 17/06/2013 as 09(UTC) não localizada na base de dados da REDEMET
2013061710 - Mensagem METAR de 'SBKG' para 17/06/2013 as 10(UTC) não localizada na base de dados da REDEMET
2013061711 - Mensagem METAR de 'SBKG' para 17/06/2013 as 11(UTC) não localizada na base de dados da REDEMET
2013061712 - Mensagem METAR de 'SBKG' para 17/06/2013 as 12(UTC) não localizada na base de dados da REDEMET
2013061713 - Mensagem METAR de 'SBKG' para 17/06/2013 as 13(UTC) não localizada na base de dados da REDEMET
2013061714 - Mensagem METAR de 'SBKG' para 17/06/2013 as 14(UTC) não localizada na base de dados da REDEMET
2013061715 - Mensagem METAR de 'SBKG' para 17/06/2013 as 15(UTC) não localizada na base de dados da REDEMET
2013061716 - Mensagem METAR de 'SBKG' para 17/06/2013 as 16(UTC) não localizada na base de dados da REDEMET
2013061717 - Mensagem METAR de 'SBKG' para 17/06/2013 as 17(UTC) não localizada na base de dados da REDEMET
2013061718 - Mensagem METAR de 'SBKG' para 17/06/2013 as 18(UTC) não localizada na base de dados da REDEMET
2013061719 - Mensagem METAR de 'SBKG' para 17/06/2013 as 19(UTC) não localizada na base de dados da REDEMET
2013061720 - Mensagem METAR de 'SBKG' para 17/06/2013 as 20(UTC) não localizada na base de dados da REDEMET
2013061721 - Mensagem METAR de 'SBKG' para 17/06/2013 as 21(UTC) não localizada na base de dados da REDEMET
2013061722 - Mensagem METAR de 'SBKG' para 17/06/2013 as 22(UTC) não localizada na base de dados da REDEMET
2013061723 - Mensagem METAR de 'SBKG' para 17/06/2013 as 23(UTC) não localizada na base de dados da REDEMET
2013061800 - Mensagem METAR de 'SBKG' para 18/06/2013 as 00(UTC) não localizada na base de dados da REDEMET
2013061801 - Mensagem METAR de 'SBKG' para 18/06/2013 as 01(UTC) não localizada na base de dados da REDEMET
2013061802 - Mensagem METAR de 'SBKG' para 18/06/2013 as 02(UTC) não localizada na base de dados da REDEMET
2013061803 - METAR SBKG 180300Z 09005KT CAVOK 20/20 Q1017=
2013061804 - METAR SBKG 180400Z 08004KT CAVOK 20/20 Q1016=
2013061805 - METAR SBKG 180500Z 10003KT 9999 4000S VCFG NSC 20/20 Q1016=
2013061806 - METAR SBKG 180600Z 12003KT CAVOK 20/20 Q1016=
2013061807 - METAR SBKG 180700Z 11003KT CAVOK 20/20 Q1016=
2013061808 - METAR SBKG 180800Z 00000KT CAVOK 19/19 Q1016=
2013061809 - METAR SBKG 180900Z 11003KT CAVOK 20/20 Q1016=
2013061810 - METAR SBKG 181000Z 11004KT 9999 FEW015 23/23 Q1017=
2013061811 - METAR SBKG 181100Z 12006KT 9999 FEW015 25/21 Q1017=
2013061812 - METAR SBKG 181200Z 11007KT 090V150 9999 SCT015 26/20 Q1017=
2013061813 - METAR SBKG 181300Z 13009KT 9999 SCT022 27/19 Q1018=
2013061814 - METAR SBKG 181400Z 12008KT 9999 SCT027 28/20 Q1017=
2013061815 - METAR SBKG 181500Z 14007KT 9999 SCT030 28/21 Q1016=
2013061816 - METAR SBKG 181600Z 10009KT 9999 SCT040 29/20 Q1015=
2013061817 - METAR SBKG 181700Z 10010KT 9999 SCT040 28/20 Q1014=
2013061818 - METAR SBKG 181800Z 11010KT 9999 SCT040 29/20 Q1014=
2013061819 - METAR SBKG 181900Z 12006KT 9999 SCT030 27/21 Q1014=
2013061820 - METAR SBKG 182000Z 11006KT 9999 FEW030 25/21 Q1015=
2013061821 - METAR SBKG 182100Z 09006KT 9999 FEW030 23/21 Q1015=
2013061822 - METAR SBKG 182200Z 09006KT 9999 SCT020 23/21 Q1016=
2013061823 - METAR SBKG 182300Z 10006KT 9999 SCT018 22/21 Q1017=
2013061900 - METAR SBKG 190000Z 11005KT 9999 SCT018 22/21 Q1017=
2013061901 - Mensagem METAR de 'SBKG' para 19/06/2013 as 01(UTC) não localizada na base de dados da REDEMET
2013061902 - Mensagem METAR de 'SBKG' para 19/06/2013 as 02(UTC) não localizada na base de dados da REDEMET
2013061903 - METAR SBKG 190300Z 12003KT 9999 SCT008 BKN014 BKN070 21/21 Q1017=
2013061904 - METAR SBKG 190400Z 11003KT 9999 SCT015 BKN070 21/21 Q1016=
2013061905 - METAR SBKG 190500Z 14006KT 9999 SCT011 BKN070 21/21 Q1015=
2013061906 - METAR SBKG 190600Z 10003KT 9999 BKN012 BKN070 21/21 Q1017=
2013061907 - METAR SBKG 190700Z 10003KT 9999 BKN014 BKN070 21/21 Q1015=
2013061908 - METAR SBKG 190800Z 15002KT 9999 -RA BKN015 BKN070 21/21 Q1015=
2013061909 - METAR SBKG 190900Z 15004KT 9999 SCT011 BKN015 21/21 Q1016=
2013061910 - METAR SBKG 191000Z 13004KT 9999 BKN020 22/22 Q1016=
2013061911 - METAR SBKG 191100Z 15008KT 9999 BKN020 24/21 Q1017=
2013061912 - METAR SBKG 191200Z 11011KT 9999 SCT030 26/20 Q1017=
2013061913 - METAR SBKG 191300Z 14010KT 9999 SCT030 26/19 Q1017=
2013061914 - METAR SBKG 191400Z 13012KT 9999 SCT030 27/19 Q1016=
2013061915 - METAR SBKG 191500Z 13010KT 9999 SCT030 28/19 Q1016=
2013061916 - METAR SBKG 191600Z 15012KT 9999 SCT031 28/18 Q1015=
2013061917 - METAR SBKG 191700Z 11007KT 9999 SCT040 29/18 Q1014=
2013061918 - METAR SBKG 191800Z 13010KT 9999 FEW040 29/18 Q1014=
2013061919 - METAR SBKG 191900Z 12008KT 9999 FEW040 27/18 Q1014=
2013061920 - METAR SBKG 192000Z 13005KT CAVOK 26/18 Q1014=
2013061921 - METAR SBKG 192100Z 14005KT CAVOK 23/18 Q1015=
2013061922 - Mensagem METAR de 'SBKG' para 19/06/2013 as 22(UTC) não localizada na base de dados da REDEMET
2013061923 - Mensagem METAR de 'SBKG' para 19/06/2013 as 23(UTC) não localizada na base de dados da REDEMET
2013062000 - Mensagem METAR de 'SBKG' para 20/06/2013 as 00(UTC) não localizada na base de dados da REDEMET
2013062001 - Mensagem METAR de 'SBKG' para 20/06/2013 as 01(UTC) não localizada na base de dados da REDEMET
2013062002 - Mensagem METAR de 'SBKG' para 20/06/2013 as 02(UTC) não localizada na base de dados da REDEMET
2013062003 - METAR SBKG 200300Z 13003KT 9999 SCT018 21/19 Q1016=
2013062004 - METAR SBKG 200400Z 10002KT 9999 SCT018 20/20 Q1015=
2013062005 - METAR SBKG 200500Z 10003KT 9999 SCT018 20/20 Q1015=
2013062006 - METAR SBKG 200600Z 13003KT 9999 SCT018 20/20 Q1015=
2013062007 - METAR SBKG 200700Z 16002KT 9999 SCT018 20/20 Q1015=
2013062008 - METAR SBKG 200800Z 13007KT 6000 BKN015 20/20 Q1015=
2013062009 - METAR SBKG 200900Z 15003KT 6000 SCT015 BKN018 20/20 Q1015=
2013062010 - METAR SBKG 201000Z 11002KT 7000 -RA BKN011 SCT015 BKN080 20/20 Q1016=
2013062010 - SPECI SBKG 201025Z 09006KT 2900 -RADZ BR SCT007 BKN010 BKN012 20/20 Q1017=
2013062011 - METAR SBKG 201100Z 16004KT 5000 BR SCT004 BKN012 BKN070 21/21 Q1017=
2013062011 - SPECI SBKG 201118Z 20005KT 9999 FEW004 BKN020 BKN070 23/22 Q1017=
2013062012 - METAR SBKG 201200Z 18009KT 9999 BKN015 BKN070 24/21 Q1017=
2013062013 - METAR SBKG 201300Z 17009KT 9999 SCT017 SCT020 25/20 Q1017=
2013062014 - METAR SBKG 201400Z 15008KT 9999 BKN026 27/19 Q1017=
2013062015 - METAR SBKG 201500Z 14009KT CAVOK 27/18 Q1017=
2013062016 - METAR SBKG 201600Z 11005KT 9999 SCT030 29/19 Q1015=
2013062017 - METAR SBKG 201700Z 16009KT 9999 SCT030 28/19 Q1015=
2013062018 - METAR SBKG 201800Z 10006KT 9999 FEW030 29/20 Q1014=
2013062019 - METAR SBKG 201900Z 13007KT 9999 FEW030 27/20 Q1014=
2013062020 - METAR SBKG 202000Z 12008KT 9999 FEW030 26/19 Q1015=
2013062021 - METAR SBKG 202100Z 09005KT 9999 FEW025 23/20 Q1015=
2013062022 - METAR SBKG 202200Z 11003KT 9999 FEW025 22/20 Q1016=
2013062023 - METAR SBKG 202300Z 11004KT 9999 SCT020 22/20 Q1016=
2013062100 - Mensagem METAR de 'SBKG' para 21/06/2013 as 00(UTC) não localizada na base de dados da REDEMET
2013062101 - Mensagem METAR de 'SBKG' para 21/06/2013 as 01(UTC) não localizada na base de dados da REDEMET
2013062102 - Mensagem METAR de 'SBKG' para 21/06/2013 as 02(UTC) não localizada na base de dados da REDEMET
2013062103 - METAR SBKG 210300Z 11006KT 7000 -RA FEW009 SCT013 BKN020 21/20 Q1016=
2013062103 - SPECI SBKG 210331Z 12004KT 6000 -RA FEW007 BKN012 BKN021 21/20 Q1016=
2013062104 - METAR SBKG 210400Z 15005KT 5000 BR FEW007 BKN010 21/20 Q1015=
2013062105 - METAR SBKG 210500Z 15005KT 9999 BKN012 BKN016 21/21 Q1015=
2013062106 - METAR SBKG 210600Z 15004KT 8000 -RA FEW009 BKN015 BKN024 21/20 Q1014=
2013062107 - METAR SBKG 210700Z 15005KT 7000 FEW009 BKN012 BKN024 21/21 Q1015=
2013062108 - METAR SBKG 210800Z 16005KT 9000 4000E VCSH SCT007 BKN010 21/21 Q1015=
2013062109 - METAR SBKG 210900Z 16004KT 5000 -RA BR SCT005 SCT009 BKN012 21/21 Q1015=
2013062109 - SPECI SBKG 210945Z 16005KT 8000 SCT005 BKN010 OVC080 21/21 Q1016=
2013062109 - SPECI SBKG 210915Z 17005KT 2000 -RA BR SCT005 BKN010 OVC080 21/21 Q1015=
2013062110 - METAR SBKG 211000Z 16005KT 8000 FEW005 BKN010 OVC080 21/21 Q1016=
2013062111 - METAR SBKG 211100Z 14007KT 3000 -RA BR SCT005 BKN010 OVC080 21/21 Q1017=
2013062112 - METAR SBKG 211200Z 15007KT 4000 -RA SCT005 BKN010 OVC080 22/22 Q1017=
2013062113 - METAR SBKG 211300Z 15008KT 9999 FEW006 BKN012 OVC080 22/22 Q1017=
2013062114 - METAR SBKG 211400Z 13010KT 5000 -RA SCT007 BKN013 OVC090 23/23 Q1017=
2013062115 - METAR SBKG 211500Z 12011KT 3000 -RA SCT008 BKN011 OVC090 22/22 Q1016=
2013062116 - METAR SBKG 211600Z 11011KT 3000 -RA BR SCT006 BKN010 OVC070 22/21 Q1015=
2013062117 - METAR SBKG 211700Z 11006KT 8000 FEW007 BKN010 BKN015 23/22 Q1015=
2013062117 - SPECI SBKG 211746Z 10006KT 2000 -RA BR SCT005 BKN010 23/21 Q1015=
2013062118 - METAR SBKG 211800Z 10008KT 2000 -RA SCT005 BKN010 BKN015 22/21 Q1015=
2013062119 - METAR SBKG 211900Z 11011KT 2000 -RA BR SCT004 BKN010 BKN015 21/21 Q1015=
2013062120 - METAR SBKG 212000Z 10007KT 2000 -RA BR SCT004 BKN010 BKN015 21/21 Q1015=
2013062121 - METAR SBKG 212100Z 10006KT 1500 -RA BR BKN003 BKN010 21/21 Q1015=
2013062122 - METAR SBKG 212200Z 11010KT 5000 -RA BR SCT004 BKN010 21/21 Q1016=
2013062123 - METAR SBKG 212300Z 12007KT 0900 -RA FG BKN002 BKN010 21/21 Q1017=
2013062200 - Mensagem METAR de 'SBKG' para 22/06/2013 as 00(UTC) não localizada na base de dados da REDEMET
2013062201 - Mensagem METAR de 'SBKG' para 22/06/2013 as 01(UTC) não localizada na base de dados da REDEMET
2013062202 - METAR SBKG 220200Z 11004KT 4000 -RA BR SCT006 BKN008 21/21 Q1017=
2013062203 - METAR SBKG 220300Z 11004KT 2000 BR BKN003 SCT090 21/21 Q1017=
2013062204 - METAR COR SBKG 220400Z 13003KT 2000 BR BKN003 SCT013 BKN090 21/21 Q1016=
2013062205 - METAR SBKG 220500Z 12003KT 5000 -RA BR SCT003 BKN007 BKN090 21/21 Q1015=
2013062206 - METAR SBKG 220600Z 11003KT 8000 SCT005 BKN011 OVC090 21/21 Q1015=
2013062207 - METAR SBKG 220700Z 13004KT 3000 -RA SCT003 BKN012 OVC080 21/21 Q1015=
2013062208 - METAR SBKG 220800Z 11003KT 2000 -RA SCT004 BKN009 OVC080 21/21 Q1015=
2013062209 - METAR SBKG 220900Z 09005KT 4000 -RA SCT004 BKN012 OVC070 21/21 Q1016=
2013062210 - METAR SBKG 221000Z 13003KT 4000 -RA BR SCT004 BKN010 OVC070 21/21 Q1017=
2013062210 - SPECI SBKG 221012Z 13003KT 2000 -RA BR BKN004 BKN010 OVC070 21/21 Q1017=
2013062211 - METAR SBKG 221100Z 10006KT 2000 -RA BR BKN004 BKN010 OVC070 21/21 Q1018=
2013062212 - METAR SBKG 221200Z 10003KT 3000 -RA BR SCT004 BKN010 BKN015 22/22 Q1018=
2013062213 - METAR SBKG 221300Z 11007KT 3000 BR SCT004 BKN010 OVC070 22/22 Q1018=
2013062213 - SPECI SBKG 221312Z 11007KT 8000 FEW004 BKN015 BKN018 23/23 Q1018=
2013062214 - METAR SBKG 221400Z 12008KT 8000 BKN015 BKN018 23/23 Q1018=
2013062215 - METAR SBKG 221500Z 14007KT 9999 SCT018 23/23 Q1017=
2013062215 - SPECI SBKG 221535Z 14013KT 3000 -RA SCT010 BKN015 23/22 Q1016=
2013062216 - METAR SBKG 221600Z 15006KT 4000 -RA SCT010 BKN015 22/22 Q1016=
2013062217 - METAR SBKG 221700Z 13006KT 5000 RA SCT015 BKN018 22/21 Q1016=
2013062218 - METAR SBKG 221800Z 14007KT 9999 SCT015 BKN020 24/22 Q1015=
2013062219 - METAR SBKG 221900Z 11005KT 9999 BKN020 BKN090 24/22 Q1015=
2013062220 - METAR SBKG 222000Z 11005KT 9999 SCT020 BKN090 23/21 Q1016=
2013062221 - METAR SBKG 222100Z 10004KT 9999 SCT020 BKN090 22/21 Q1016=
2013062222 - Mensagem METAR de 'SBKG' para 22/06/2013 as 22(UTC) não localizada na base de dados da REDEMET
2013062223 - Mensagem METAR de 'SBKG' para 22/06/2013 as 23(UTC) não localizada na base de dados da REDEMET
2013062300 - METAR SBKG 230000Z 14006KT 9999 FEW018 SCT080 22/20 Q1018=
2013062301 - METAR SBKG 230100Z 13003KT CAVOK 21/20 Q1018=
2013062302 - METAR SBKG 230200Z 16003KT CAVOK 21/21 Q1018=
2013062303 - METAR SBKG 230300Z 14003KT 9999 SCT014 SCT080 21/21 Q1018=
2013062304 - METAR SBKG 230400Z 17004KT 9999 BKN013 21/21 Q1017=
2013062305 - METAR SBKG 230500Z 15004KT 9999 BKN013 21/21 Q1016=
2013062306 - METAR SBKG 230600Z 13004KT 9999 BKN013 20/20 Q1016=
2013062307 - METAR SBKG 230700Z 15003KT 9999 SCT014 20/20 Q1016=
2013062308 - METAR SBKG 230800Z 14004KT 9999 SCT016 20/20 Q1016=
2013062309 - METAR SBKG 230900Z 18002KT 9999 SCT009 20/20 Q1017=
2013062310 - METAR SBKG 231000Z 17005KT 9999 SCT020 22/20 Q1017=
2013062311 - METAR SBKG 231100Z 17008KT 9999 SCT025 23/19 Q1018=
2013062312 - METAR SBKG 231200Z 14008KT 9999 SCT030 24/19 Q1018=
2013062313 - METAR SBKG 231300Z 17007KT 9999 SCT040 26/18 Q1018=
2013062314 - METAR SBKG 231400Z 17006KT 9999 FEW040 27/18 Q1017=
2013062315 - METAR SBKG 231500Z 18006KT 9999 FEW040 28/18 Q1017=
2013062316 - METAR SBKG 231600Z 14007KT 9999 BKN036 28/18 Q1016=
2013062317 - METAR SBKG 231700Z 15007KT 9999 SCT034 28/18 Q1015=
2013062318 - METAR SBKG 231800Z 15007KT 9999 SCT040 28/18 Q1015=
2013062319 - METAR SBKG 231900Z 15007KT 9999 FEW037 27/18 Q1015=
2013062320 - METAR SBKG 232000Z 14005KT 9999 FEW037 26/19 Q1015=
2013062321 - METAR SBKG 232100Z 13003KT CAVOK 22/18 Q1016=
2013062322 - Mensagem METAR de 'SBKG' para 23/06/2013 as 22(UTC) não localizada na base de dados da REDEMET
2013062323 - Mensagem METAR de 'SBKG' para 23/06/2013 as 23(UTC) não localizada na base de dados da REDEMET
2013062400 - Mensagem METAR de 'SBKG' para 24/06/2013 as 00(UTC) não localizada na base de dados da REDEMET
2013062401 - Mensagem METAR de 'SBKG' para 24/06/2013 as 01(UTC) não localizada na base de dados da REDEMET
2013062402 - Mensagem METAR de 'SBKG' para 24/06/2013 as 02(UTC) não localizada na base de dados da REDEMET
2013062403 - METAR SBKG 240300Z 14001KT CAVOK 18/17 Q1018=
2013062404 - METAR SBKG 240400Z 19003KT CAVOK 18/18 Q1017=
2013062405 - METAR SBKG 240500Z 24001KT 9999 FEW015 18/17 Q1017=
2013062406 - METAR SBKG 240600Z 25001KT 9999 SCT015 18/18 Q1017=
2013062407 - METAR SBKG 240700Z 23004KT 9999 FEW015 18/18 Q1017=
2013062408 - METAR SBKG 240800Z 26003KT CAVOK 17/17 Q1017=
2013062409 - METAR SBKG 240900Z 32001KT CAVOK 17/17 Q1017=
2013062410 - METAR SBKG 241000Z 23003KT 9999 FEW020 21/20 Q1018=
2013062411 - METAR SBKG 241100Z 26003KT 9999 FEW030 23/20 Q1018=
2013062412 - METAR SBKG 241200Z 22008KT 9999 FEW030 24/16 Q1018=
2013062413 - METAR SBKG 241300Z 14005KT 9999 SCT040 26/17 Q1018=
2013062414 - METAR SBKG 241400Z 16006KT 9999 FEW040 26/16 Q1017=
2013062415 - METAR SBKG 241500Z 19008KT 9999 FEW040 27/16 Q1017=
2013062416 - METAR SBKG 241600Z 16008KT 9999 FEW040 26/16 Q1016=
2013062417 - METAR SBKG 241700Z 15007KT CAVOK 27/18 Q1015=
2013062418 - METAR SBKG 241800Z 11006KT CAVOK 26/16 Q1015=
2013062419 - METAR SBKG 241900Z 14007KT CAVOK 27/16 Q1015=
2013062420 - METAR SBKG 242000Z 12005KT CAVOK 24/17 Q1015=
2013062421 - METAR SBKG 242100Z 09004KT CAVOK 22/18 Q1015=
2013062422 - Mensagem METAR de 'SBKG' para 24/06/2013 as 22(UTC) não localizada na base de dados da REDEMET
2013062423 - Mensagem METAR de 'SBKG' para 24/06/2013 as 23(UTC) não localizada na base de dados da REDEMET
2013062500 - Mensagem METAR de 'SBKG' para 25/06/2013 as 00(UTC) não localizada na base de dados da REDEMET
2013062501 - Mensagem METAR de 'SBKG' para 25/06/2013 as 01(UTC) não localizada na base de dados da REDEMET
2013062502 - Mensagem METAR de 'SBKG' para 25/06/2013 as 02(UTC) não localizada na base de dados da REDEMET
2013062503 - METAR SBKG 250300Z 15004KT 9999 BKN025 20/18 Q1017=
2013062504 - METAR SBKG 250400Z 12004KT 9999 FEW025 SCT090 20/17 Q1016=
2013062505 - METAR SBKG 250500Z 17004KT 9999 SCT030 SCT080 20/18 Q1016=
2013062506 - METAR SBKG 250600Z 18003KT CAVOK 19/18 Q1015=
2013062507 - METAR SBKG 250700Z 17003KT CAVOK 19/18 Q1015=
2013062508 - METAR SBKG 250800Z 11001KT CAVOK 18/17 Q1016=
2013062509 - METAR SBKG 250900Z 22001KT CAVOK 18/17 Q1016=
2013062510 - METAR SBKG 251000Z 22004KT CAVOK 22/19 Q1017=
2013062511 - METAR SBKG 251100Z 21003KT 9999 FEW014 22/19 Q1017=
2013062512 - METAR SBKG 251200Z 19005KT 9999 FEW014 24/19 Q1018=
2013062513 - METAR SBKG 251300Z 16008KT 9999 BKN020 26/19 Q1018=
2013062514 - METAR SBKG 251400Z 16009KT 9999 BKN024 27/19 Q1017=
2013062515 - METAR SBKG 251500Z 13006KT 9999 BKN028 28/19 Q1016=
2013062516 - METAR SBKG 251600Z 15008KT 9999 SCT029 28/19 Q1015=
2013062517 - METAR SBKG 251700Z 13007KT 9999 SCT025 27/20 Q1015=
2013062518 - METAR SBKG 251800Z 14007KT 9999 BKN025 BKN100 26/20 Q1015=
2013062519 - METAR SBKG 251900Z 13009KT 9999 FEW020 SCT025 BKN100 26/20 Q1015=
2013062520 - METAR SBKG 252000Z 11006KT 9999 SCT020 BKN070 24/21 Q1016=
2013062521 - METAR SBKG 252100Z 12006KT 9999 BKN016 BKN070 23/21 Q1016=
2013062522 - Mensagem METAR de 'SBKG' para 25/06/2013 as 22(UTC) não localizada na base de dados da REDEMET
2013062523 - Mensagem METAR de 'SBKG' para 25/06/2013 as 23(UTC) não localizada na base de dados da REDEMET
2013062500 - Mensagem METAR de 'SBKG' para 25/06/2013 as 00(UTC) não localizada na base de dados da REDEMET
2013062501 - Mensagem METAR de 'SBKG' para 25/06/2013 as 01(UTC) não localizada na base de dados da REDEMET
2013062502 - Mensagem METAR de 'SBKG' para 25/06/2013 as 02(UTC) não localizada na base de dados da REDEMET
2013062503 - METAR SBKG 250300Z 15004KT 9999 BKN025 20/18 Q1017=
2013062504 - METAR SBKG 250400Z 12004KT 9999 FEW025 SCT090 20/17 Q1016=
2013062505 - METAR SBKG 250500Z 17004KT 9999 SCT030 SCT080 20/18 Q1016=
2013062506 - METAR SBKG 250600Z 18003KT CAVOK 19/18 Q1015=
2013062507 - METAR SBKG 250700Z 17003KT CAVOK 19/18 Q1015=
2013062508 - METAR SBKG 250800Z 11001KT CAVOK 18/17 Q1016=
2013062509 - METAR SBKG 250900Z 22001KT CAVOK 18/17 Q1016=
2013062510 - METAR SBKG 251000Z 22004KT CAVOK 22/19 Q1017=
2013062511 - METAR SBKG 251100Z 21003KT 9999 FEW014 22/19 Q1017=
2013062512 - METAR SBKG 251200Z 19005KT 9999 FEW014 24/19 Q1018=
2013062513 - METAR SBKG 251300Z 16008KT 9999 BKN020 26/19 Q1018=
2013062514 - METAR SBKG 251400Z 16009KT 9999 BKN024 27/19 Q1017=
2013062515 - METAR SBKG 251500Z 13006KT 9999 BKN028 28/19 Q1016=
2013062516 - METAR SBKG 251600Z 15008KT 9999 SCT029 28/19 Q1015=
2013062517 - METAR SBKG 251700Z 13007KT 9999 SCT025 27/20 Q1015=
2013062518 - METAR SBKG 251800Z 14007KT 9999 BKN025 BKN100 26/20 Q1015=
2013062519 - METAR SBKG 251900Z 13009KT 9999 FEW020 SCT025 BKN100 26/20 Q1015=
2013062520 - METAR SBKG 252000Z 11006KT 9999 SCT020 BKN070 24/21 Q1016=
2013062521 - METAR SBKG 252100Z 12006KT 9999 BKN016 BKN070 23/21 Q1016=
2013062522 - Mensagem METAR de 'SBKG' para 25/06/2013 as 22(UTC) não localizada na base de dados da REDEMET
2013062523 - Mensagem METAR de 'SBKG' para 25/06/2013 as 23(UTC) não localizada na base de dados da REDEMET
2013062600 - Mensagem METAR de 'SBKG' para 26/06/2013 as 00(UTC) não localizada na base de dados da REDEMET
2013062701 - Mensagem METAR de 'SBKG' para 27/06/2013 as 01(UTC) não localizada na base de dados da REDEMET
2013062702 - Mensagem METAR de 'SBKG' para 27/06/2013 as 02(UTC) não localizada na base de dados da REDEMET
2013062703 - METAR SBKG 270300Z 00000KT 9999 SCT010 19/19 Q1018=
2013062704 - METAR SBKG 270400Z 14002KT 9999 FEW012 20/19 Q1017=
2013062705 - METAR SBKG 270500Z 13002KT 9999 BKN010 20/20 Q1017=
2013062706 - METAR SBKG 270600Z 17005KT 9999 BKN010 20/20 Q1017=
2013062707 - METAR SBKG 270700Z 15003KT 9999 BKN010 20/20 Q1017=
2013062708 - METAR SBKG 270800Z 17004KT 9999 SCT009 SCT018 20/20 Q1017=
2013062709 - METAR SBKG 270900Z 16004KT 9999 SCT009 BKN017 20/20 Q1017=
2013062709 - SPECI SBKG 270935Z 16005KT 3000 BR SCT008 BKN015 21/21 Q1018=
2013062710 - METAR SBKG 271000Z 15004KT 4000 -RA SCT008 BKN010 21/21 Q1018=
2013062711 - METAR SBKG 271100Z 16006KT 9999 BKN010 22/21 Q1019=
2013062712 - METAR SBKG 271200Z 14007KT 9999 BKN015 24/22 Q1019=
2013062713 - METAR COR SBKG 271300Z 16007KT 9999 VCSH BKN014 BKN020 25/21 Q1019=
2013062713 - SPECI SBKG 271320Z 16011KT 4500 -RA SCT007 BKN014 23/20 Q1019=
2013062714 - METAR SBKG 271400Z 15009KT 9999 BKN015 25/21 Q1018=
2013062715 - METAR SBKG 271500Z 14010KT 8000 -RA BKN014 BKN021 25/20 Q1017=
2013062716 - METAR SBKG 271600Z 14007KT 9999 BKN015 BKN070 26/20 Q1017=
2013062717 - METAR SBKG 271700Z 12006KT 9999 VCSH BKN023 SCT070 27/20 Q1016=
2013062718 - METAR SBKG 271800Z 15009KT 9999 VCSH SCT017 BKN070 27/21 Q1016=
2013062719 - METAR SBKG 271900Z 14007KT 9999 SCT018 BKN070 26/21 Q1016=
2013062720 - METAR SBKG 272000Z 15008KT 9999 SCT035 FEW040TCU SCT070 24/20 Q1016=
2013062721 - METAR SBKG 272100Z 15006KT 9999 SCT025 SCT070 22/20 Q1016=
2013062722 - METAR SBKG 272200Z 15005KT 9999 SCT034 SCT070 22/20 Q1017=
2013062723 - METAR SBKG 272300Z 14003KT 9999 SCT040 SCT070 22/20 Q1017=
2013062800 - METAR SBKG 280000Z 13003KT 9999 SCT042 22/20 Q1017=
2013062801 - METAR SBKG 280100Z 10003KT 9999 SCT016 SCT080 21/20 Q1017=
2013062802 - METAR SBKG 280200Z 12003KT CAVOK 20/20 Q1017=
2013062803 - METAR SBKG 280300Z 13002KT CAVOK 20/20 Q1017=
2013062804 - METAR SBKG 280400Z 00000KT CAVOK 20/20 Q1017=
2013062805 - METAR SBKG 280500Z 00000KT CAVOK 20/20 Q1016=
2013062806 - METAR SBKG 280600Z 00000KT CAVOK 20/20 Q1016=
2013062807 - METAR SBKG 280700Z 00000KT 9999 FEW012 20/20 Q1016=
2013062807 - SPECI SBKG 280730Z 00000KT 9999 BKN010 21/20 Q1016=
2013062808 - METAR SBKG 280800Z 21002KT 9999 BKN011 21/20 Q1016=
2013062809 - METAR SBKG 280900Z 16005KT 9999 BKN011 21/20 Q1016=
2013062810 - METAR SBKG 281000Z 17005KT 9999 BKN010 21/20 Q1017=
2013062811 - METAR SBKG 281100Z 17007KT 9999 FEW007 BKN010 22/20 Q1017=
2013062812 - METAR SBKG 281200Z 17006KT 9999 SCT011 BKN015 24/21 Q1018=
2013062813 - METAR SBKG 281300Z 14007KT 9999 SCT017 BKN020 25/20 Q1017=
2013062814 - METAR SBKG 281400Z 13007KT 9999 BKN019 SCT100 26/20 Q1017=
2013062815 - METAR SBKG 281500Z 13007KT 9999 BKN021 27/21 Q1015=
2013062816 - METAR SBKG 281600Z 14007KT 9999 BKN025 27/20 Q1014=
2013062817 - METAR SBKG 281700Z 15008KT 8000 VCSH SCT022 BKN042 26/21 Q1014=
2013062818 - METAR SBKG 281800Z 09009KT 5000 -RA SCT017 FEW025TCU BKN033 25/22 Q1014=
2013062818 - SPECI SBKG 281815Z 10008KT 4000 -RA SCT013 BKN023 23/22 Q1014=
2013062819 - METAR SBKG 281900Z 08006KT 6000 -RA SCT010 BKN024 23/22 Q1014=
2013062820 - METAR SBKG 282000Z 07005KT 7000 FEW006 SCT046 BKN070 22/21 Q1014=
2013062821 - METAR SBKG 282100Z 09006KT 5000 -RA BR SCT007 BKN018 BKN070 22/22 Q1015=
2013062822 - Mensagem METAR de 'SBKG' para 28/06/2013 as 22(UTC) não localizada na base de dados da REDEMET
2013062823 - Mensagem METAR de 'SBKG' para 28/06/2013 as 23(UTC) não localizada na base de dados da REDEMET
2013062900 - Mensagem METAR de 'SBKG' para 29/06/2013 as 00(UTC) não localizada na base de dados da REDEMET
2013062901 - Mensagem METAR de 'SBKG' para 29/06/2013 as 01(UTC) não localizada na base de dados da REDEMET
2013062902 - Mensagem METAR de 'SBKG' para 29/06/2013 as 02(UTC) não localizada na base de dados da REDEMET
2013062903 - METAR SBKG 290300Z 14004KT 6000 1000SE BCFG SCT004 BKN010 BKN015 21/21 Q1017=
2013062904 - METAR SBKG 290400Z 11007KT 5000 -RA SCT007 BKN013 21/21 Q1016=
2013062905 - METAR SBKG 290500Z 13004KT 6000 SCT004 BKN013 BKN070 21/21 Q1015=
2013062906 - METAR SBKG 290600Z 00000KT 7000 2000E BCFG SCT007 BKN013 BKN080 21/21 Q1015=
2013062907 - METAR SBKG 290700Z 00000KT 9999 SCT002 BKN100 20/20 Q1015=
2013062908 - METAR SBKG 290800Z 17002KT 9999 BKN018 20/20 Q1015=
2013062909 - METAR SBKG 290900Z 19004KT 9999 FEW011 SCT100 20/20 Q1015=
2013062910 - METAR SBKG 291000Z 18003KT 6000 SCT008 SCT019 21/21 Q1016=
2013062910 - SPECI SBKG 291013Z 17003KT 5000 BR BKN010 SCT018 BKN070 21/21 Q1016=
2013062911 - METAR SBKG 291100Z 17003KT 7000 SCT014 BKN016 BKN070 22/21 Q1016=
2013062912 - METAR SBKG 291200Z 11005KT 9999 SCT017 BKN021 24/20 Q1017=
2013062913 - METAR SBKG 291300Z 13007KT 9999 SCT018 BKN026 26/21 Q1017=
2013062914 - METAR SBKG 291400Z 11005KT 9999 BKN027 SCT080 25/22 Q1016=
2013062915 - METAR SBKG 291500Z 18005KT 9999 SCT027 SCT080 26/20 Q1016=
2013062916 - METAR SBKG 291600Z 12006KT 9999 SCT030 SCT070 28/19 Q1015=
2013062917 - METAR SBKG 291700Z 15005KT 9999 SCT030 FEW036TCU 28/19 Q1014=
2013062918 - METAR SBKG 291800Z 16005KT 9999 SCT030 29/19 Q1014=
2013062919 - METAR SBKG 291900Z 11007KT 9999 SCT025 27/20 Q1014=
2013062920 - METAR SBKG 292000Z 08006KT 9999 FEW025 25/20 Q1014=
2013062921 - METAR SBKG 292100Z 13004KT 9999 SCT023 23/21 Q1014=
2013062922 - Mensagem METAR de 'SBKG' para 29/06/2013 as 22(UTC) não localizada na base de dados da REDEMET
2013062923 - Mensagem METAR de 'SBKG' para 29/06/2013 as 23(UTC) não localizada na base de dados da REDEMET
2013063000 - Mensagem METAR de 'SBKG' para 30/06/2013 as 00(UTC) não localizada na base de dados da REDEMET
2013063001 - Mensagem METAR de 'SBKG' para 30/06/2013 as 01(UTC) não localizada na base de dados da REDEMET
2013063002 - Mensagem METAR de 'SBKG' para 30/06/2013 as 02(UTC) não localizada na base de dados da REDEMET
2013063003 - METAR SBKG 300300Z 14003KT 9999 FEW015 20/20 Q1015=
2013063003 - SPECI SBKG 300320Z 15003KT 9999 BKN010 20/20 Q1015=
2013063004 - METAR SBKG 300400Z 17003KT 9999 BKN012 SCT090 20/20 Q1015=
2013063005 - METAR SBKG 300500Z 20002KT 9999 BKN012 20/20 Q1015=
2013063006 - METAR SBKG 300600Z 18003KT 9999 SCT015 19/19 Q1015=
2013063007 - METAR SBKG 300700Z 23002KT 9999 FEW015 19/19 Q1015=
2013063008 - METAR SBKG 300800Z 24001KT CAVOK 19/19 Q1015=
2013063009 - METAR SBKG 300900Z 06001KT CAVOK 18/18 Q1016=
2013063010 - METAR SBKG 301000Z 12003KT CAVOK 22/19 Q1016=
2013063011 - METAR SBKG 301100Z 16010KT 9999 BKN018 23/19 Q1017=
2013063012 - METAR SBKG 301200Z 16010KT 9999 BKN018 25/19 Q1017=
2013063013 - METAR SBKG 301300Z 15010KT 9999 BKN023 26/19 Q1017=
2013063014 - METAR SBKG 301400Z 13013KT 9999 BKN033 27/18 Q1016=
2013063015 - METAR SBKG 301500Z 15011KT 9999 BKN030 28/19 Q1016=
2013063016 - METAR SBKG 301600Z 14010KT 9999 BKN025 27/18 Q1015=
2013063017 - METAR SBKG 301700Z 16011KT 9999 SCT030 SCT050 28/18 Q1015=
2013063018 - METAR SBKG 301800Z 13008KT 9999 SCT035 SCT050 27/17 Q1014=
2013063019 - METAR SBKG 301900Z 14009KT 9999 FEW035 27/17 Q1014=
2013063020 - METAR SBKG 302000Z 14007KT 9999 FEW030 25/17 Q1015=
2013063021 - METAR SBKG 302100Z 13005KT CAVOK 22/18 Q1015=
2013063022 - METAR SBKG 302200Z 12005KT CAVOK 21/18 Q1015=
2013063023 - Mensagem METAR de 'SBKG' para 30/06/2013 as 23(UTC) não localizada na base de dados da REDEMET