2009060100 - SBKG 010000Z 13002KT 9999 SCT010 22/21 Q1016=
2009060101 - SBKG 010100Z 12004KT 9999 SCT010 22/21 Q1016=
2009060102 - SBKG 010200Z 16002KT 9999 SCT010 22/21 Q1016=
2009060103 - SBKG 010300Z 19002KT 9999 SCT010 22/21 Q1015=
2009060104 - Mensagem METAR de 'SBKG' para 01/06/2009 as 04(UTC) não localizada na base de dados da REDEMET
2009060105 - Mensagem METAR de 'SBKG' para 01/06/2009 as 05(UTC) não localizada na base de dados da REDEMET
2009060106 - Mensagem METAR de 'SBKG' para 01/06/2009 as 06(UTC) não localizada na base de dados da REDEMET
2009060107 - Mensagem METAR de 'SBKG' para 01/06/2009 as 07(UTC) não localizada na base de dados da REDEMET
2009060108 - Mensagem METAR de 'SBKG' para 01/06/2009 as 08(UTC) não localizada na base de dados da REDEMET
2009060109 - SBKG 010915Z 25003KT 9999 SCT010 21/21 Q1015=
2009060110 - SBKG 011000Z 00000KT 9999 SCT008 SCT012 21/21 Q1015=
2009060111 - SBKG 011100Z 19005KT 9999 SCT010 SCT014 23/21 Q1016=
2009060112 - SBKG 011200Z 18005KT 9999 8000S VCSH SCT010 BKN015 24/21 Q1017=
2009060112 - SBKG 011210Z 19007KT 3000 -RADZ SCT009 SCT012 24/21 Q1016=
2009060113 - SBKG 011300Z 19004KT 9999 8000NW VCSH SCT012 SCT020 24/22 Q1016=
2009060114 - SBKG 011400Z 16005KT 8000 -RA BKN023 SCT070 25/23 Q1015=
2009060114 - SBKG 011445Z 13009KT 3000 -RA SCT010 BKN020 24/22 Q1015=
2009060115 - SBKG 011500Z 14008KT 3000 -RA SCT010 BKN020 24/23 Q1015 =
2009060116 - SBKG 011600Z 12006KT 3000 -RA BR BKN010 BKN015 23/22 Q1015=
2009060117 - SBKG 011700Z 12008KT 1500 -RA BR BKN006 BKN010 BKN015 23/22 Q1014=
2009060118 - SBKG 011800Z 12002KT 3000 -RA BR SCT006 BKN010 BKN015 22/21 Q1014=
2009060119 - SBKG 011900Z 15006KT 3000 -RA BR SCT006 BKN010 BKN015 22/21 Q1014=
2009060120 - SBKG 012000Z 12006KT 2000 -RA BR SCT006 BKN010 BKN015 22/22 Q1015=
2009060121 - SBKG 012100Z 15006KT 3000 -RA BR SCT006 BKN010 BKN015 22/22 Q1016=
2009060122 - SBKG 012200Z 13004KT 3000 -RA BR SCT006 BKN010 OVC070 21/20 Q1016 =
2009060123 - SBKG 012300Z 12002KT 5000 BR SCT006 BKN015 BKN090 21/21 Q1016 =
2009060200 - SBKG 020000Z 14002KT 6000 BKN015 SCT090 21/21 Q1017 =
2009060201 - SBKG 020100Z 16002KT 6000 SCT015 BKN090 21/21 Q1017=
2009060202 - SBKG 020200Z 14002KT 6000 SCT015 BKN090 21/21 Q1016=
2009060203 - SBKG 020300Z 18002KT 6000 SCT015 BKN090 21/21 Q1016=
2009060204 - Mensagem METAR de 'SBKG' para 02/06/2009 as 04(UTC) não localizada na base de dados da REDEMET
2009060205 - Mensagem METAR de 'SBKG' para 02/06/2009 as 05(UTC) não localizada na base de dados da REDEMET
2009060206 - Mensagem METAR de 'SBKG' para 02/06/2009 as 06(UTC) não localizada na base de dados da REDEMET
2009060207 - Mensagem METAR de 'SBKG' para 02/06/2009 as 07(UTC) não localizada na base de dados da REDEMET
2009060208 - Mensagem METAR de 'SBKG' para 02/06/2009 as 08(UTC) não localizada na base de dados da REDEMET
2009060209 - SBKG 020915Z 00000KT 8000 SCT010 BKN015 22/21 Q1015=
2009060210 - SBKG 021000Z 16004KT 3000 BR SCT010 BKN015 22/21 Q1016=
2009060210 - SBKG 021023Z 13003KT 9999 SCT010 BKN015 23/21 Q1016=
2009060211 - SBKG 021100Z 15005KT 9999 SCT010 BKN015 23/21 Q1017 =
2009060212 - SBKG 021200Z 13006KT 9999 SCT015 BKN018 25/21 Q1017=
2009060213 - SBKG 021300Z 12006KT 9999 BKN020 26/21 Q1016=
2009060214 - SBKG 021400Z 12004KT 9999 BKN025 27/21 Q1016=
2009060215 - SBKG 021500Z 12006KT 9999 BKN025 28/22 Q1015=
2009060216 - SBKG 021600Z 13010KT 9999 BKN025 27/23 Q1014=
2009060217 - SBKG 021700Z 14010KT 9999 BKN025 28/23 Q1013 =
2009060218 - SBKG 021800Z 14010KT 9999 BKN025 27/23 Q1014=
2009060219 - SBKG 021900Z 12010KT 9999 BKN025 25/23 Q1014 =
2009060220 - SBKG 022000Z 13008KT 8000 VCSH BKN020 BKN300 24/23 Q1015 =
2009060221 - SBKG 022100Z 14006KT 8000 VCSH SCT020 BKN300 23/22 Q1015=
2009060222 - SBKG 022200Z 13004KT 8000 BKN020 23/21 Q1016=
2009060223 - SBKG 022300Z 14003KT 9000 SCT016 22/22 Q1017=
2009060300 - SBKG 030000Z 14005KT 8000 SCT008 BKN012 22/22 Q1017=
2009060301 - SBKG 030100Z 13006KT 8000 VCSH SCT010 BKN012 22/22 Q1017=
2009060302 - SBKG 030200Z 14006KT 8000 SCT010 BKN012 BKN100 22/22 Q1017=
2009060303 - SBKG 030300Z 15004KT 4000 BR SCT007 BKN010 BKN012 22/22 Q1017=
2009060304 - Mensagem METAR de 'SBKG' para 03/06/2009 as 04(UTC) não localizada na base de dados da REDEMET
2009060305 - Mensagem METAR de 'SBKG' para 03/06/2009 as 05(UTC) não localizada na base de dados da REDEMET
2009060306 - Mensagem METAR de 'SBKG' para 03/06/2009 as 06(UTC) não localizada na base de dados da REDEMET
2009060307 - Mensagem METAR de 'SBKG' para 03/06/2009 as 07(UTC) não localizada na base de dados da REDEMET
2009060308 - Mensagem METAR de 'SBKG' para 03/06/2009 as 08(UTC) não localizada na base de dados da REDEMET
2009060309 - SBKG 030915Z 00000KT 0300 FG BKN003 BKN010 20/20 Q1017=
2009060310 - SBKG 031000Z 16002KT 0800 FG BKN003 BKN010 21/21 Q1017=
2009060310 - SBKG 031019Z 16002KT 5000 BR SCT004 BKN010 22/21 Q1017=
2009060311 - SBKG 031100Z 19002KT 9999 BKN018 23/21 Q1018=
2009060312 - SBKG 031200Z 00000KT 9999 BKN020 24/20 Q1018=
2009060313 - SBKG 031300Z 13004KT 9999 BKN020 26/21 Q1018=
2009060314 - SBKG 031400Z 12006KT 9999 BKN020 28/21 Q1017=
2009060315 - SBKG 031500Z 12005KT 9999 BKN025 29/21 Q1016=
2009060316 - SBKG 031600Z 12006KT 9999 SCT030 29/21 Q1015=
2009060317 - SBKG 031700Z 13006KT 9999 SCT030 30/22 Q1015=
2009060318 - SBKG 031800Z 12006KT 9999 SCT030 30/21 Q1014=
2009060319 - SBKG 031900Z 13008KT 9999 FEW030 29/21 Q1015=
2009060320 - SBKG 032000Z 12006KT 9999 FEW030 27/22 Q1015=
2009060321 - SBKG 032100Z 10006KT 9999 FEW020 25/22 Q1016 =
2009060322 - SBKG 032200Z 13006KT 9999 FEW018 BKN100 24/22 Q1017=
2009060323 - SBKG 032300Z 13007KT 9999 FEW007 SCT016 BKN100 23/23 Q1017 =
2009060400 - SBKG 040000Z 14006KT 5000 BR SCT006 BKN015 BKN100 23/23 Q1018 =
2009060401 - SBKG 040100Z 13006KT 5000 RA BR SCT007 SCT024 BKN080 23/23 Q1018 =
2009060402 - SBKG 040200Z 12005KT 9000 4000S BCFG SCT006 SCT018 BKN080 23/23 Q1018 =
2009060403 - SBKG 040300Z 15003KT 7000 2000S BCFG SCT005 BKN015 BKN080 22/22 Q1018 =
2009060404 - Mensagem METAR de 'SBKG' para 04/06/2009 as 04(UTC) não localizada na base de dados da REDEMET
2009060405 - Mensagem METAR de 'SBKG' para 04/06/2009 as 05(UTC) não localizada na base de dados da REDEMET
2009060406 - Mensagem METAR de 'SBKG' para 04/06/2009 as 06(UTC) não localizada na base de dados da REDEMET
2009060407 - Mensagem METAR de 'SBKG' para 04/06/2009 as 07(UTC) não localizada na base de dados da REDEMET
2009060408 - Mensagem METAR de 'SBKG' para 04/06/2009 as 08(UTC) não localizada na base de dados da REDEMET
2009060409 - SBKG 040915Z 14001KT 9999 FEW008 BKN100 22/21 Q1018=
2009060410 - SBKG 041000Z 18002KT 9999 FEW008 BKN100 22/21 Q1018=
2009060411 - SBKG 041100Z 17004KT 9999 FEW008 BKN015 BKN100 23/22 Q1019=
2009060412 - SBKG 041200Z 15006KT 9999 -RA SCT012 BKN015 BKN100 24/22 Q1020=
2009060413 - SBKG 041300Z 14006KT 9999 -RA SCT012 BKN015 BKN100 24/22 Q1020=
2009060414 - SBKG 041400Z 16009KT 8000 VCSH BKN015 BKN100 25/22 Q1019=
2009060415 - SBKG 041500Z 16010KT 9999 BKN015 BKN100 25/22 Q1019=
2009060416 - SBKG 041600Z 12006KT 8000 VCSH FEW015 SCT018 BKN100 25/23 Q1018 =
2009060417 - SBKG 041700Z 14008KT 9999 SCT016 BKN021 BKN100 26/22 Q1017 =
2009060418 - SBKG 041800Z 15008KT 9999 FEW016 BKN021 BKN100 25/22 Q1016 =
2009060419 - SBKG 041900Z 14008KT 9999 FEW024 SCT100 23/21 Q1016 =
2009060420 - SBKG 042000Z 14004KT 9999 FEW018 SCT080 23/21 Q1017 =
2009060421 - SBKG 042100Z 17006KT 9999 FEW021 SCT080 23/21 Q1017 =
2009060422 - SBKG 042200Z 15007KT 9999 FEW020 BKN080 22/21 Q1018=
2009060423 - SBKG 042300Z 12005KT 9999 FEW015 SCT090 23/20 Q1018=
2009060500 - SBKG 050000Z 13005KT 9999 BKN015 SCT100 21/21 Q1018 =
2009060501 - SBKG 050100Z 12005KT 9999 FEW006 BKN015 21/21 Q1018=
2009060502 - SBKG 050200Z 12005KT 3000 BR OVC006 21/21 Q1018=
2009060503 - SBKG 050300Z 12005KT 9999 OVC006 21/21 Q1018=
2009060504 - Mensagem METAR de 'SBKG' para 05/06/2009 as 04(UTC) não localizada na base de dados da REDEMET
2009060505 - Mensagem METAR de 'SBKG' para 05/06/2009 as 05(UTC) não localizada na base de dados da REDEMET
2009060506 - Mensagem METAR de 'SBKG' para 05/06/2009 as 06(UTC) não localizada na base de dados da REDEMET
2009060507 - Mensagem METAR de 'SBKG' para 05/06/2009 as 07(UTC) não localizada na base de dados da REDEMET
2009060508 - Mensagem METAR de 'SBKG' para 05/06/2009 as 08(UTC) não localizada na base de dados da REDEMET
2009060509 - SBKG 050915Z 14003KT 9000 SCT012 SCT022 21/21 Q1017 =
2009060510 - SBKG 051000Z 13006KT 9999 SCT015 SCT024 22/22 Q1017 =
2009060511 - SBKG 051100Z 16010KT 9999 FEW018 BKN026 24/21 Q1018 =
2009060512 - SBKG 051200Z 13012KT 9999 SCT016 BKN028 26/22 Q1018 =
2009060513 - SBKG 051300Z 14014KT 9999 BKN028 26/22 Q1018 =
2009060514 - SBKG 051400Z 13010KT 8000 VCSH FEW018 BKN026 FEW028TCU 27/23 Q1017 =
2009060515 - SBKG 051500Z 15008KT 5000 -RA SCT010 SCT015 FEW018TCU 25/23 Q1017=
2009060516 - SBKG 051600Z 14008KT 9999 FEW010 FEW020TCU 27/22 Q1016=
2009060517 - SBKG 051700Z 13016KT 9999 8000NE VCSH FEW010 SCT020TCU 26/23 Q1015=
2009060518 - SBKG 051800Z 15013KT 3000 -RA SCT020TCU 25/24 Q1015=
2009060518 - SBKG 051815Z 12007KT 9999 8000NE VCSH SCT020TCU 24/22 Q1015=
2009060519 - SBKG 051900Z 12011KT 9999 8000NW VCSH SCT008 SCT020TCU 23/23 Q1015=
2009060520 - SBKG 052000Z 12003KT 9999 FEW010 FEW020TCU 23/22 Q1016=
2009060521 - SBKG 052100Z 12005KT 9999 FEW009 22/22 Q1016=
2009060522 - SBKG 052200Z 12002KT 9999 FEW006 SCT010 22/21 Q1017=
2009060523 - SBKG 052300Z 13004KT 9999 FEW006 SCT010 22/21 Q1017=
2009060600 - SBKG 060000Z 16004KT 9999 FEW006 SCT010 22/21 Q1018=
2009060601 - SBKG 060100Z 16006KT 2000 -RA BR SCT006 BKN010 OVC070 22/21 Q1018=
2009060602 - SBKG 060200Z 15004KT 5000 BR SCT006 BKN010 22/21 Q1018=
2009060603 - SBKG 060300Z 16005KT 5000 -RA BR SCT006 BKN010 22/21 Q1017=
2009060604 - SBKG 060400Z 18008KT 5000 -RA BR SCT006 BKN010 22/21 Q1017=
2009060605 - SBKG 060500Z 19006KT 5000 -RA BR SCT006 BKN010 22/21 Q1016=
2009060606 - Mensagem METAR de 'SBKG' para 06/06/2009 as 06(UTC) não localizada na base de dados da REDEMET
2009060607 - Mensagem METAR de 'SBKG' para 06/06/2009 as 07(UTC) não localizada na base de dados da REDEMET
2009060608 - Mensagem METAR de 'SBKG' para 06/06/2009 as 08(UTC) não localizada na base de dados da REDEMET
2009060609 - SBKG 060915Z 21007KT 3000 -RA BR BKN011 OVC070 21/21 Q1017=
2009060610 - SBKG 061000Z 21007KT 7000 BKN008 OVC070 21/21 Q1017=
2009060611 - SBKG 061100Z 15007KT 5000 -RA BR SCT008 OVC070 22/21 Q1018=
2009060612 - SBKG 061200Z 15008KT 9999 SCT010 BKN080 24/22 Q1018=
2009060613 - SBKG 061300Z 15008KT 9999 SCT020 25/21 Q1018=
2009060614 - SBKG 061400Z 13008KT 9999 FEW020 26/21 Q1017=
2009060615 - SBKG 061500Z 13009KT 9999 BKN025 26/22 Q1017=
2009060616 - SBKG 061600Z 12010KT 9999 BKN025 28/21 Q1015=
2009060617 - SBKG 061700Z 13012KT 9999 BKN025 29/20 Q1015=
2009060618 - SBKG 061800Z 12005KT 9999 SCT025 28/21 Q1014=
2009060619 - SBKG 061900Z 12008KT 9999 SCT020 27/21 Q1014=
2009060620 - SBKG 062000Z 12006KT 9999 SCT020 26/21 Q1015=
2009060621 - SBKG 062100Z 15008KT 9999 SCT015 SCT020 24/21 Q1015=
2009060622 - SBKG 062200Z 15006KT 9999 SCT017 23/21 Q1016=
2009060623 - SBKG 062300Z 13006KT 9999 SCT017 22/21 Q1017 =
2009060700 - SBKG 070000Z 15006KT 9999 SCT017 22/20 Q1017=
2009060701 - SBKG 070100Z 13006KT 9999 SCT017 22/21 Q1017=
2009060702 - SBKG 070200Z 14006KT 9999 SCT017 22/21 Q1017=
2009060703 - SBKG 070300Z 13002KT 9999 SCT015 21/20 Q1016=
2009060704 - Mensagem METAR de 'SBKG' para 07/06/2009 as 04(UTC) não localizada na base de dados da REDEMET
2009060705 - Mensagem METAR de 'SBKG' para 07/06/2009 as 05(UTC) não localizada na base de dados da REDEMET
2009060706 - Mensagem METAR de 'SBKG' para 07/06/2009 as 06(UTC) não localizada na base de dados da REDEMET
2009060707 - Mensagem METAR de 'SBKG' para 07/06/2009 as 07(UTC) não localizada na base de dados da REDEMET
2009060708 - Mensagem METAR de 'SBKG' para 07/06/2009 as 08(UTC) não localizada na base de dados da REDEMET
2009060709 - SBKG 070915Z 20003KT 9999 BKN015 20/20 Q1016=
2009060710 - SBKG 071000Z 21003KT 9999 8000NE FEW008 22/21 Q1016=
2009060711 - SBKG 071100Z 16005KT 9999 FEW010 23/20 Q1016=
2009060712 - SBKG 071200Z 16008KT 9999 FEW010 24/20 Q1016=
2009060713 - SBKG 071300Z 13010KT 9999 SCT025 26/20 Q1016=
2009060714 - SBKG 071400Z 15009KT 9999 BKN025 27/21 Q1016=
2009060715 - SBKG 071500Z 14011KT 9999 BKN025 27/20 Q1015=
2009060716 - SBKG 071600Z 15010KT 9999 BKN025 27/21 Q1014 =
2009060717 - SBKG 071700Z 15008KT 8000 VCSH SCT020 BKN025 25/21 Q1014 =
2009060718 - SBKG 071800Z 16006KT 9999 SCT020 BKN025 25/21 Q1014 =
2009060719 - SBKG 071900Z 16006KT 9999 BKN020 25/21 Q1014=
2009060720 - SBKG 072000Z 13006KT 9999 BKN020 25/22 Q1014 =
2009060721 - SBKG 072100Z 13006KT 9999 SCT020 24/22 Q1015=
2009060722 - SBKG 072200Z 00000KT 9999 BKN020 23/21 Q1015=
2009060723 - SBKG 072300Z 16002KT 9999 BKN016 BKN020 23/21 Q1016=
2009060800 - SBKG 080000Z 19002KT 9999 BKN018 22/21 Q1017=
2009060801 - SBKG 080100Z 00000KT 9999 SCT016 22/20 Q1016=
2009060802 - SBKG 080200Z 00000KT 9999 FEW016 21/20 Q1016=
2009060803 - SBKG 080300Z 00000KT 9999 FEW016 21/20 Q1016=
2009060804 - Mensagem METAR de 'SBKG' para 08/06/2009 as 04(UTC) não localizada na base de dados da REDEMET
2009060805 - Mensagem METAR de 'SBKG' para 08/06/2009 as 05(UTC) não localizada na base de dados da REDEMET
2009060806 - Mensagem METAR de 'SBKG' para 08/06/2009 as 06(UTC) não localizada na base de dados da REDEMET
2009060807 - Mensagem METAR de 'SBKG' para 08/06/2009 as 07(UTC) não localizada na base de dados da REDEMET
2009060808 - Mensagem METAR de 'SBKG' para 08/06/2009 as 08(UTC) não localizada na base de dados da REDEMET
2009060809 - SBKG 080916Z 19002KT 9999 FEW010 SCT015 20/19 Q1016=
2009060809 - SBKG 080919Z 19002KT 9999 FEW010 SCT015 20/19 Q1016=
2009060809 - SBKG 080920Z 19002KT 9999 FEW010 SCT015 20/19 Q1016=
2009060810 - SBKG 081000Z 16004KT 9999 SCT015 22/20 Q1016=
2009060811 - SBKG 081100Z 13008KT 9999 SCT015 24/20 Q1017=
2009060812 - SBKG 081200Z 12014KT 9999 FEW010 BKN015 26/20 Q1017=
2009060813 - SBKG 081300Z 15010KT 9999 BKN018 26/20 Q1017=
2009060814 - SBKG 081400Z 15010KT 9999 SCT020 26/19 Q1016=
2009060815 - SBKG 081500Z 15012KT 9999 SCT020 28/19 Q1016=
2009060816 - SBKG 081600Z 14010KT 9999 SCT030 28/20 Q1015 =
2009060817 - SBKG 081700Z 15010KT 9999 SCT030 27/20 Q1015 =
2009060818 - SBKG 081800Z 13010KT 9999 SCT030 27/21 Q1014=
2009060819 - SBKG 081900Z 12010KT 9999 FEW030 26/20 Q1014 =
2009060820 - SBKG 082000Z 14010KT 9999 FEW030 25/19 Q1015=
2009060821 - SBKG 082100Z 15008KT 9999 FEW020 SCT100 24/20 Q1015=
2009060822 - SBKG 082200Z 14006KT CAVOK 23/20 Q1015 =
2009060823 - SBKG 082300Z 14007KT 9999 FEW024 BKN100 21/21 Q1016 =
2009060900 - SBKG 090000Z 14006KT CAVOK 22/20 Q1016 =
2009060901 - SBKG 090100Z 14004KT 9999 SCT018 BKN100 21/21 Q1016 =
2009060902 - SBKG 090200Z 14003KT 9999 SCT015 SCT018 BKN100 21/21 Q1016 =
2009060903 - SBKG 090300Z 15006KT 9999 SCT016 BKN100 21/21 Q1016 =
2009060904 - Mensagem METAR de 'SBKG' para 09/06/2009 as 04(UTC) não localizada na base de dados da REDEMET
2009060905 - Mensagem METAR de 'SBKG' para 09/06/2009 as 05(UTC) não localizada na base de dados da REDEMET
2009060906 - Mensagem METAR de 'SBKG' para 09/06/2009 as 06(UTC) não localizada na base de dados da REDEMET
2009060907 - Mensagem METAR de 'SBKG' para 09/06/2009 as 07(UTC) não localizada na base de dados da REDEMET
2009060908 - Mensagem METAR de 'SBKG' para 09/06/2009 as 08(UTC) não localizada na base de dados da REDEMET
2009060909 - SBKG 090915Z 16006KT 9999 FEW015 BKN100 21/20 Q1016=
2009060910 - SBKG 091000Z 16008KT 9999 FEW015 BKN100 22/20 Q1016=
2009060911 - SBKG 091100Z 15014KT 9999 SCT016 BKN100 23/20 Q1017=
2009060912 - SBKG 091200Z 16012KT 9999 SCT018 25/19 Q1017=
2009060913 - SBKG 091300Z 17010KT 9999 FEW022 25/19 Q1017=
2009060914 - SBKG 091400Z 14014KT 9999 SCT025 27/20 Q1017=
2009060915 - SBKG 091500Z 12012KT 9999 SCT025 27/17 Q1016=
2009060916 - SBKG 091600Z 17012KT 9999 SCT032 28/17 Q1016 =
2009060917 - SBKG 091700Z 13008KT 9999 SCT040 28/19 Q1015 =
2009060918 - SBKG 091800Z 14008KT 9999 SCT040 28/18 Q1015 =
2009060919 - SBKG 091900Z 14008KT 9999 SCT028 27/20 Q1015 =
2009060920 - SBKG 092000Z 13004KT 9999 FEW026 BKN090 26/20 Q1015 =
2009060921 - SBKG 092100Z 13006KT CAVOK 24/22 Q1016 =
2009060922 - SBKG 092200Z 12007KT 9999 SCT015 SCT090 23/21 Q1017=
2009060923 - SBKG 092300Z 12007KT 9999 SCT010 SCT090 23/21 Q1018=
2009061000 - SBKG 100000Z 00000KT 9999 SCT010 SCT090 22/21 Q1018=
2009061001 - SBKG 100100Z 00000KT 9999 SCT010 BKN090 22/21 Q1018=
2009061002 - SBKG 100200Z 16005KT 9999 SCT010 BKN080 22/22 Q1018=
2009061003 - SBKG 100300Z 13005KT 9999 SCT010 BKN080 21/21 Q1018=
2009061004 - Mensagem METAR de 'SBKG' para 10/06/2009 as 04(UTC) não localizada na base de dados da REDEMET
2009061005 - Mensagem METAR de 'SBKG' para 10/06/2009 as 05(UTC) não localizada na base de dados da REDEMET
2009061006 - Mensagem METAR de 'SBKG' para 10/06/2009 as 06(UTC) não localizada na base de dados da REDEMET
2009061007 - Mensagem METAR de 'SBKG' para 10/06/2009 as 07(UTC) não localizada na base de dados da REDEMET
2009061008 - Mensagem METAR de 'SBKG' para 10/06/2009 as 08(UTC) não localizada na base de dados da REDEMET
2009061009 - SBKG 100915Z 14004KT 7000 SCT010 BKN080 22/22 Q1017=
2009061010 - SBKG 101000Z 14004KT 7000 FEW010 SCT015 BKN080 22/22 Q1018=
2009061011 - SBKG 101100Z 13005KT 8000 FEW015 BKN080 23/22 Q1019=
2009061012 - SBKG 101200Z 13010KT 9999 FEW014 BKN018 BKN080 24/22 Q1019 =
2009061013 - SBKG 101300Z 14010KT 9999 4900NE VCSH BKN018 SCT100 25/21 Q1019=
2009061014 - SBKG 101400Z 14008KT 9999 4500NE VCSH BKN016 BKN100 25/22 Q1018=
2009061015 - SBKG 101500Z 16008KT 6000 -RA SCT012 BKN015 BKN100 23/21 Q1017=
2009061016 - SBKG 101600Z 17006KT 9999 SCT014 OVC100 24/21 Q1016=
2009061017 - SBKG 101700Z 15010KT 9999 SCT014 OVC100 24/21 Q1016=
2009061018 - SBKG 101800Z 15011KT 9999 SCT015 BKN100 24/21 Q1016=
2009061019 - SBKG 101900Z 12011KT 9999 SCT015 BKN090 24/22 Q1016=
2009061020 - SBKG 102000Z 14007KT 9999 FEW015 BKN070 23/19 Q1016=
2009061021 - SBKG 102100Z 15005KT 9999 FEW015 BKN080 23/19 Q1017=
2009061022 - SBKG 102200Z 13006KT 9999 SCT010 SCT080 23/21 Q1018=
2009061023 - SBKG 102300Z 15006KT 9999 SCT010 23/21 Q1018=
2009061100 - SBKG 110000Z 16004KT 9999 SCT010 21/20 Q1019=
2009061101 - SBKG 110100Z 00000KT 9999 SCT010 21/20 Q1019=
2009061102 - SBKG 110200Z 18002KT 9999 SCT010 20/19 Q1019=
2009061103 - SBKG 110300Z 00000KT 9999 SCT010 20/19 Q1018=
2009061104 - Mensagem METAR de 'SBKG' para 11/06/2009 as 04(UTC) não localizada na base de dados da REDEMET
2009061105 - Mensagem METAR de 'SBKG' para 11/06/2009 as 05(UTC) não localizada na base de dados da REDEMET
2009061106 - Mensagem METAR de 'SBKG' para 11/06/2009 as 06(UTC) não localizada na base de dados da REDEMET
2009061107 - Mensagem METAR de 'SBKG' para 11/06/2009 as 07(UTC) não localizada na base de dados da REDEMET
2009061108 - Mensagem METAR de 'SBKG' para 11/06/2009 as 08(UTC) não localizada na base de dados da REDEMET
2009061109 - SBKG 110915Z 00000KT 7000 SKC 19/19 Q1018 =
2009061110 - SBKG 111000Z 27004KT 9000 SKC 20/20 Q1018 =
2009061111 - SBKG 111100Z 19006KT 9999 SCT021 23/20 Q1019 =
2009061112 - SBKG 111200Z 16007KT 9999 SCT028 24/20 Q1019 =
2009061113 - SBKG 111300Z 18010KT 9999 BKN032 26/20 Q1019 =
2009061114 - SBKG 111400Z 17007KT 9999 BKN034 26/20 Q1019 =
2009061115 - SBKG 111500Z 17008KT 9999 SCT034 SCT090 26/21 Q1018 =
2009061116 - SBKG 111600Z 15006KT 9999 8000SE VCSH SCT015 BKN030 BKN090 28/20 Q1017=
2009061117 - SBKG 111700Z 18008KT 9999 FEW015 SCT025 26/21 Q1017=
2009061118 - SBKG 111800Z 12006KT 9999 SCT025 SCT090 26/21 Q1016=
2009061119 - SBKG 111900Z 19006KT 9999 SCT025 SCT090 26/21 Q1016=
2009061120 - SBKG 112000Z 19002KT 9999 SCT020 BKN300 25/21 Q1016=
2009061121 - SBKG 112100Z 22004KT 9999 SCT015 BKN020 24/21 Q1017=
2009061122 - SBKG 112200Z 18006KT 3000 -RA SCT010 BKN015 23/22 Q1017 =
2009061123 - SBKG 112300Z 22006KT 3000 RA SCT010 BKN015 BKN090 23/22 Q1018 =
2009061123 - SBKG 112330Z 18006KT 6000 SCT015 BKN090 23/22 Q1018 RERA =
2009061200 - SBKG 120000Z 18004KT 6000 SCT015 BKN090 23/22 Q1018 RERA =
2009061201 - SBKG 120100Z 21004KT 9999 SCT015 BKN090 22/21 Q1018=
2009061202 - SBKG 120200Z 20004KT 9999 SCT015 BKN090 22/21 Q1018=
2009061203 - SBKG 120300Z 17004KT 9999 SCT015 BKN090 22/21 Q1018=
2009061204 - Mensagem METAR de 'SBKG' para 12/06/2009 as 04(UTC) não localizada na base de dados da REDEMET
2009061205 - Mensagem METAR de 'SBKG' para 12/06/2009 as 05(UTC) não localizada na base de dados da REDEMET
2009061206 - Mensagem METAR de 'SBKG' para 12/06/2009 as 06(UTC) não localizada na base de dados da REDEMET
2009061207 - Mensagem METAR de 'SBKG' para 12/06/2009 as 07(UTC) não localizada na base de dados da REDEMET
2009061208 - Mensagem METAR de 'SBKG' para 12/06/2009 as 08(UTC) não localizada na base de dados da REDEMET
2009061209 - SBKG 120915Z 28002KT 9999 SCT006 BKN010 BKN015 21/20 Q1017=
2009061210 - SBKG 121000Z 28004KT 9999 FEW006 SCT010 BKN080 21/20 Q1018=
2009061211 - SBKG 121100Z 25004KT 3000 -RA BR SCT006 BKN010 OVC080 21/20 Q1019=
2009061212 - SBKG 121200Z 28005KT 9999 SCT010 BKN015 BKN090 22/20 Q1019 =
2009061213 - SBKG 121300Z 22006KT 9999 8000SE VCSH SCT010 BKN015 BKN090 22/20 Q1019=
2009061214 - SBKG 121400Z 25006KT 8000 VCSH SCT010 BKN015 22/21 Q1018=
2009061215 - SBKG 121500Z 16006KT 9999 SCT010 BKN018 23/20 Q1018=
2009061216 - SBKG 121600Z 20006KT 9999 BKN020 BKN100 25/21 Q1017=
2009061217 - SBKG 121700Z 18008KT 9999 BKN020 BKN100 25/21 Q1016=
2009061218 - SBKG 121800Z 20006KT 9999 BKN020 BKN100 25/21 Q1016 =
2009061219 - SBKG 121900Z 20006KT 9999 BKN020 BKN100 25/22 Q1016=
2009061220 - SBKG 122000Z 27006KT 9999 SCT015 BKN020 BKN100 25/22 Q1016 =
2009061221 - SBKG 122100Z 20006KT 9999 SCT017 BKN100 23/21 Q1016 =
2009061222 - SBKG 122200Z 24008KT 9999 BKN020 OVC100 23/20 Q1017=
2009061223 - SBKG 122300Z 22004KT 9999 BKN020 SCT100 22/20 Q1017=
2009061300 - SBKG 130000Z 24004KT 9999 BKN018 OVC070 22/21 Q1018=
2009061301 - SBKG 130100Z 00000KT CAVOK 21/20 Q1018=
2009061302 - SBKG 130200Z 00000KT CAVOK 20/19 Q1018=
2009061303 - SBKG 130300Z 00000KT CAVOK 20/19 Q1018=
2009061304 - Mensagem METAR de 'SBKG' para 13/06/2009 as 04(UTC) não localizada na base de dados da REDEMET
2009061305 - Mensagem METAR de 'SBKG' para 13/06/2009 as 05(UTC) não localizada na base de dados da REDEMET
2009061306 - Mensagem METAR de 'SBKG' para 13/06/2009 as 06(UTC) não localizada na base de dados da REDEMET
2009061307 - Mensagem METAR de 'SBKG' para 13/06/2009 as 07(UTC) não localizada na base de dados da REDEMET
2009061308 - Mensagem METAR de 'SBKG' para 13/06/2009 as 08(UTC) não localizada na base de dados da REDEMET
2009061309 - SBKG 130915Z 28002KT 9999 SCT015 20/19 Q1017=
2009061309 - SBKG 130927Z 28002KT 9999 SCT015 20/19 Q1017=
2009061310 - SBKG 131000Z 28002KT 9999 FEW015 SCT018 21/19 Q1017=
2009061311 - SBKG 131100Z 25008KT 9999 BKN018 22/19 Q1018=
2009061312 - SBKG 131200Z 22005KT 9999 BKN020 23/20 Q1018=
2009061313 - SBKG 131300Z 18008KT 9999 BKN020 25/19 Q1016=
2009061314 - SBKG 131400Z 19004KT 9999 BKN020 26/20 Q1017=
2009061315 - SBKG 131500Z 25006KT 9999 BKN020 26/19 Q1016=
2009061316 - SBKG 131600Z 18006KT 9999 BKN025 27/20 Q1015 =
2009061317 - SBKG 131700Z 14006KT 9999 BKN025 27/21 Q1015 =
2009061318 - SBKG 131800Z 16006KT 9999 BKN025 27/22 Q1014=
2009061319 - SBKG 131900Z 14010KT 9999 SCT025 26/22 Q1015 =
2009061320 - SBKG 132000Z 14008KT 9999 FEW025 25/22 Q1015 =
2009061321 - SBKG 132100Z 13006KT 9999 FEW020 24/21 Q1015=
2009061322 - SBKG 132200Z 13006KT CAVOK 22/21 Q1016 =
2009061323 - SBKG 132300Z 13006KT CAVOK 22/21 Q1016 =
2009061400 - SBKG 140000Z 14002KT 8000 SCT015 SCT028 21/21 Q1017 =
2009061401 - SBKG 140100Z 13004KT 9999 SCT016 BKN024 22/21 Q1017 =
2009061402 - SBKG 140200Z 14004KT 9999 BKN018 21/21 Q1017 =
2009061403 - SBKG 140300Z 14006KT 9999 SCT021 21/20 Q1017 =
2009061404 - Mensagem METAR de 'SBKG' para 14/06/2009 as 04(UTC) não localizada na base de dados da REDEMET
2009061405 - Mensagem METAR de 'SBKG' para 14/06/2009 as 05(UTC) não localizada na base de dados da REDEMET
2009061406 - Mensagem METAR de 'SBKG' para 14/06/2009 as 06(UTC) não localizada na base de dados da REDEMET
2009061407 - Mensagem METAR de 'SBKG' para 14/06/2009 as 07(UTC) não localizada na base de dados da REDEMET
2009061408 - Mensagem METAR de 'SBKG' para 14/06/2009 as 08(UTC) não localizada na base de dados da REDEMET
2009061409 - SBKG 140915Z 16002KT 9999 FEW017 21/20 Q1017 =
2009061410 - SBKG 141000Z 15004KT 9999 SCT015 BKN017 21/20 Q1017=
2009061411 - SBKG 141100Z 16006KT 9999 BKN020 23/20 Q1018 =
2009061412 - SBKG 141200Z 16010KT 9999 BKN020 24/21 Q1018=
2009061413 - SBKG 141300Z 17010KT 9999 BKN020 24/21 Q1018=
2009061414 - SBKG 141400Z 18010KT 9999 BKN025 26/21 Q1017 =
2009061415 - SBKG 141500Z 18010KT 9999 BKN025 26/20 Q1017 =
2009061416 - SBKG 141600Z 16010KT 9999 BKN028 27/20 Q1016 =
2009061417 - SBKG 141700Z 18012KT 9999 BKN032 SCT090 27/19 Q1015 =
2009061418 - SBKG 141800Z 15006KT 9999 SCT034 27/19 Q1015 =
2009061419 - SBKG 141900Z 15008KT 9999 FEW036 27/21 Q1015 =
2009061420 - SBKG 142000Z 14005KT CAVOK 26/19 Q1015 =
2009061421 - SBKG 142100Z 13004KT CAVOK 24/20 Q1016 =
2009061422 - SBKG 142200Z 11005KT CAVOK 22/19 Q1016=
2009061423 - SBKG 142300Z 12005KT CAVOK 22/18 Q1017=
2009061500 - SBKG 150000Z 13007KT CAVOK 20/19 Q1018=
2009061501 - SBKG 150100Z 13005KT CAVOK 20/20 Q1018=
2009061502 - SBKG 150200Z 12004KT CAVOK 20/19 Q1018=
2009061503 - SBKG 150300Z 15007KT 9999 SCT020 BKN080 21/19 Q1017=
2009061504 - Mensagem METAR de 'SBKG' para 15/06/2009 as 04(UTC) não localizada na base de dados da REDEMET
2009061505 - Mensagem METAR de 'SBKG' para 15/06/2009 as 05(UTC) não localizada na base de dados da REDEMET
2009061506 - Mensagem METAR de 'SBKG' para 15/06/2009 as 06(UTC) não localizada na base de dados da REDEMET
2009061507 - Mensagem METAR de 'SBKG' para 15/06/2009 as 07(UTC) não localizada na base de dados da REDEMET
2009061508 - Mensagem METAR de 'SBKG' para 15/06/2009 as 08(UTC) não localizada na base de dados da REDEMET
2009061509 - SBKG 150915Z 14002KT 7000 SCT014 SCT016 19/19 Q1016 =
2009061510 - SBKG 151000Z 17008KT 9000 SCT014 SCT018 BKN100 20/20 Q1017 =
2009061511 - SBKG 151100Z 17010KT 9999 SCT022 22/20 Q1018 =
2009061512 - SBKG 151200Z 15012KT 9999 SCT024 25/20 Q1018 =
2009061513 - SBKG 151300Z 16010KT 9999 BKN028 27/20 Q1018 =
2009061514 - SBKG 151400Z 14012KT 9999 SCT032 28/20 Q1018 =
2009061515 - SBKG 151500Z 16014KT 9999 SCT032 27/19 Q1017 =
2009061516 - SBKG 151600Z 15011KT 9999 SCT030 28/18 Q1016=
2009061517 - SBKG 151700Z 12010KT 9999 SCT030 27/18 Q1015=
2009061518 - SBKG 151800Z 15015KT 9999 FEW025 27/18 Q1015=
2009061519 - SBKG 151900Z 13010KT 9999 FEW025 26/18 Q1015=
2009061520 - SBKG 152000Z 15007KT 9999 FEW020 25/18 Q1016=
2009061521 - SBKG 152100Z 13005KT 9999 FEW015 23/19 Q1016=
2009061522 - SBKG 152200Z 15006KT 9999 FEW015 22/18 Q1017=
2009061523 - SBKG 152300Z 15006KT 9999 FEW015 21/18 Q1017=
2009061600 - SBKG 160000Z 13006KT 9999 SCT010 21/18 Q1018=
2009061601 - SBKG 160100Z 13004KT 9999 SCT010 21/18 Q1018=
2009061602 - SBKG 160200Z 12004KT 9999 SCT010 21/20 Q1018=
2009061603 - SBKG 160300Z 12002KT 9999 SCT010 21/20 Q1017=
2009061604 - Mensagem METAR de 'SBKG' para 16/06/2009 as 04(UTC) não localizada na base de dados da REDEMET
2009061605 - Mensagem METAR de 'SBKG' para 16/06/2009 as 05(UTC) não localizada na base de dados da REDEMET
2009061606 - Mensagem METAR de 'SBKG' para 16/06/2009 as 06(UTC) não localizada na base de dados da REDEMET
2009061607 - Mensagem METAR de 'SBKG' para 16/06/2009 as 07(UTC) não localizada na base de dados da REDEMET
2009061608 - Mensagem METAR de 'SBKG' para 16/06/2009 as 08(UTC) não localizada na base de dados da REDEMET
2009061609 - SBKG 160915Z 16007KT 8000 BKN010 20/20 Q1017=
2009061610 - SBKG 161000Z 16002KT 9999 SCT008 SCT011 20/20 Q1017=
2009061611 - SBKG 161100Z 13007KT 9999 SCT010 22/20 Q1018=
2009061612 - SBKG 161200Z 15010KT 9999 FEW010 SCT020 23/20 Q1018=
2009061613 - SBKG 161300Z 13011KT 9999 SCT024 25/20 Q1018=
2009061614 - SBKG 161400Z 16010KT 9999 SCT025 26/20 Q1017=
2009061615 - SBKG 161500Z 12009KT 9999 SCT025 27/19 Q1016=
2009061616 - SBKG 161600Z 15010KT 9999 BKN025 26/20 Q1016=
2009061617 - SBKG 161700Z 13010KT 9999 FEW015 BKN025 28/20 Q1015=
2009061618 - SBKG 161800Z 15010KT 9999 BKN025 27/19 Q1015=
2009061619 - SBKG 161900Z 15010KT 9999 SCT020 26/19 Q1015=
2009061620 - SBKG 162000Z 15010KT 9999 FEW020 25/19 Q1015=
2009061621 - SBKG 162100Z 16004KT 9999 FEW020 23/19 Q1016=
2009061622 - SBKG 162200Z 16004KT 9999 FEW020 22/19 Q1017=
2009061623 - SBKG 162300Z 16004KT 9999 FEW020 21/19 Q1017=
2009061700 - SBKG 170000Z 14002KT CAVOK 21/20 Q1017=
2009061701 - SBKG 170100Z 14002KT CAVOK 20/19 Q1017=
2009061702 - SBKG 170200Z 13002KT CAVOK 20/19 Q1017=
2009061703 - SBKG 170300Z 12002KT CAVOK 20/20 Q1017=
2009061704 - Mensagem METAR de 'SBKG' para 17/06/2009 as 04(UTC) não localizada na base de dados da REDEMET
2009061705 - Mensagem METAR de 'SBKG' para 17/06/2009 as 05(UTC) não localizada na base de dados da REDEMET
2009061706 - Mensagem METAR de 'SBKG' para 17/06/2009 as 06(UTC) não localizada na base de dados da REDEMET
2009061707 - Mensagem METAR de 'SBKG' para 17/06/2009 as 07(UTC) não localizada na base de dados da REDEMET
2009061708 - Mensagem METAR de 'SBKG' para 17/06/2009 as 08(UTC) não localizada na base de dados da REDEMET
2009061709 - SBKG 170915Z 00000KT CAVOK 18/18 Q1017=
2009061710 - SBKG 171000Z 00000KT CAVOK 20/19 Q1017=
2009061711 - SBKG 171100Z 21007KT 9999 FEW010 22/19 Q1018=
2009061712 - SBKG 171200Z 16004KT 9999 BKN016 23/20 Q1018=
2009061713 - SBKG 171300Z 14005KT 9999 BKN020 25/19 Q1018=
2009061714 - SBKG 171400Z 12007KT 9999 SCT025 27/20 Q1017=
2009061715 - SBKG 171500Z 12007KT 9999 FEW025 SCT027 28/20 Q1016=
2009061716 - SBKG 171600Z 13008KT 9999 BKN025 28/21 Q1015=
2009061717 - SBKG 171700Z 14010KT 9999 BKN025 27/21 Q1015=
2009061718 - SBKG 171800Z 14008KT 9999 BKN025 26/21 Q1015=
2009061719 - SBKG 171900Z 13006KT 9999 SCT025 25/22 Q1015 =
2009061720 - SBKG 172000Z 16006KT 9999 BKN020 BKN100 25/22 Q1016=
2009061721 - SBKG 172100Z 17004KT 9999 FEW020 SCT100 24/21 Q1016 =
2009061722 - SBKG 172200Z 00000KT 9999 SCT015 23/20 Q1016=
2009061723 - SBKG 172300Z 13004KT 9999 SCT015 23/20 Q1017=
2009061800 - SBKG 180000Z 12004KT 9999 FEW015 22/21 Q1017=
2009061801 - SBKG 180100Z 12005KT 9999 FEW010 22/21 Q1017=
2009061802 - SBKG 180200Z 00000KT CAVOK 21/20 Q1017=
2009061803 - SBKG 180300Z 00000KT CAVOK 21/20 Q1017=
2009061804 - Mensagem METAR de 'SBKG' para 18/06/2009 as 04(UTC) não localizada na base de dados da REDEMET
2009061805 - Mensagem METAR de 'SBKG' para 18/06/2009 as 05(UTC) não localizada na base de dados da REDEMET
2009061806 - Mensagem METAR de 'SBKG' para 18/06/2009 as 06(UTC) não localizada na base de dados da REDEMET
2009061807 - Mensagem METAR de 'SBKG' para 18/06/2009 as 07(UTC) não localizada na base de dados da REDEMET
2009061808 - Mensagem METAR de 'SBKG' para 18/06/2009 as 08(UTC) não localizada na base de dados da REDEMET
2009061809 - SBKG 180915Z 24004KT 9999 SCT020 22/21 Q1017=
2009061810 - SBKG 181000Z 18002KT 9999 SCT020 22/21 Q1017 =
2009061811 - SBKG 181100Z 16004KT 9999 SCT020 22/20 Q1017 =
2009061812 - SBKG 181200Z 18004KT 9999 FEW020 24/21 Q1017=
2009061813 - SBKG 181300Z 16004KT 9999 FEW030 27/20 Q1017=
2009061814 - SBKG 181400Z 14006KT 9999 FEW030 28/20 Q1016 =
2009061815 - SBKG 181500Z 14006KT 9999 FEW040 28/19 Q1016 =
2009061816 - SBKG 181600Z 12006KT 9999 SCT040 29/20 Q1015=
2009061817 - SBKG 181700Z 15006KT 9999 SCT040 29/20 Q1014=
2009061818 - SBKG 181800Z 12008KT 9999 SCT030 29/19 Q1014=
2009061819 - SBKG 181900Z 12006KT 9999 SCT010 28/19 Q1015=
2009061820 - SBKG 182000Z 13004KT 9999 FEW015 27/19 Q1015=
2009061821 - SBKG 182100Z 12006KT 9999 SCT015 SCT020 25/19 Q1016=
2009061822 - SBKG 182200Z 12002KT 9999 SCT021 24/21 Q1016 =
2009061823 - SBKG 182300Z 13006KT 9999 SCT024 23/21 Q1017 =
2009061900 - SBKG 190000Z 13008KT 9999 SCT028 SCT090 22/22 Q1018 =
2009061901 - SBKG 190100Z 13006KT 9999 SCT014 BKN018 22/22 Q1018 =
2009061902 - SBKG 190200Z 16004KT 9999 FEW018 BKN090 21/21 Q1018 =
2009061903 - SBKG 190300Z 13002KT CAVOK 21/21 Q1018 =
2009061904 - Mensagem METAR de 'SBKG' para 19/06/2009 as 04(UTC) não localizada na base de dados da REDEMET
2009061905 - Mensagem METAR de 'SBKG' para 19/06/2009 as 05(UTC) não localizada na base de dados da REDEMET
2009061906 - Mensagem METAR de 'SBKG' para 19/06/2009 as 06(UTC) não localizada na base de dados da REDEMET
2009061907 - Mensagem METAR de 'SBKG' para 19/06/2009 as 07(UTC) não localizada na base de dados da REDEMET
2009061908 - Mensagem METAR de 'SBKG' para 19/06/2009 as 08(UTC) não localizada na base de dados da REDEMET
2009061909 - SBKG 190916Z 27004KT 9999 SCT017 BKN100 21/20 Q1017 =
2009061910 - SBKG 191000Z 26004KT 9999 SCT020 BKN100 21/20 Q1018=
2009061911 - SBKG 191100Z 20006KT 9999 SCT020 SCT100 23/20 Q1018=
2009061912 - SBKG 191200Z 18010KT 9999 SCT025 24/20 Q1019=
2009061913 - SBKG 191300Z 17008KT 9999 BKN025 25/21 Q1018=
2009061914 - SBKG 191400Z 16006KT 9999 SCT025 26/21 Q1018=
2009061915 - SBKG 191500Z 16008KT 9999 BKN025 27/21 Q1017=
2009061916 - SBKG 191600Z 16011KT 9999 8000W VCSH FEW016 BKN026 FEW028TCU 26/20 Q1016 =
2009061917 - SBKG 191700Z 17006KT 9999 FEW024 SCT100 25/21 Q1016 =
2009061918 - SBKG 191800Z 16008KT 9999 VCSH SCT026 FEW028TCU SCT100 26/21 Q1015 =
2009061919 - SBKG 191900Z 17006KT 9999 SCT028 BKN100 23/21 Q1015 =
2009061920 - SBKG 192000Z 15006KT 9999 FEW018 BKN100 23/21 Q1016 =
2009061921 - SBKG 192100Z 14006KT 9999 FEW016 SCT100 23/21 Q1016 =
2009061922 - SBKG 192200Z 16010KT 9000 -RA SCT015 SCT100 21/21 Q1017=
2009061923 - SBKG 192300Z 15007KT 8000 -RA SCT015 SCT090 21/20 Q1018=
2009062000 - SBKG 200000Z 15007KT 9999 SCT015 BKN080 21/20 Q1018=
2009062001 - SBKG 200100Z 16005KT 9999 SCT015 SCT080 21/19 Q1018=
2009062002 - SBKG 200200Z 17005KT 9999 SCT010 BKN080 20/20 Q1018=
2009062003 - SBKG 200300Z 18007KT 9999 SCT008 SCT080 20/19 Q1018=
2009062004 - Mensagem METAR de 'SBKG' para 20/06/2009 as 04(UTC) não localizada na base de dados da REDEMET
2009062005 - Mensagem METAR de 'SBKG' para 20/06/2009 as 05(UTC) não localizada na base de dados da REDEMET
2009062006 - Mensagem METAR de 'SBKG' para 20/06/2009 as 06(UTC) não localizada na base de dados da REDEMET
2009062007 - Mensagem METAR de 'SBKG' para 20/06/2009 as 07(UTC) não localizada na base de dados da REDEMET
2009062008 - Mensagem METAR de 'SBKG' para 20/06/2009 as 08(UTC) não localizada na base de dados da REDEMET
2009062009 - SBKG 200915Z 16004KT 7000 VCSH SCT012 SCT015 BKN080 20/20 Q1017 =
2009062010 - SBKG 201000Z 15004KT 5000 VCSH SCT010 BKN018 BKN080 20/20 Q1018 =
2009062011 - SBKG 201100Z 18006KT 9000 SCT014 BKN018 BKN090 22/21 Q1018 =
2009062012 - SBKG 201200Z 15010KT 9999 SCT014 BKN018 BKN080 23/21 Q1018 =
2009062013 - SBKG 201300Z 16012KT 8000 VCSH SCT007 BKN016 FEW021TCU BKN080 23/21 Q1018 =
2009062014 - SBKG 201400Z 15008KT 8000 VCSH SCT008 BKN018 FEW022TCU BKN080 23/22 Q1018 =
2009062015 - SBKG 201500Z 16008KT 9999 SCT016 BKN021 BKN080 25/22 Q1017 =
2009062016 - SBKG 201600Z 16016KT 9999 8000W VCSH BKN016 SCT080 26/21 Q1016=
2009062017 - SBKG 201700Z 13008KT 9999 SCT016 SCT070 26/19 Q1016=
2009062018 - SBKG 201800Z 12005KT 9999 FEW016 25/20 Q1015=
2009062019 - SBKG 201900Z 12005KT 9999 FEW015 24/20 Q1015=
2009062020 - SBKG 202000Z 13007KT CAVOK 24/20 Q1016=
2009062021 - SBKG 202100Z 12007KT CAVOK 23/21 Q1016=
2009062022 - SBKG 202200Z 13006KT 9999 FEW015 23/20 Q1017=
2009062023 - SBKG 202300Z 15006KT 9999 FEW015 22/19 Q1017=
2009062100 - SBKG 210000Z 15005KT 9999 FEW015 21/20 Q1018=
2009062101 - SBKG 210100Z 16005KT 9999 FEW015 21/20 Q1018=
2009062102 - SBKG 210200Z 16006KT 9999 FEW015 21/20 Q1018=
2009062103 - SBKG 210300Z 16004KT 9999 FEW015 21/20 Q1018=
2009062104 - Mensagem METAR de 'SBKG' para 21/06/2009 as 04(UTC) não localizada na base de dados da REDEMET
2009062105 - Mensagem METAR de 'SBKG' para 21/06/2009 as 05(UTC) não localizada na base de dados da REDEMET
2009062106 - Mensagem METAR de 'SBKG' para 21/06/2009 as 06(UTC) não localizada na base de dados da REDEMET
2009062107 - Mensagem METAR de 'SBKG' para 21/06/2009 as 07(UTC) não localizada na base de dados da REDEMET
2009062108 - Mensagem METAR de 'SBKG' para 21/06/2009 as 08(UTC) não localizada na base de dados da REDEMET
2009062109 - SBKG 210915Z 00000KT CAVOK 18/18 Q1016 =
2009062110 - SBKG 211000Z 23006KT CAVOK 20/19 Q1017 =
2009062111 - SBKG 211100Z 21008KT 9999 SCT015 22/19 Q1017 =
2009062112 - SBKG 211200Z 17010KT 9999 BKN028 SCT080 24/19 Q1018 =
2009062113 - SBKG 211300Z 17012KT 9999 SCT032 SCT090 25/19 Q1018 =
2009062114 - SBKG 211400Z 18012KT 9999 BKN028 BKN100 25/19 Q1017 =
2009062115 - SBKG 211500Z 18010KT 9999 SCT026 BKN100 25/20 Q1017 =
2009062116 - SBKG 211600Z 16009KT 9999 SCT026 26/21 Q1016=
2009062117 - SBKG 211700Z 16011KT 9999 8000E VCSH SCT020 SCT090 24/21 Q1015=
2009062118 - SBKG 211800Z 13005KT 9999 7000E VCSH SCT020 FEW025TCU 24/21 Q1015=
2009062119 - SBKG 211900Z 16008KT 5000 -RA SCT015 BKN025TCU 24/21 Q1015=
2009062119 - SBKG 211925Z 12008KT 2000 -RA SCT012 BKN025TCU 24/22 Q1015 =
2009062120 - SBKG 212000Z 17008KT 9999 6000N VCSH SCT012 SCT025TCU 21/21 Q1015=
2009062121 - SBKG 212100Z 18004KT 9999 SCT010 SCT080 21/21 Q1016=
2009062122 - SBKG 212200Z 16004KT 9999 SCT015 21/20 Q1016=
2009062123 - SBKG 212300Z 18004KT 9999 SCT015 21/20 Q1017 =
2009062200 - SBKG 220000Z 17004KT 9999 SCT015 21/20 Q1017=
2009062201 - SBKG 220100Z 17006KT 9999 SCT015 21/20 Q1017=
2009062202 - SBKG 220200Z 16006KT 9999 BKN015 21/20 Q1017=
2009062203 - SBKG 220300Z 16006KT 9999 SCT015 21/20 Q1017=
2009062204 - Mensagem METAR de 'SBKG' para 22/06/2009 as 04(UTC) não localizada na base de dados da REDEMET
2009062205 - Mensagem METAR de 'SBKG' para 22/06/2009 as 05(UTC) não localizada na base de dados da REDEMET
2009062206 - Mensagem METAR de 'SBKG' para 22/06/2009 as 06(UTC) não localizada na base de dados da REDEMET
2009062207 - Mensagem METAR de 'SBKG' para 22/06/2009 as 07(UTC) não localizada na base de dados da REDEMET
2009062208 - Mensagem METAR de 'SBKG' para 22/06/2009 as 08(UTC) não localizada na base de dados da REDEMET
2009062209 - SBKG 220915Z 15005KT 9999 BKN010 20/20 Q1015=
2009062210 - SBKG 221000Z 16007KT 9999 SCT010 21/20 Q1015=
2009062211 - SBKG 221100Z 15011KT 9999 BKN015 22/20 Q1016=
2009062212 - SBKG 221200Z 15011KT 9999 SCT018 23/20 Q1017=
2009062213 - SBKG 221300Z 16009KT 9999 SCT020 SCT070 25/19 Q1017=
2009062214 - SBKG 221400Z 18011KT 9999 FEW020 SCT024 26/19 Q1016=
2009062215 - SBKG 221500Z 13019KT 9999 7000S VCSH SCT016 BKN018 25/20 Q1016=
2009062216 - SBKG 221600Z 14008KT 9999 6000S VCSH SCT015 BKN020 24/20 Q1016 =
2009062216 - SBKG 221635Z 18006KT 3000 -RA SCT015 BKN020 23/22 Q1015=
2009062217 - SBKG 221700Z 18010KT 6000 VCSH SCT015 BKN020 23/21 Q1015=
2009062218 - SBKG 221800Z 18012KT 9999 SCT020 23/21 Q1014=
2009062219 - SBKG 221900Z 17010KT 9999 SCT020 23/21 Q1014=
2009062220 - SBKG 222000Z 16006KT 9999 SCT020 23/21 Q1014=
2009062221 - SBKG 222100Z 16004KT 9999 SCT015 SCT020 23/21 Q1015=
2009062222 - SBKG 222200Z 12010KT 3000 -RA BR SCT006 BKN010 BKN015 22/21 Q1016=
2009062223 - SBKG 222300Z 13010KT 3000 -RA BR SCT006 BKN010 BKN015 21/20 Q1017=
2009062223 - SBKG 222323Z 12010KT 2000 -RA BR SCT006 BKN010 OVC070 21/20 Q1017=
2009062300 - SBKG 230000Z 12010KT 2000 -RA BR SCT004 BKN010 BKN012 21/21 Q1018=
2009062301 - SBKG 230100Z 12006KT 5000 -RA BR FEW006 BKN010 BKN015 20/20 Q1018=
2009062302 - SBKG 230200Z 12002KT 8000 SCT006 SCT010 20/19 Q1018 RERA=
2009062303 - SBKG 230300Z 16006KT 8000 FEW006 SCT010 20/19 Q1017=
2009062304 - Mensagem METAR de 'SBKG' para 23/06/2009 as 04(UTC) não localizada na base de dados da REDEMET
2009062305 - Mensagem METAR de 'SBKG' para 23/06/2009 as 05(UTC) não localizada na base de dados da REDEMET
2009062306 - Mensagem METAR de 'SBKG' para 23/06/2009 as 06(UTC) não localizada na base de dados da REDEMET
2009062307 - Mensagem METAR de 'SBKG' para 23/06/2009 as 07(UTC) não localizada na base de dados da REDEMET
2009062308 - Mensagem METAR de 'SBKG' para 23/06/2009 as 08(UTC) não localizada na base de dados da REDEMET
2009062309 - SBKG 230915Z 18006KT 5000 BR SCT010 BKN015 20/19 Q1016=
2009062310 - SBKG 231000Z 17004KT 5000 BR SCT010 BKN015 20/20 Q1017=
2009062311 - SBKG 231100Z 14006KT 6000 SCT015 BKN017 21/20 Q1018=
2009062312 - SBKG 231200Z 13006KT 8000 SCT015 BKN017 BKN090 23/21 Q1018=
2009062313 - SBKG 231300Z 14008KT 9999 SCT015 BKN020 BKN090 24/21 Q1019 =
2009062314 - SBKG 231400Z 15010KT 9999 BKN020 26/22 Q1018=
2009062315 - SBKG 231500Z 13010KT 9999 BKN025 27/22 Q1017=
2009062316 - SBKG 231600Z 15006KT 9999 BKN025 28/20 Q1016=
2009062317 - SBKG 231700Z 13010KT 9999 SCT025 28/20 Q1015=
2009062318 - SBKG 231800Z 13010KT 9999 SCT025 27/21 Q1015=
2009062319 - SBKG 231900Z 12006KT 9999 SCT020 26/21 Q1015=
2009062320 - SBKG 232000Z 12006KT 9999 FEW015 SCT020 25/20 Q1015=
2009062321 - SBKG 232100Z 12002KT 9999 SCT015 SCT020 23/20 Q1016=
2009062322 - SBKG 232200Z 16002KT CAVOK 22/21 Q1016 =
2009062323 - SBKG 232300Z 13004KT CAVOK 21/21 Q1017 =
2009062400 - SBKG 240000Z 14004KT 9999 SCT021 21/21 Q1018 =
2009062401 - SBKG 240100Z 00000KT 9999 FEW008 SCT018 20/20 Q1018 =
2009062402 - SBKG 240200Z 15004KT 9999 FEW007 20/20 Q1017 =
2009062403 - SBKG 240300Z 17003KT 9999 FEW006 SCT015 20/20 Q1017 =
2009062404 - Mensagem METAR de 'SBKG' para 24/06/2009 as 04(UTC) não localizada na base de dados da REDEMET
2009062405 - Mensagem METAR de 'SBKG' para 24/06/2009 as 05(UTC) não localizada na base de dados da REDEMET
2009062406 - Mensagem METAR de 'SBKG' para 24/06/2009 as 06(UTC) não localizada na base de dados da REDEMET
2009062407 - Mensagem METAR de 'SBKG' para 24/06/2009 as 07(UTC) não localizada na base de dados da REDEMET
2009062408 - Mensagem METAR de 'SBKG' para 24/06/2009 as 08(UTC) não localizada na base de dados da REDEMET
2009062409 - SBKG 240915Z 14006KT 9999 BKN017 20/19 Q1017=
2009062410 - SBKG 241000Z 13006KT 9999 SCT020 21/20 Q1017=
2009062411 - SBKG 241100Z 13006KT 9999 BKN020 23/21 Q1018 =
2009062412 - SBKG 241200Z 16010KT 9999 BKN025 25/20 Q1018=
2009062413 - SBKG 241300Z 16010KT 9999 BKN025 26/21 Q1018=
2009062414 - SBKG 241400Z 15010KT 9999 BKN025 BKN090 25/21 Q1018=
2009062415 - SBKG 241500Z 13008KT 9999 BKN025 26/21 Q1017=
2009062416 - SBKG 241600Z 15005KT 9999 BKN026 FEW028TCU 27/22 Q1016 =
2009062417 - SBKG 241700Z 14008KT 8000 VCSH SCT024 FEW026TCU 26/23 Q1015 =
2009062418 - SBKG 241800Z 15010KT 9999 8000NE VCSH SCT022 FEW025TCU 25/22 Q1015 =
2009062419 - SBKG 241900Z 16010KT 9999 FEW032 26/21 Q1015 =
2009062420 - SBKG 242000Z 15008KT CAVOK 25/20 Q1015 =
2009062421 - SBKG 242100Z 16006KT CAVOK 23/21 Q1016 =
2009062422 - SBKG 242200Z 13006KT 9999 FEW020 22/20 Q1016=
2009062423 - SBKG 242300Z 13007KT 9999 FEW015 22/21 Q1017=
2009062500 - SBKG 250000Z 13007KT CAVOK 22/20 Q1017=
2009062501 - SBKG 250100Z 15013KT 9999 FEW007 SCT080 21/20 Q1018=
2009062502 - SBKG 250200Z 14005KT 9999 SCT010 21/20 Q1018=
2009062503 - SBKG 250300Z 12003KT 9999 SCT009 21/20 Q1018=
2009062504 - Mensagem METAR de 'SBKG' para 25/06/2009 as 04(UTC) não localizada na base de dados da REDEMET
2009062505 - Mensagem METAR de 'SBKG' para 25/06/2009 as 05(UTC) não localizada na base de dados da REDEMET
2009062506 - Mensagem METAR de 'SBKG' para 25/06/2009 as 06(UTC) não localizada na base de dados da REDEMET
2009062507 - Mensagem METAR de 'SBKG' para 25/06/2009 as 07(UTC) não localizada na base de dados da REDEMET
2009062508 - Mensagem METAR de 'SBKG' para 25/06/2009 as 08(UTC) não localizada na base de dados da REDEMET
2009062509 - SBKG 250915Z 00000KT 8000 NSC 19/19 Q1017=
2009062510 - SBKG 251000Z 00000KT 6000 SCT021 20/20 Q1018=
2009062511 - SBKG 251100Z 14003KT 9000 SCT018 SCT021 22/22 Q1018=
2009062512 - SBKG 251200Z 14006KT 9999 SCT018 SCT021 24/21 Q1019=
2009062513 - SBKG 251300Z 14008KT 9999 BKN024 25/21 Q1018=
2009062514 - SBKG 251400Z 15008KT 8000 VCSH FEW019 SCT024 24/22 Q1018 =
2009062515 - SBKG 251500Z 14008KT 8000 VCSH SCT024 FEW026TCU 24/22 Q1018=
2009062516 - SBKG 251600Z 13015KT 5000 -RA BKN024 FEW027TCU 23/21 Q1017=
2009062516 - SBKG 251610Z 14016KT 3000 RA SCT018TCU SCT080 23/22 Q1018=
2009062516 - SBKG 251640Z 15010KT 6000 -RA SCT012 SCT018TCU 21/20 Q1017 RERA =
2009062517 - SBKG 251700Z 15008KT 9999 8000N VCSH SCT010 FEW020TCU SCT080 21/20 Q1017 RERA=
2009062518 - SBKG 251800Z 12005KT 9999 FEW010 BKN080 22/20 Q1017=
2009062519 - SBKG 251900Z 12007KT 9999 FEW012 BKN080 21/20 Q1017=
2009062520 - SBKG 252000Z 00000KT CAVOK 21/21 Q1017=
2009062521 - SBKG 252100Z 00000KT CAVOK 21/19 Q1017=
2009062522 - SBKG 252200Z 13004KT 9999 SCT015 SCT080 21/20 Q1018=
2009062523 - SBKG 252300Z 12006KT 9999 SCT015 SCT080 21/20 Q1018=
2009062500 - SBKG 250000Z 13007KT CAVOK 22/20 Q1017=
2009062501 - SBKG 250100Z 15013KT 9999 FEW007 SCT080 21/20 Q1018=
2009062502 - SBKG 250200Z 14005KT 9999 SCT010 21/20 Q1018=
2009062503 - SBKG 250300Z 12003KT 9999 SCT009 21/20 Q1018=
2009062504 - Mensagem METAR de 'SBKG' para 25/06/2009 as 04(UTC) não localizada na base de dados da REDEMET
2009062505 - Mensagem METAR de 'SBKG' para 25/06/2009 as 05(UTC) não localizada na base de dados da REDEMET
2009062506 - Mensagem METAR de 'SBKG' para 25/06/2009 as 06(UTC) não localizada na base de dados da REDEMET
2009062507 - Mensagem METAR de 'SBKG' para 25/06/2009 as 07(UTC) não localizada na base de dados da REDEMET
2009062508 - Mensagem METAR de 'SBKG' para 25/06/2009 as 08(UTC) não localizada na base de dados da REDEMET
2009062509 - SBKG 250915Z 00000KT 8000 NSC 19/19 Q1017=
2009062510 - SBKG 251000Z 00000KT 6000 SCT021 20/20 Q1018=
2009062511 - SBKG 251100Z 14003KT 9000 SCT018 SCT021 22/22 Q1018=
2009062512 - SBKG 251200Z 14006KT 9999 SCT018 SCT021 24/21 Q1019=
2009062513 - SBKG 251300Z 14008KT 9999 BKN024 25/21 Q1018=
2009062514 - SBKG 251400Z 15008KT 8000 VCSH FEW019 SCT024 24/22 Q1018 =
2009062515 - SBKG 251500Z 14008KT 8000 VCSH SCT024 FEW026TCU 24/22 Q1018=
2009062516 - SBKG 251600Z 13015KT 5000 -RA BKN024 FEW027TCU 23/21 Q1017=
2009062516 - SBKG 251610Z 14016KT 3000 RA SCT018TCU SCT080 23/22 Q1018=
2009062516 - SBKG 251640Z 15010KT 6000 -RA SCT012 SCT018TCU 21/20 Q1017 RERA =
2009062517 - SBKG 251700Z 15008KT 9999 8000N VCSH SCT010 FEW020TCU SCT080 21/20 Q1017 RERA=
2009062518 - SBKG 251800Z 12005KT 9999 FEW010 BKN080 22/20 Q1017=
2009062519 - SBKG 251900Z 12007KT 9999 FEW012 BKN080 21/20 Q1017=
2009062520 - SBKG 252000Z 00000KT CAVOK 21/21 Q1017=
2009062521 - SBKG 252100Z 00000KT CAVOK 21/19 Q1017=
2009062522 - SBKG 252200Z 13004KT 9999 SCT015 SCT080 21/20 Q1018=
2009062523 - SBKG 252300Z 12006KT 9999 SCT015 SCT080 21/20 Q1018=
2009062600 - SBKG 260000Z 12002KT 9999 SCT015 21/20 Q1018=
2009062701 - SBKG 270100Z 12004KT 9999 FEW015 21/20 Q1020=
2009062702 - SBKG 270200Z 15006KT 9999 FEW015 21/20 Q1020=
2009062703 - SBKG 270300Z 15004KT 9999 FEW015 20/20 Q1019=
2009062704 - SBKG 270400Z 16004KT CAVOK 20/20 Q1019=
2009062705 - Mensagem METAR de 'SBKG' para 27/06/2009 as 05(UTC) não localizada na base de dados da REDEMET
2009062706 - Mensagem METAR de 'SBKG' para 27/06/2009 as 06(UTC) não localizada na base de dados da REDEMET
2009062707 - Mensagem METAR de 'SBKG' para 27/06/2009 as 07(UTC) não localizada na base de dados da REDEMET
2009062708 - Mensagem METAR de 'SBKG' para 27/06/2009 as 08(UTC) não localizada na base de dados da REDEMET
2009062709 - SBKG 270915Z 00000KT CAVOK 19/19 Q1019=
2009062710 - SBKG 271000Z 28005KT 9999 FEW006 21/20 Q1020=
2009062711 - SBKG 271100Z 23008KT 9999 SCT012 21/20 Q1020=
2009062712 - SBKG 271200Z 22007KT 9999 BKN020 24/20 Q1020=
2009062713 - SBKG 271300Z 13007KT 9999 SCT025 25/20 Q1020=
2009062714 - SBKG 271400Z 20010KT 9999 BKN027 26/20 Q1020=
2009062715 - SBKG 271500Z 20007KT 9999 BKN030 27/20 Q1019=
2009062716 - SBKG 271600Z 18006KT 9999 SCT030 28/21 Q1018=
2009062717 - SBKG 271700Z 17006KT 9999 SCT030 29/21 Q1017=
2009062718 - SBKG 271800Z 16006KT 9999 SCT030 28/21 Q1017=
2009062719 - SBKG 271900Z 14010KT 9999 SCT025 28/21 Q1017=
2009062720 - SBKG 272000Z 17010KT 9999 BKN020 25/22 Q1018=
2009062721 - SBKG 272100Z 16010KT 9999 BKN020 24/22 Q1018=
2009062722 - SBKG 272200Z 13010KT 9999 SCT015 23/21 Q1019=
2009062723 - SBKG 272300Z 16008KT 9999 SCT015 23/20 Q1019=
2009062800 - SBKG 280000Z 13004KT 9999 SCT015 22/21 Q1020=
2009062801 - SBKG 280100Z 16011KT 3000 -RA BR SCT006 BKN010 22/21 Q1020=
2009062802 - SBKG 280200Z 15006KT 9999 SCT006 SCT010 21/20 Q1020=
2009062803 - SBKG 280300Z 18005KT 9999 SCT006 SCT010 21/20 Q1019=
2009062804 - Mensagem METAR de 'SBKG' para 28/06/2009 as 04(UTC) não localizada na base de dados da REDEMET
2009062805 - Mensagem METAR de 'SBKG' para 28/06/2009 as 05(UTC) não localizada na base de dados da REDEMET
2009062806 - Mensagem METAR de 'SBKG' para 28/06/2009 as 06(UTC) não localizada na base de dados da REDEMET
2009062807 - Mensagem METAR de 'SBKG' para 28/06/2009 as 07(UTC) não localizada na base de dados da REDEMET
2009062808 - Mensagem METAR de 'SBKG' para 28/06/2009 as 08(UTC) não localizada na base de dados da REDEMET
2009062809 - SBKG 280915Z 18006KT 9999 SCT017 21/20 Q1019 =
2009062810 - SBKG 281000Z 18006KT 9999 SCT020 21/20 Q1019=
2009062811 - SBKG 281100Z 17010KT 6000 RA SCT015 BKN020 22/20 Q1020=
2009062812 - SBKG 281200Z 18010KT 9999 BKN020 23/20 Q1020=
2009062813 - SBKG 281300Z 18010KT 9999 BKN025 25/21 Q1020=
2009062814 - SBKG 281400Z 16008KT 9999 BKN025 25/21 Q1019=
2009062815 - SBKG 281500Z 16008KT 6000 VCSH SCT015 BKN020 23/22 Q1019 =
2009062816 - SBKG 281600Z 18008KT 9999 SCT015 BKN020 25/21 Q1018=
2009062817 - SBKG 281700Z 18006KT 9999 8000SE VCSH SCT015 BKN020 26/20 Q1017=
2009062818 - SBKG 281800Z 13010KT 9999 SCT015 BKN020 23/20 Q1017=
2009062819 - SBKG 281900Z 12006KT 9999 SCT015 BKN020 24/21 Q1017=
2009062820 - SBKG 282000Z 12004KT 9999 FEW015 SCT020 23/20 Q1017=
2009062821 - SBKG 282100Z 12005KT 9999 SCT015 SCT020 22/21 Q1017=
2009062822 - SBKG 282200Z 13004KT 8000 -RA SCT015 BKN018 22/21 Q1018 =
2009062823 - SBKG 282300Z 13005KT 9999 SCT018 21/21 Q1018 =
2009062900 - SBKG 290000Z 13002KT 5000 1200S BCFG BR FEW004 SCT016 21/21 Q1018 =
2009062901 - SBKG 290100Z 15004KT 5000 BR FEW005 SCT018 20/20 Q1019 =
2009062902 - SBKG 290200Z 16002KT 9999 SCT016 20/20 Q1018 =
2009062903 - SBKG 290300Z 00000KT 9999 SCT016 20/20 Q1018 =
2009062904 - Mensagem METAR de 'SBKG' para 29/06/2009 as 04(UTC) não localizada na base de dados da REDEMET
2009062905 - Mensagem METAR de 'SBKG' para 29/06/2009 as 05(UTC) não localizada na base de dados da REDEMET
2009062906 - Mensagem METAR de 'SBKG' para 29/06/2009 as 06(UTC) não localizada na base de dados da REDEMET
2009062907 - Mensagem METAR de 'SBKG' para 29/06/2009 as 07(UTC) não localizada na base de dados da REDEMET
2009062908 - Mensagem METAR de 'SBKG' para 29/06/2009 as 08(UTC) não localizada na base de dados da REDEMET
2009062909 - SBKG 290915Z 00000KT 6000 SCT015 BKN017 20/20 Q1018 =
2009062910 - SBKG 291000Z 00000KT 6000 SCT015 BKN017 20/20 Q1018 =
2009062911 - SBKG 291100Z 17006KT 9999 SCT015 BKN020 BKN090 21/19 Q1018=
2009062912 - SBKG 291200Z 16006KT 9999 SCT015 BKN020 BKN090 21/19 Q1019=
2009062913 - SBKG 291300Z 14006KT 9999 BKN020 BKN100 23/20 Q1018=
2009062914 - SBKG 291400Z 16006KT 6000 VCSH SCT015 BKN020 BKN100 24/21 Q1018 =
2009062915 - SBKG 291500Z 16006KT 9999 BKN020 BKN100 25/21 Q1018=
2009062916 - SBKG 291600Z 13006KT 9999 SCT028 BKN100 26/22 Q1017 =
2009062917 - SBKG 291700Z 13008KT 9999 SCT034 SCT100 27/20 Q1016 =
2009062918 - SBKG 291800Z 13005KT 9999 SCT036 BKN090 26/20 Q1015 =
2009062919 - SBKG 291900Z 13006KT 9999 FEW036 SCT090 25/21 Q1016 =
2009062920 - SBKG 292000Z 16004KT 9999 BKN032 SCT090 25/21 Q1016 =
2009062921 - SBKG 292100Z 16008KT 9999 SCT018 SCT028 23/20 Q1016 =
2009062922 - SBKG 292200Z 12005KT 9999 SCT020 SCT090 22/20 Q1016=
2009062923 - SBKG 292300Z 12004KT 9999 SCT020 BKN090 22/20 Q1017=
2009063000 - SBKG 300000Z 13004KT CAVOK 21/20 Q1017=
2009063001 - SBKG 300100Z 12003KT CAVOK 21/20 Q1018=
2009063002 - SBKG 300200Z 00000KT 9999 FEW010 21/19 Q1017=
2009063003 - SBKG 300300Z 15005KT 9999 SCT010 20/19 Q1017=
2009063004 - Mensagem METAR de 'SBKG' para 30/06/2009 as 04(UTC) não localizada na base de dados da REDEMET
2009063005 - Mensagem METAR de 'SBKG' para 30/06/2009 as 05(UTC) não localizada na base de dados da REDEMET
2009063006 - Mensagem METAR de 'SBKG' para 30/06/2009 as 06(UTC) não localizada na base de dados da REDEMET
2009063007 - Mensagem METAR de 'SBKG' para 30/06/2009 as 07(UTC) não localizada na base de dados da REDEMET
2009063008 - Mensagem METAR de 'SBKG' para 30/06/2009 as 08(UTC) não localizada na base de dados da REDEMET
2009063009 - SBKG 300915Z 00000KT CAVOK 18/18 Q1017 =
2009063010 - SBKG 301000Z 26004KT CAVOK 20/19 Q1017 =
2009063011 - SBKG 301100Z 21010KT 9999 FEW032 21/19 Q1018 =
2009063012 - SBKG 301200Z 23006KT CAVOK 23/18 Q1018 =
2009063013 - SBKG 301300Z 18006KT 9999 FEW036 25/19 Q1017 =
2009063014 - SBKG 301400Z 14006KT 9999 FEW037 26/19 Q1017 =
2009063015 - SBKG 301500Z 16006KT 9999 SCT040 27/180 Q1016=
2009063016 - SBKG 301600Z 15008KT 9999 SCT040 28/18 Q1016=
2009063017 - SBKG 301700Z 13011KT 9999 SCT030 28/20 Q1015=
2009063018 - SBKG 301800Z 14008KT 9999 BKN027 27/18 Q1015=
2009063019 - SBKG 301900Z 14010KT 9999 FEW025 SCT080 26/19 Q1015=
2009063020 - SBKG 302000Z 13005KT 9999 FEW020 SCT070 25/19 Q1015=
2009063021 - SBKG 302100Z 12003KT CAVOK 24/19 Q1016=
2009063022 - SBKG 302200Z 15006KT 9999 FEW015 SCT070 24/20 Q1016=
2009063023 - SBKG 302300Z 12002KT 9999 SCT015 23/20 Q1017=