2008060100 - SBKG 010000Z 15004KT CAVOK 21/19 Q1018=
2008060101 - SBKG 010100Z 14005KT CAVOK 21/20 Q1018=
2008060102 - SBKG 010200Z 16005KT CAVOK 21/20 Q1018=
2008060103 - SBKG 010300Z 17004KT CAVOK 21/20 Q1017=
2008060104 - Mensagem METAR de 'SBKG' para 01/06/2008 as 04(UTC) não localizada na base de dados da REDEMET
2008060105 - Mensagem METAR de 'SBKG' para 01/06/2008 as 05(UTC) não localizada na base de dados da REDEMET
2008060106 - Mensagem METAR de 'SBKG' para 01/06/2008 as 06(UTC) não localizada na base de dados da REDEMET
2008060107 - Mensagem METAR de 'SBKG' para 01/06/2008 as 07(UTC) não localizada na base de dados da REDEMET
2008060108 - Mensagem METAR de 'SBKG' para 01/06/2008 as 08(UTC) não localizada na base de dados da REDEMET
2008060109 - SBKG 010915Z 13006KT SCT018 BKN300 20/19 Q1016 =
2008060110 - SBKG 011000Z 15006KT 9999 SCT020 BKN300 21/20 Q1017 =
2008060111 - SBKG 011100Z 15010KT 9999 SCT020 BKN300 22/20 Q1017 =
2008060112 - SBKG 011200Z 14010KT 9999 SCT025 BKN300 23/21 Q1018 =
2008060113 - SBKG 011300Z 14012KT 9999 BKN025 BKN300 25/20 Q1018 =
2008060114 - SBKG 011400Z 15012KT 9999 SCT025 BKN300 25/21 Q1017 =
2008060115 - SBKG 011500Z 15010KT 9999 BKN020 BKN300 27/21 Q1016 =
2008060116 - SBKG 011600Z 16010KT 9999 SCT015 BKN020 BKN300 26/21 Q1015=
2008060117 - SBKG 011700Z 13002KT 9999 8000SW VCSH SCT015 BKN020 FEW025TCU BKN300 26/22 Q1015=
2008060118 - SBKG 011800Z 12008KT 5000 -RA SCT010 BKN015 FEW020TCU BKN300 25/21 Q1015=
2008060118 - SBKG 011822Z 12008KT 5000 -RA BR BKN010 BKN015 BKN300 22/21 Q1015=
2008060119 - SBKG 011900Z 15006KT 8000 VCSH BKN010 BKN015 23/21 Q1015=
2008060120 - SBKG 012000Z 18006KT 5000 BKN010 BKN015 21/20 Q1016=
2008060121 - SBKG 012100Z 18006KT 5000 -RA BR BKN010 BKN015 21/20 Q1016=
2008060122 - SBKG 012200Z 14006KT 3000 -RA BR BKN012 BKN016 OVC070 21/21 Q1017=
2008060123 - SBKG 012300Z 15006KT 6000 BKN014 BKN018 OVC070 21/21 Q1018=
2008060200 - SBKG 020000Z 13004KT 9999 SCT021 OVC070 20/20 Q1018=
2008060201 - SBKG 020100Z 16004KT 9999 FEW018 OVC070 21/20 Q1018=
2008060202 - SBKG 020200Z 18002KT 9999 FEW012 SCT022 OVC070 21/20 Q1018=
2008060203 - SBKG 020300Z 19003KT 9999 FEW028 OVC070 21/20 Q1017=
2008060204 - Mensagem METAR de 'SBKG' para 02/06/2008 as 04(UTC) não localizada na base de dados da REDEMET
2008060205 - Mensagem METAR de 'SBKG' para 02/06/2008 as 05(UTC) não localizada na base de dados da REDEMET
2008060206 - Mensagem METAR de 'SBKG' para 02/06/2008 as 06(UTC) não localizada na base de dados da REDEMET
2008060207 - Mensagem METAR de 'SBKG' para 02/06/2008 as 07(UTC) não localizada na base de dados da REDEMET
2008060208 - Mensagem METAR de 'SBKG' para 02/06/2008 as 08(UTC) não localizada na base de dados da REDEMET
2008060209 - SBKG 020915Z 19010KT CAVOK 19/18 Q1017=
2008060210 - SBKG 021000Z 19010KT CAVOK 20/19 Q1017=
2008060211 - SBKG 021100Z 18010KT CAVOK 22/18 Q1018=
2008060212 - SBKG 021200Z 15008KT 9999 SCT018 BKN300 23/19 Q1018=
2008060213 - SBKG 021300Z 15010KT 9999 SCT018 BKN300 25/18 Q1018=
2008060214 - SBKG 021400Z 19010KT 9999 SCT020 BKN300 26/19 Q1017=
2008060215 - SBKG 021500Z 18008KT 9999 SCT020 BKN300 26/19 Q1016=
2008060216 - SBKG 021600Z 18011KT 9999 SCT025 27/18 Q1015=
2008060217 - SBKG 021700Z 14013KT 9999 SCT025 SCT300 27/17 Q1014=
2008060218 - SBKG 021800Z 13008KT 9999 SCT025 27/17 Q1014 =
2008060219 - SBKG 021900Z 16005KT 9999 FEW025 27/18 Q1014=
2008060220 - SBKG 022000Z 15005KT 9999 FEW020 25/18 Q1015=
2008060221 - SBKG 022100Z 16003KT 9999 FEW020 23/19 Q1015=
2008060222 - SBKG 022200Z 14004KT CAVOK 22/18 Q1016=
2008060223 - SBKG 022300Z 17004KT CAVOK 21/18 Q1016=
2008060300 - SBKG 030000Z 17006KT CAVOK 21/18 Q1017=
2008060301 - SBKG 030100Z 18006KT CAVOK 20/19 Q1017=
2008060302 - SBKG 030200Z 21008KT CAVOK 20/19 Q1017=
2008060303 - SBKG 030300Z 22006KT 9999 SCT018 20/19 Q1017=
2008060304 - Mensagem METAR de 'SBKG' para 03/06/2008 as 04(UTC) não localizada na base de dados da REDEMET
2008060305 - Mensagem METAR de 'SBKG' para 03/06/2008 as 05(UTC) não localizada na base de dados da REDEMET
2008060306 - Mensagem METAR de 'SBKG' para 03/06/2008 as 06(UTC) não localizada na base de dados da REDEMET
2008060307 - Mensagem METAR de 'SBKG' para 03/06/2008 as 07(UTC) não localizada na base de dados da REDEMET
2008060308 - Mensagem METAR de 'SBKG' para 03/06/2008 as 08(UTC) não localizada na base de dados da REDEMET
2008060309 - SBKG 030915Z 24005KT 3000 -DZ BKN010 20/20 Q1016=
2008060310 - SBKG 031000Z 18005KT 2000 -RADZ BKN010 OVC070 21/21 Q1016=
2008060310 - SBKG 031020Z 20003KT 9999 SCT010 BKN070 21/21 Q1017=
2008060311 - SBKG 031100Z 20005KT 9999 BKN010 BKN070 21/20 Q1017=
2008060312 - SBKG 031200Z 16011KT 9999 8000S VCSH SCT010 SCT020 BKN070 23/21Q1018=
2008060313 - SBKG 031300Z 13008KT 5000 -RA SCT008 SCT015 BKN070 22/21 Q1018 =
2008060314 - SBKG 031400Z 15008KT 9999 BKN015 BKN070 23/21 Q1017=
2008060315 - SBKG 031500Z 15007KT 9999 FEW015 BKN070 24/20 Q1016=
2008060316 - SBKG 031600Z 15004KT 9999 BKN028 BKN090 25/21 Q1016=
2008060317 - SBKG 031700Z 17008KT 9999 SCT022 BKN090 25/21 Q1015=
2008060318 - SBKG 031800Z 15006KT 9999 SCT021 SCT090 BKN300 25/21 Q1015=
2008060319 - SBKG 031900Z 15006KT 9999 8000SE VCSH SCT018 SCT080 BKN300 24/21 Q1015=
2008060319 - SBKG 031920Z 12010KT 3000 -RA BR SCT012 BKN016 BKN080 23/22 Q1016=
2008060320 - SBKG 032000Z 13008KT 2500 -RA BR SCT006 BKN012 BKN016 21/21 Q1016=
2008060320 - SBKG 032025Z 15004KT 8000 VCSH SCT014 SCT018 BKN070 21/21 Q1016=
2008060321 - SBKG 032100Z 15002KT 9999 FEW015 SCT024 BKN070 21/21 Q1016=
2008060322 - SBKG 032200Z 16004KT 9999 FEW015 SCT020 21/20 Q1016 =
2008060323 - SBKG 032300Z 18004KT 9999 SCT017 21/20 Q1017 =
2008060400 - SBKG 040000Z 16002KT 9999 SCT017 21/20 Q1017 =
2008060401 - SBKG 040100Z 18004KT 9999 FEW017 21/20 Q1017=
2008060402 - SBKG 040200Z 18002KT 9999 SCT015 20/20 Q1018 =
2008060403 - SBKG 040300Z 00000KT 9999 SCT015 20/20 Q1017 =
2008060404 - Mensagem METAR de 'SBKG' para 04/06/2008 as 04(UTC) não localizada na base de dados da REDEMET
2008060405 - Mensagem METAR de 'SBKG' para 04/06/2008 as 05(UTC) não localizada na base de dados da REDEMET
2008060406 - Mensagem METAR de 'SBKG' para 04/06/2008 as 06(UTC) não localizada na base de dados da REDEMET
2008060407 - Mensagem METAR de 'SBKG' para 04/06/2008 as 07(UTC) não localizada na base de dados da REDEMET
2008060408 - Mensagem METAR de 'SBKG' para 04/06/2008 as 08(UTC) não localizada na base de dados da REDEMET
2008060409 - SBKG 040915Z 00000KT CAVOK 20/20 Q1016=
2008060410 - SBKG 041000Z 00000KT CAVOK 21/21 Q1017=
2008060411 - SBKG 041100Z 18002KT 9999 SCT015 SCT028 BKN100 22/20 Q1018=
2008060412 - SBKG 041200Z 18006KT 9999 SCT018 BKN028 BKN100 23/21 Q1018 =
2008060413 - SBKG 041300Z 16008KT 9999 SCT018 SCT032 BKN100 25/22 Q1018=
2008060414 - SBKG 041400Z 17006KT 9999 SCT022 SCT100 BKN300 26/21 Q1017=
2008060415 - SBKG 041500Z 15008KT 9999 8000NE VCSH SCT024 SCT080 BKN300 27/21 Q1017=
2008060416 - SBKG 041600Z 14008KT 9999 SCT020 BKN080 BKN300 27/20 Q1016=
2008060417 - SBKG 041700Z 16005KT 9999 VCSH BKN020 BKN080 BKN300 26/21 Q1015=
2008060417 - SBKG 041745Z 14014KT 4500 -SHRA SCT009 BKN015 BKN080 23/22 Q1015=
2008060418 - SBKG 041800Z 15008KT 5000 -SHRA SCT010 BKN012 BKN100 22/22 Q1016=
2008060418 - SBKG 041840Z 13006KT 9999 -RA SCT012 SCT015 BKN100 21/20 Q1016=
2008060419 - SBKG 041900Z 14005KT 9999 -RA SCT012 SCT015 BKN100 22/21 Q1016=
2008060420 - SBKG 042000Z 13006KT 9999 FEW012 BKN100 22/22 Q1016=
2008060421 - SBKG 042100Z 16005KT 9999 FEW007 SCT012 OVC080 22/21 Q1017=
2008060422 - SBKG 042200Z 12006KT 9999 FEW007 SCT012 BKN080 22/21 Q1017=
2008060423 - SBKG 042300Z 12006KT 8000 SCT006 BKN010 21/21 Q1017=
2008060500 - SBKG 050000Z 12006KT 2000 -RA BR SCT005 BKN010 21/21 Q1018=
2008060501 - SBKG 050100Z 13006KT 5000 BR SCT005 BKN010 21/21 Q1018=
2008060502 - SBKG 050200Z 13004KT 9999 FEW006 SCT010 21/21 Q1018=
2008060503 - SBKG 050300Z 19002KT 9999 SCT010 21/21 Q1018=
2008060504 - Mensagem METAR de 'SBKG' para 05/06/2008 as 04(UTC) não localizada na base de dados da REDEMET
2008060505 - Mensagem METAR de 'SBKG' para 05/06/2008 as 05(UTC) não localizada na base de dados da REDEMET
2008060506 - Mensagem METAR de 'SBKG' para 05/06/2008 as 06(UTC) não localizada na base de dados da REDEMET
2008060507 - Mensagem METAR de 'SBKG' para 05/06/2008 as 07(UTC) não localizada na base de dados da REDEMET
2008060508 - Mensagem METAR de 'SBKG' para 05/06/2008 as 08(UTC) não localizada na base de dados da REDEMET
2008060509 - SBKG 050915Z 22001KT 9999 FEW018 BKN150 20/20 Q1017=
2008060510 - SBKG 051000Z 00000KT 9999 FEW018 BKN150 21/20 Q1018=
2008060511 - SBKG 051100Z 17006KT 9999 BKN015 22/21 Q1019=
2008060512 - SBKG 051200Z 16006KT 9999 BKN018 24/21 Q1019=
2008060513 - SBKG 051300Z 18006KT 9999 BKN020 25/21 Q1019=
2008060514 - SBKG 051400Z 14003KT 9999 BKN020 26/20 Q1018=
2008060515 - SBKG 051500Z 15008KT 9999 BKN021 SCT300 27/21 Q1017=
2008060516 - SBKG 051600Z 12008KT 9999 BKN025 27/21 Q1017=
2008060517 - SBKG 051700Z 12005KT 9999 8000W VCSH BKN025 SCT300 26/22 Q1016=
2008060518 - SBKG 051800Z 12005KT 9999 FEW025 BKN300 25/22 Q1016=
2008060519 - SBKG 051900Z 13005KT 9999 FEW020 BKN300 25/21 Q1016=
2008060520 - SBKG 052000Z 12004KT 9999 FEW015 SCT020 BKN100 25/21 Q1016=
2008060521 - SBKG 052100Z 12006KT 9999 SCT015 BKN020 23/21 Q1016=
2008060522 - SBKG 052200Z 13006KT 9999 SCT020 22/21 Q1017 =
2008060523 - SBKG 052300Z 12006KT 9999 SCT020 22/21 Q1018 =
2008060600 - SBKG 060000Z 13006KT 9999 SCT017 22/21 Q1018 =
2008060601 - SBKG 060100Z 12004KT 9999 SCT017 21/20 Q1018 =
2008060602 - SBKG 060200Z 13006KT 9999 SCT017 21/20 Q1018 =
2008060603 - SBKG 060300Z 14002KT 9999 SCT015 21/20 Q1018 =
2008060604 - Mensagem METAR de 'SBKG' para 06/06/2008 as 04(UTC) não localizada na base de dados da REDEMET
2008060605 - Mensagem METAR de 'SBKG' para 06/06/2008 as 05(UTC) não localizada na base de dados da REDEMET
2008060606 - Mensagem METAR de 'SBKG' para 06/06/2008 as 06(UTC) não localizada na base de dados da REDEMET
2008060607 - Mensagem METAR de 'SBKG' para 06/06/2008 as 07(UTC) não localizada na base de dados da REDEMET
2008060608 - Mensagem METAR de 'SBKG' para 06/06/2008 as 08(UTC) não localizada na base de dados da REDEMET
2008060609 - SBKG 060915Z 12003KT 9999 VCSH BKN010 SCT015 BKN070 21/21 Q1017=
2008060610 - SBKG 061000Z 12008KT 9999 SCT008 SCT080 21/21 Q1018=
2008060611 - SBKG 061100Z 12008KT 9999 SCT020 23/20 Q1018=
2008060612 - SBKG 061200Z 15009KT 9999 SCT020 24/21 Q1018=
2008060613 - SBKG 061300Z 12016KT 9999 SCT025 24/20 Q1018=
2008060614 - SBKG 061400Z 12015KT 9999 SCT027 27/19 Q1018=
2008060615 - SBKG 061500Z 13013KT 9999 BKN030 28/19 Q1017=
2008060616 - SBKG 061600Z 13012KT 9999 BKN030 27/17 Q1017=
2008060617 - SBKG 061700Z 12008KT 9999 BKN030 27/18 Q1016=
2008060618 - SBKG 061800Z 13010KT 9999 SCT025 26/19 Q1016=
2008060619 - SBKG 061900Z 13010KT 9999 SCT025 26/17 Q1016=
2008060620 - SBKG 062000Z 13006KT 9999 FEW020 25/18 Q1016=
2008060621 - SBKG 062100Z 13004KT 9999 FEW020 23/19 Q1016=
2008060622 - SBKG 062200Z 13006KT CAVOK 22/20 Q1017=
2008060623 - SBKG 062300Z 13008KT 5000 -DZ SCT006 SCT015 BKN090 22/21 Q1018=
2008060700 - SBKG 070000Z 13005KT 9999 SCT018 SCT090 22/21 Q1018=
2008060701 - SBKG 070100Z 14004KT 9999 FEW022 SCT090 21/20 Q1018=
2008060702 - SBKG 070200Z 15006KT 9999 FEW005 SCT012 BKN070 21/21 Q1018=
2008060703 - SBKG 070300Z 16006KT 9000 SCT014 SCT015 21/21 Q1017=
2008060704 - Mensagem METAR de 'SBKG' para 07/06/2008 as 04(UTC) não localizada na base de dados da REDEMET
2008060705 - Mensagem METAR de 'SBKG' para 07/06/2008 as 05(UTC) não localizada na base de dados da REDEMET
2008060706 - Mensagem METAR de 'SBKG' para 07/06/2008 as 06(UTC) não localizada na base de dados da REDEMET
2008060707 - Mensagem METAR de 'SBKG' para 07/06/2008 as 07(UTC) não localizada na base de dados da REDEMET
2008060708 - Mensagem METAR de 'SBKG' para 07/06/2008 as 08(UTC) não localizada na base de dados da REDEMET
2008060709 - SBKG 070919Z 13006KT 5000 VCSH BR BKN010 BKN015 21/21 Q1017=
2008060710 - SBKG 071000Z 15006KT 5000 VCSH BR BKN010 BKN015 21/21 Q1017=
2008060711 - SBKG 071100Z 15008KT 9999 SCT010 BKN015 21/20 Q1017=
2008060712 - SBKG 071200Z 15008KT 9999 FEW015 BKN018 23/21 Q1018=
2008060713 - SBKG 071300Z 12010KT 9999 BKN020 24/20 Q1017=
2008060714 - SBKG 071400Z 15010KT 9999 BKN020 25/21 Q1017=
2008060715 - SBKG 071500Z 15010KT 9999 BKN020 26/19 Q1016=
2008060716 - SBKG 071600Z 13010KT 9999 BKN020 26/21 Q1016 =
2008060717 - SBKG 071700Z 12010KT 5000 -RA SCT017 BKN020 24/22 Q1015 =
2008060718 - SBKG 071800Z 14010KT 6000 VCSH SCT017 BKN020 24/22 Q1015=
2008060719 - SBKG 071900Z 16008KT 9999 SCT017 BKN020 23/21 Q1015 =
2008060720 - SBKG 072000Z 15006KT 9999 BKN020 22/21 Q1015 =
2008060721 - SBKG 072100Z 15006KT 9999 SCT017 22/20 Q1016 =
2008060721 - SBKG 072145Z 19008KT 4500 -RA BKN010 BKN012 22/20 Q1016=
2008060722 - SBKG 072200Z 15008KT 6000 -RA SCT010 BKN012 21/20 Q1016=
2008060722 - SBKG 072245Z 14006KT 9999 BKN015 21/20 Q1017=
2008060723 - SBKG 072300Z 16008KT 9999 BKN016 21/20 Q1016=
2008060800 - SBKG 080000Z 14006KT 9999 BKN016 21/20 Q1017=
2008060801 - SBKG 080100Z 15006KT 9999 BKN016 20/19 Q1017=
2008060802 - SBKG 080200Z 18006KT 9999 FEW020 20/19 Q1016=
2008060803 - SBKG 080300Z 17006KT 9999 SCT020 20/19 Q1016=
2008060804 - Mensagem METAR de 'SBKG' para 08/06/2008 as 04(UTC) não localizada na base de dados da REDEMET
2008060805 - Mensagem METAR de 'SBKG' para 08/06/2008 as 05(UTC) não localizada na base de dados da REDEMET
2008060806 - Mensagem METAR de 'SBKG' para 08/06/2008 as 06(UTC) não localizada na base de dados da REDEMET
2008060807 - Mensagem METAR de 'SBKG' para 08/06/2008 as 07(UTC) não localizada na base de dados da REDEMET
2008060808 - Mensagem METAR de 'SBKG' para 08/06/2008 as 08(UTC) não localizada na base de dados da REDEMET
2008060809 - SBKG 080915Z 18006KT 9999 SCT020 SCT300 20/19 Q1015 =
2008060810 - SBKG 081000Z 18006KT 9999 SCT020 BKN300 20/19 Q1016 =
2008060811 - SBKG 081100Z 16010KT 9999 SCT020 BKN300 21/19 Q1016 =
2008060812 - SBKG 081200Z 15008KT 5000 BR SCT010 BKN017 BKN090 22/21 Q1017 =
2008060813 - SBKG 081300Z 14006KT 3000 -DZ BR SCT006 BKN010 BKN070 22/21 Q1017 =
2008060814 - SBKG 081400Z 15010KT 4000 -DZ BR SCT006 BKN010 BKN070 23/21 Q1016 =
2008060814 - SBKG 081440Z 13004KT 2000 -RADZ BR BKN006 BKN010 BKN070 22/21 Q1016 =
2008060815 - SBKG 081500Z 12008KT 4000 -RADZ BR SCT006 BKN010 BKN070 22/21 Q1016 =
2008060815 - SBKG 081540Z 14007KT 8000 VCSH SCT012 SCT016 BKN070 23/23 Q1015 =
2008060816 - SBKG 081600Z 16006KT 5000 -RADZ SCT012 SCT015 BKN070 24/21 Q1015=
2008060817 - SBKG 081700Z 13012KT 3000 SHRA BKN010 BKN014 FEW022TCU OVC070 22/22 Q1015=
2008060817 - SBKG 081738Z 14003KT 8000 VCSH SCT014 SCT018 BKN080 22/22 Q1015 RERA=
2008060818 - SBKG 081800Z 09002KT 8000 VCSH FEW015 SCT018 BKN080 22/22 Q1015 RERA=
2008060818 - SBKG 081845Z 12010KT 2000 -SHRA BR SCT006 BKN010 BKN015 22/22 Q1015 =
2008060819 - SBKG 081900Z 12007KT 5000 RA SCT006 BKN010 BKN015 21/21 Q1015 RERA=
2008060819 - SBKG 081920Z 13008KT 2000 -RA BR SCT006 BKN010 BKN015 21/21 Q1016=
2008060820 - SBKG 082000Z 14004KT 8000 VCSH SCT012 SCT022 BKN090 21/21 Q1016=
2008060821 - SBKG 082100Z 13004KT 9999 SCT015 SCT016 BKN090 21/21 Q1016=
2008060822 - SBKG 082200Z 13004KT 9999 SCT015 SCT090 20/20 Q1016=
2008060823 - SBKG 082300Z 15005KT 9999 FEW015 20/20 Q1017=
2008060900 - SBKG 090000Z 16005KT 9999 SCT015 21/19 Q1017=
2008060901 - SBKG 090100Z 13007KT 8000 -DZ BKN010 20/20 Q1017=
2008060902 - SBKG 090200Z 16002KT 9999 SCT010 SCT015 20/20 Q1017=
2008060903 - SBKG 090300Z 20002KT 9999 FEW010 20/20 Q1017=
2008060904 - Mensagem METAR de 'SBKG' para 09/06/2008 as 04(UTC) não localizada na base de dados da REDEMET
2008060905 - Mensagem METAR de 'SBKG' para 09/06/2008 as 05(UTC) não localizada na base de dados da REDEMET
2008060906 - Mensagem METAR de 'SBKG' para 09/06/2008 as 06(UTC) não localizada na base de dados da REDEMET
2008060907 - Mensagem METAR de 'SBKG' para 09/06/2008 as 07(UTC) não localizada na base de dados da REDEMET
2008060908 - Mensagem METAR de 'SBKG' para 09/06/2008 as 08(UTC) não localizada na base de dados da REDEMET
2008060909 - SBKG 090915Z 15006 9000 SCT006 SCT015 BKN300 20/20 Q1019=
2008060910 - SBKG 091000Z 14007KT 7000 SCT007 SCT016 BKN090 20/20 Q1016=
2008060911 - SBKG 091100Z 16009KT 9999 SCT015 BKN018 22/21 Q1016=
2008060912 - SBKG 091200Z 17014KT 9999 SCT026 BKN090 23/21 Q1017=
2008060913 - SBKG 091300Z 15013KT 9999 SCT028 BKN100 25/20 Q1017=
2008060914 - SBKG 091400Z 15014KT 9999 SCT032 BKN100 26/19 Q1016=
2008060915 - SBKG 091500Z 13008KT 9999 BKN032 BKN090 26/21 Q1016=
2008060916 - SBKG 091600Z 15006KT 9999 -RA BKN032 BKN090 23/21 Q1016 =
2008060917 - SBKG 091700Z 17010KT 6000 -RA BKN023 BKN090 23/20 Q1016 =
2008060918 - SBKG 091800Z 17006KT 9000 VCSH BKN025 SCT090 22/20 Q1016=
2008060919 - SBKG 091900Z 16005KT 9999 BKN040 23/19 Q1016=
2008060920 - SBKG 092000Z 16004KT 9999 BKN038 FEW040TCU SCT100 23/19 Q1016=
2008060921 - SBKG 092100Z 13006KT 9999 SCT030 SCT100 22/19 Q1016=
2008060922 - SBKG 092200Z 12006KT 9999 FEW015 21/20 Q1017=
2008060923 - SBKG 092300Z 15006KT 9999 FEW015 20/19 Q1017=
2008061000 - SBKG 100000Z 13005KT 9999 SCT015 20/19 Q1018=
2008061001 - SBKG 100100Z 12002KT 9999 BKN015 20/19 Q1018=
2008061002 - SBKG 100200Z 12003KT 9999 BKN015 20/19 Q1018=
2008061003 - SBKG 100300Z 18006KT 9999 BKN015 20/19 Q1017=
2008061004 - Mensagem METAR de 'SBKG' para 10/06/2008 as 04(UTC) não localizada na base de dados da REDEMET
2008061005 - Mensagem METAR de 'SBKG' para 10/06/2008 as 05(UTC) não localizada na base de dados da REDEMET
2008061006 - Mensagem METAR de 'SBKG' para 10/06/2008 as 06(UTC) não localizada na base de dados da REDEMET
2008061007 - Mensagem METAR de 'SBKG' para 10/06/2008 as 07(UTC) não localizada na base de dados da REDEMET
2008061008 - Mensagem METAR de 'SBKG' para 10/06/2008 as 08(UTC) não localizada na base de dados da REDEMET
2008061009 - SBKG 100915Z 15004KT 6000 VCSH BKN010 BKN012 20/20 Q1016=
2008061010 - SBKG 101000Z 15006KT 0500 FG -DZ SCT005 BKN010 BKN012 20/20 Q1016=
2008061010 - SBKG 101030Z 14006KT 3000 BR SCT003 BKN010 BKN012 21/21 Q1017=
2008061011 - SBKG 101100Z 15007KT 8000 3000SE VCSH SCT010 BKN012 21/21 Q1017=
2008061011 - SBKG 101120Z 15008KT 9999 BKN015 22/22 Q1017=
2008061012 - SBKG 101200Z 15006KT 9999 7000SE VCSH BKN015 23/20 Q1017=
2008061012 - SBKG 101235Z 17006KT 2000 -RA BR SCT006 BKN015 23/22 Q1017=
2008061013 - SBKG 101300Z 14007KT 5000 -RA BR BKN008 BKN012 22/22 Q1017=
2008061013 - SBKG 101340Z 14010KT 8000 SCT006 BKN012 23/22 Q1017=
2008061014 - SBKG 101400Z 15008KT 9999 VCSH SCT010 BKN015 24/22 Q1017=
2008061015 - SBKG 101500Z 14006KT 9999 VCSH BKN015 SCT080 24/23 Q1016=
2008061015 - SBKG 101540Z 12015KT 2000 -RA BR FEW007 BKN015 BKN080 24/23 Q1016=
2008061016 - SBKG 101600Z 12010KT 1800 -RA BR SCT007 BKN015 BKN080 24/23 Q1016=
2008061017 - SBKG 101700Z 10007KT 9999 VCSH FEW007 BKN070 22/21 Q1015=
2008061017 - SBKG 101745Z 12005KT 2000 -RA BR FEW007 SCT015 BKN070 22/22 Q1015 =
2008061018 - SBKG 101800Z 12013KT 4800 -RA BR SCT015 SCT025TCU BKN070 22/22 Q1016=
2008061018 - SBKG 101830Z 12007KT 8000 FEW007 OVC070 22/22 Q1016 =
2008061019 - SBKG 101900Z 12005KT 5000 -RA SCT015 FEW025TCU OVC070 21/21 Q1016=
2008061020 - SBKG 102000Z 12003KT 9999 VCSH SCT015 OVC070 21/21 Q1016=
2008061021 - SBKG 102100Z 12005KT 9999 SCT015 BKN070 21/21 Q1016=
2008061022 - SBKG 102200Z 12006KT 9999 SCT015 BKN070 21/20 Q1017 =
2008061023 - SBKG 102300Z 13006KT 9999 SCT017 BKN090 21/20 Q1017 =
2008061100 - SBKG 110000Z 13006KT 9999 SCT017 BKN090 21/20 Q1017 =
2008061101 - SBKG 110100Z 12006KT 9999 FEW017 SCT090 20/20 Q1018 =
2008061102 - SBKG 110200Z 12004KT CAVOK 20/19 Q1018 =
2008061103 - SBKG 110300Z 12004KT CAVOK 20/19 Q1017=
2008061104 - Mensagem METAR de 'SBKG' para 11/06/2008 as 04(UTC) não localizada na base de dados da REDEMET
2008061105 - Mensagem METAR de 'SBKG' para 11/06/2008 as 05(UTC) não localizada na base de dados da REDEMET
2008061106 - Mensagem METAR de 'SBKG' para 11/06/2008 as 06(UTC) não localizada na base de dados da REDEMET
2008061107 - Mensagem METAR de 'SBKG' para 11/06/2008 as 07(UTC) não localizada na base de dados da REDEMET
2008061108 - Mensagem METAR de 'SBKG' para 11/06/2008 as 08(UTC) não localizada na base de dados da REDEMET
2008061109 - SBKG 110915Z 12003KT 9999 SCT008 18/18 Q1015=
2008061110 - SBKG 111000Z 15002KT 9999 SCT009 SCT010 19/19 Q1016=
2008061111 - SBKG 111100Z 16007KT 9999 SCT010 21/20 Q1017=
2008061112 - SBKG 111200Z 12009KT 9999 SCT015 24/19 Q1018=
2008061113 - SBKG 111300Z 14010KT 9999 BKN019 24/20 Q1018=
2008061114 - SBKG 111400Z 13009KT 9999 SCT021 26/19 Q1017=
2008061115 - SBKG 111500Z 15011KT 9999 SCT030 28/19 Q1016=
2008061116 - SBKG 111600Z 15012KT 9999 SCT030 27/18 Q1016=
2008061117 - SBKG 111700Z 13008KT 9999 SCT030 26/18 Q1015=
2008061118 - SBKG 111800Z 15010KT 9999 SCT030 26/18 Q1015=
2008061119 - SBKG 111900Z 12010KT 9999 FEW030 25/18 Q1015=
2008061120 - SBKG 112000Z 12006KT 9999 FEW030 SCT300 25/18 Q1015=
2008061121 - SBKG 112100Z 12005KT 9999 SCT015 SCT300 23/19 Q1016=
2008061122 - SBKG 112200Z 14004KT CAVOK 22/19 Q1016=
2008061123 - SBKG 112300Z 00000KT CAVOK 21/20 Q1017=
2008061200 - SBKG 120000Z 00000KT CAVOK 21/19 Q1017=
2008061201 - SBKG 120100Z 00000KT CAVOK 20/19 Q1017=
2008061202 - SBKG 120200Z 00000KT CAVOK 19/18 Q1017=
2008061203 - SBKG 120300Z 00000KT CAVOK 19/17 Q1017=
2008061204 - Mensagem METAR de 'SBKG' para 12/06/2008 as 04(UTC) não localizada na base de dados da REDEMET
2008061205 - Mensagem METAR de 'SBKG' para 12/06/2008 as 05(UTC) não localizada na base de dados da REDEMET
2008061206 - Mensagem METAR de 'SBKG' para 12/06/2008 as 06(UTC) não localizada na base de dados da REDEMET
2008061207 - Mensagem METAR de 'SBKG' para 12/06/2008 as 07(UTC) não localizada na base de dados da REDEMET
2008061208 - Mensagem METAR de 'SBKG' para 12/06/2008 as 08(UTC) não localizada na base de dados da REDEMET
2008061209 - SBKG 120915Z 00000KT 9999 SCT015 BKN300 20/19 Q1016=
2008061210 - SBKG 121000Z 25002KT 9999 FEW015 SCT018 BKN300 21/20 Q1017=
2008061211 - SBKG 121100Z 15006KT 9999 FEW015 BKN018 22/20 Q1018=
2008061212 - SBKG 121200Z 15010KT 9999 BKN020 BKN300 23/19 Q1018=
2008061213 - SBKG 121300Z 15006KT 9999 FEW015 BKN020 25/19 Q1018=
2008061214 - SBKG 121400Z 13006KT 9999 FEW015 BKN020 BKN300 25/20 Q1018=
2008061215 - SBKG 121500Z 18006KT 9999 FEW015 BKN020 BKN300 25/19 Q1017=
2008061216 - SBKG 121600Z 18010KT 9999 BKN020 BKN300 26/19 Q1016 =
2008061217 - SBKG 121700Z 19010KT 9999 BKN020 BKN300 26/19 Q1015 =
2008061218 - SBKG 121800Z 18008KT 9999 BKN020 BKN300 25/19 Q1015 =
2008061219 - SBKG 121900Z 15006KT 9999 SCT022 BKN300 25/20 Q1015=
2008061220 - SBKG 122000Z 16008KT 9999 SCT026 SCT032 BKN300 24/20 Q1016=
2008061221 - SBKG 122100Z 14006KT 9999 SCT028 BKN100 23/20 Q1016=
2008061222 - SBKG 122200Z 15005KT CAVOK 22/19 Q1016=
2008061223 - SBKG 122300Z 18004KT CAVOK 21/18 Q1017=
2008061300 - SBKG 130000Z 15006KT CAVOK 21/18 Q1017=
2008061301 - SBKG 130100Z 15004KT CAVOK 20/17 Q1017=
2008061302 - SBKG 130200Z 15004KT CAVOK 20/17 Q1017=
2008061303 - SBKG 130300Z 17004KT CAVOK 19/17 Q1017=
2008061304 - Mensagem METAR de 'SBKG' para 13/06/2008 as 04(UTC) não localizada na base de dados da REDEMET
2008061305 - Mensagem METAR de 'SBKG' para 13/06/2008 as 05(UTC) não localizada na base de dados da REDEMET
2008061306 - Mensagem METAR de 'SBKG' para 13/06/2008 as 06(UTC) não localizada na base de dados da REDEMET
2008061307 - Mensagem METAR de 'SBKG' para 13/06/2008 as 07(UTC) não localizada na base de dados da REDEMET
2008061308 - Mensagem METAR de 'SBKG' para 13/06/2008 as 08(UTC) não localizada na base de dados da REDEMET
2008061309 - SBKG 130915Z 22002KT 9999 SCT020 18/18 Q1016=
2008061310 - SBKG 131000Z 24005KT CAVOK 19/18 Q1017=
2008061311 - SBKG 131100Z 17010KT 9999 FEW015 21/18 Q1017=
2008061312 - SBKG 131200Z 18008KT 9999 BKN025 24/18 Q1018=
2008061313 - SBKG 131300Z 13009KT 9999 SCT025 25/18 Q1017=
2008061314 - SBKG 131400Z 20011KT 9999 SCT027 25/19 Q1017=
2008061315 - SBKG 131500Z 15013KT 9999 SCT030 26/18 Q1016=
2008061316 - SBKG 131600Z 13008KT 9999 BKN034 27/20 Q1015=
2008061317 - SBKG 131700Z 15012KT 9999 SCT036 SCT090 27/20 Q1014=
2008061318 - SBKG 131800Z 17007KT 9999 SCT040 27/20 Q1014=
2008061319 - SBKG 131900Z 14010KT 9999 SCT044 SCT100 26/20 Q1015=
2008061320 - SBKG 132000Z 15006KT 9999 FEW032 BKN100 25/19 Q1015 =
2008061321 - SBKG 132100Z 14008KT CAVOK 23/20 Q1015=
2008061322 - SBKG 132200Z 13006 CAVOK 22/21 Q1016=
2008061323 - SBKG 132300Z 12006KT CAVOK 21/19 Q1017 =
2008061400 - SBKG 140000Z 14004KT CAVOK 21/19 Q1017 =
2008061401 - SBKG 140100Z 13004KT CAVOK 20/19 Q1017 =
2008061402 - SBKG 140200Z 14004KT CAVOK 20/19 Q1016 =
2008061403 - SBKG 140300Z 14004KT 9999 SCT015 19/18 Q1016 =
2008061404 - Mensagem METAR de 'SBKG' para 14/06/2008 as 04(UTC) não localizada na base de dados da REDEMET
2008061405 - Mensagem METAR de 'SBKG' para 14/06/2008 as 05(UTC) não localizada na base de dados da REDEMET
2008061406 - Mensagem METAR de 'SBKG' para 14/06/2008 as 06(UTC) não localizada na base de dados da REDEMET
2008061407 - Mensagem METAR de 'SBKG' para 14/06/2008 as 07(UTC) não localizada na base de dados da REDEMET
2008061408 - Mensagem METAR de 'SBKG' para 14/06/2008 as 08(UTC) não localizada na base de dados da REDEMET
2008061409 - SBKG 140915Z 23006KT 6000 BKN022 SCT300 19/19 Q1016=
2008061410 - SBKG 141000Z 21006KT 9000 SCT026 BKN300 20/20 Q1016=
2008061411 - SBKG 141100Z 18006KT 9999 SCT028 SCT300 22/19 Q1017=
2008061412 - SBKG 141200Z 17006KT 9999 SCT016 BKN018 22/20 Q1017=
2008061413 - SBKG 141300Z 16010KT 5000 -RADZ SCT016 BKN018 23/21 Q1017=
2008061414 - SBKG 141400Z 15008KT 3000 -RADZ FEW006 BKN012 BKN016 22/22Q1016=
2008061414 - SBKG 141430Z 16004KT 9999 SCT010 BKN015 BKN090 22/22 Q1016=
2008061415 - SBKG 141500Z 14006KT 8000 VCSH SCT012 BKN018 23/22 Q1016=
2008061416 - SBKG 141600Z 17008KT 9999 -RA SCT012 BKN018 24/22 Q1015=
2008061417 - SBKG 141700Z 14010KT 9999 VCSH BKN018 24/20 Q1014=
2008061418 - SBKG 141800Z 15006KT 9000 VCSH SCT015 BKN018 FEW030TCU 25/21 Q1014=
2008061419 - SBKG 141900Z 14008KT 9999 SCT018 BKN021 22/21 Q1015=
2008061420 - SBKG 142000Z 13006KT 9999 6000SE VCSH SCT006 SCT015 BKN018 21/21 Q1015=
2008061421 - SBKG 142100Z 13004KT 9999 3000SE VCSH SCT006 BKN010 BKN012 21/21 Q1016=
2008061422 - SBKG 142200Z 10002KT 9999 BKN010 21/20 Q1016=
2008061423 - SBKG 142300Z 12002KT 9999 SCT010 21/20 Q1017=
2008061500 - SBKG 150000Z 12002KT 9999 SCT010 20/19 Q1017=
2008061501 - SBKG 150100Z 15004KT 9999 SCT010 20/19 Q1017=
2008061502 - SBKG 150200Z 13002KT 9999 FEW006 SCT010 20/19 Q1017=
2008061503 - SBKG 150300Z 15006KT 9999 FEW003 SCT010 20/20 Q1017=
2008061504 - Mensagem METAR de 'SBKG' para 15/06/2008 as 04(UTC) não localizada na base de dados da REDEMET
2008061505 - Mensagem METAR de 'SBKG' para 15/06/2008 as 05(UTC) não localizada na base de dados da REDEMET
2008061506 - Mensagem METAR de 'SBKG' para 15/06/2008 as 06(UTC) não localizada na base de dados da REDEMET
2008061507 - Mensagem METAR de 'SBKG' para 15/06/2008 as 07(UTC) não localizada na base de dados da REDEMET
2008061508 - Mensagem METAR de 'SBKG' para 15/06/2008 as 08(UTC) não localizada na base de dados da REDEMET
2008061509 - SBKG 150915Z 17003KT 9000 SCT010 SCT080 19/19 Q1016=
2008061510 - SBKG 151000Z 16004KT 9999 SCT012 21/20 Q1017=
2008061511 - SBKG 151100Z 16006KT 9999 BKN015 BKN016 22/20 Q1017=
2008061512 - SBKG 151200Z 19006KT 9000 SCT015 BKN018 22/21 Q1018=
2008061513 - SBKG 151300Z 16002KT 9999 SCT016 BKN018 23/20 Q1018=
2008061514 - SBKG 151400Z 15008KT 9999 SCT015 BKN020 24/21 Q1017=
2008061515 - SBKG 151500Z 17006KT 9999 BKN020 25/21 Q1016=
2008061516 - SBKG 151600Z 16008KT 3000 -RA BKN020 24/21 Q1016=
2008061516 - SBKG 151630Z 13005KT 9999 BKN020 SCT070 24/22 Q1015=
2008061517 - SBKG 151700Z 12005KT 9999 BKN015 SCT070 24/22 Q1015=
2008061518 - SBKG 151800Z 13007KT 9999 8000NW VCSH SCT015 BKN070 23/21 Q1015=
2008061519 - SBKG 151900Z 10003KT 9999 SCT020 BKN070 25/22 Q1015=
2008061520 - SBKG 152000Z 10005KT 9999 8000S VCSH BKN015 BKN070 23/21 Q1016=
2008061521 - SBKG 152100Z 12004KT 9999 FEW007 SCT015 BKN070 22/22 Q1016=
2008061522 - SBKG 152200Z 12006KT 6000 SCT006 BKN015 22/21 Q1017 =
2008061523 - SBKG 152300Z 13006KT 6000 SCT006 BKN015 21/21 Q1018 =
2008061600 - SBKG 160000Z 12006KT 5000 BR SCT006 BKN015 21/20 Q1018 =
2008061601 - SBKG 160100Z 15006KT 9999 BKN017 21/20 Q1018 =
2008061602 - SBKG 160200Z 16004KT 6000 -RA BKN015 21/20 Q1018 =
2008061603 - SBKG 160300Z 16004KT 5000 -RA BR BKN015 21/20 Q1018 =
2008061604 - Mensagem METAR de 'SBKG' para 16/06/2008 as 04(UTC) não localizada na base de dados da REDEMET
2008061605 - Mensagem METAR de 'SBKG' para 16/06/2008 as 05(UTC) não localizada na base de dados da REDEMET
2008061606 - Mensagem METAR de 'SBKG' para 16/06/2008 as 06(UTC) não localizada na base de dados da REDEMET
2008061607 - Mensagem METAR de 'SBKG' para 16/06/2008 as 07(UTC) não localizada na base de dados da REDEMET
2008061608 - Mensagem METAR de 'SBKG' para 16/06/2008 as 08(UTC) não localizada na base de dados da REDEMET
2008061609 - SBKG 160915Z 14003KT 9999 SCT009 BKN070 21/21 Q1018=
2008061610 - SBKG 161000Z 17005KT 5000 -RA SCT010 BKN070 21/21 Q1018=
2008061611 - SBKG 161100Z 20007KT 9000 -RA SCT010 OVC070 20/20 Q1019=
2008061612 - SBKG 161200Z 15008KT 5000 -RA SCT010 OVC070 21/20 Q1019=
2008061613 - SBKG 161300Z 21008KT 8000 -RA BKN010 OVC070 21/20 Q1019=
2008061614 - SBKG 161400Z 16005KT 9999 BKN010 OVC070 22/20 Q1019=
2008061615 - SBKG 161500Z 13008KT 9999 BKN013 BKN070 23/21 Q1018=
2008061616 - SBKG 161600Z 18008KT 9000 -RA BKN012 BKN015 BKN070 23/20 Q1017=
2008061617 - SBKG 161700Z 15006KT 9000 -RA BKN012 BKN015 BKN070 23/20 Q1016=
2008061618 - SBKG 161800Z 15010KT 9999 BKN012 BKN015 BKN070 23/20 Q1016=
2008061619 - SBKG 161900Z 15008KT 8000 VCSH BKN010 BKN015 BKN070 23/21 Q1016=
2008061619 - SBKG 161925Z 18006KT 3000 -RA BR SCT006 BKN010 BKN015 22/21 Q1016=
2008061620 - SBKG 162000Z 15006KT 2500 -RA BR SCT006 BKN010 BKN015 21/20 Q1016=
2008061621 - SBKG 162100Z 18006KT 2500 -RA BR SCT006 BKN010 BKN015 21/20 Q1017=
2008061622 - SBKG 162200Z 15006KT 3000 -RA BR SCT007 BKN010 BKN015 20/20 Q1017=
2008061623 - SBKG 162300Z 16006KT 3000 -RA BR SCT005 BKN010 BKN014 20/20 Q1018=
2008061700 - SBKG 170000Z 17004KT 7000 3000NW -RA SCT010 BKN014 OVC070 20/20 Q1018=
2008061701 - SBKG 170100Z 16002KT 9999 7000S SCT006 BKN014 OVC070 20/20 Q1018=
2008061702 - SBKG 170200Z 00000KT 6000 SCT008 BKN012 BKN070 20/20 Q1018=
2008061703 - SBKG 170300Z 13004KT 3000 -RADZ SCT006 BKN012 BKN070 20/20 Q1018=
2008061704 - Mensagem METAR de 'SBKG' para 17/06/2008 as 04(UTC) não localizada na base de dados da REDEMET
2008061705 - Mensagem METAR de 'SBKG' para 17/06/2008 as 05(UTC) não localizada na base de dados da REDEMET
2008061706 - Mensagem METAR de 'SBKG' para 17/06/2008 as 06(UTC) não localizada na base de dados da REDEMET
2008061707 - Mensagem METAR de 'SBKG' para 17/06/2008 as 07(UTC) não localizada na base de dados da REDEMET
2008061708 - Mensagem METAR de 'SBKG' para 17/06/2008 as 08(UTC) não localizada na base de dados da REDEMET
2008061709 - SBKG 170915Z 15010KT 1500 -RA BR BKN005 BKN010 20/20 Q1018=
2008061710 - SBKG 171000Z 12002KT 8000 FEW006 SCT010 BKN070 20/20 Q1018 RERA=
2008061711 - SBKG 171100Z 15006KT 9999 FEW008 SCT010 BKN070 21/20 Q1018=
2008061712 - SBKG 171200Z 15008KT 9999 FEW007 SCT010 BKN015 21/20 Q1019=
2008061713 - SBKG 171300Z 13006KT 9000 VCSH BR FEW006 BKN010 BKN015 22/21 Q1019=
2008061713 - SBKG 171328Z 15006KT 9999 SCT010 BKN018 22/21 Q1018=
2008061713 - SBKG 171331Z 15006KT 9999 SCT010 BKN018 22/21 Q1018=
2008061714 - SBKG 171400Z 15014KT 9999 SCT015 BKN018 23/20 Q1018=
2008061715 - SBKG 171500Z 13006KT 9999 FEW015 BKN020 24/21 Q1017=
2008061716 - SBKG 171600Z 14006KT 9999 FEW017 BKN020 24/21 Q1016 =
2008061717 - SBKG 171700Z 13006KT 5000 RA SCT015 BKN020 25/21 Q1015 =
2008061718 - SBKG 171800Z 16008KT 9999 SCT015 BKN020 23/21 Q1015 =
2008061719 - SBKG 171900Z 15006KT 6000 VCSH SCT015 BKN020 22/21 Q1015 =
2008061720 - SBKG 172000Z 16008KT 6000 VCSH SCT010 BKN017 22/21 Q1015 =
2008061721 - SBKG 172100Z 13006KT 6000 VCSH SCT010 BKN017 21/20 Q1016 =
2008061722 - SBKG 172200Z 14002KT 9999 BKN015 BKN017 22/19 Q1017=
2008061723 - SBKG 172300Z 14004KT 8000 -RA BKN012 BKN015 20/20 Q1017=
2008061800 - SBKG 180000Z 15007KT 4000 -RADZ SCT005 BKN010 BKN012 20/20 Q1017=
2008061801 - SBKG 180100Z 14006KT 5000 -RADZ SCT006 BKN010 BKN012 20/20 Q1017=
2008061802 - SBKG 180200Z 14006KT 9999 SCT010 BKN018 20/19 Q1017=
2008061803 - SBKG 180300Z 17006KT 5000 -RA SCT012 BKN016 20/19 Q1017=
2008061804 - Mensagem METAR de 'SBKG' para 18/06/2008 as 04(UTC) não localizada na base de dados da REDEMET
2008061805 - Mensagem METAR de 'SBKG' para 18/06/2008 as 05(UTC) não localizada na base de dados da REDEMET
2008061806 - Mensagem METAR de 'SBKG' para 18/06/2008 as 06(UTC) não localizada na base de dados da REDEMET
2008061807 - Mensagem METAR de 'SBKG' para 18/06/2008 as 07(UTC) não localizada na base de dados da REDEMET
2008061808 - Mensagem METAR de 'SBKG' para 18/06/2008 as 08(UTC) não localizada na base de dados da REDEMET
2008061809 - SBKG 180915Z 33004KT 9999 SCT020 BKN100 20/19 Q1016 =
2008061810 - SBKG 181000Z 20006KT 9999 SCT020 BKN100 21/19 Q1017 =
2008061811 - SBKG 181100Z 18006KT 9999 BKN020 BKN100 21/19 Q1018 =
2008061812 - SBKG 181200Z 17006KT 9999 BKN020 SCT100 22/19 Q1018 =
2008061813 - SBKG 181300Z 18008KT 9999 SCT025 24/18 Q1018 =
2008061814 - SBKG 181400Z 16006KT 9999 SCT030 25/19 Q1017 =
2008061815 - SBKG 181500Z 20006KT 9999 SCT030 26/19 Q1017 =
2008061816 - SBKG 181600Z 18006KT 9999 SCT032 SCT100 26/19 Q1016=
2008061817 - SBKG 181700Z 14006KT 9999 SCT034 BKN100 27/19 Q1015=
2008061818 - SBKG 181800Z 14010KT 9999 SCT036 SCT100 26/20 Q1014=
2008061819 - SBKG 181900Z 16008KT 9999 FEW040 25/20 Q1014=
2008061820 - SBKG 182000Z 13004KT CAVOK 24/20 Q1015=
2008061821 - SBKG 182100Z 13004KT CAVOK 23/20 Q1015=
2008061822 - SBKG 182200Z 12005KT CAVOK 22/19 Q1016=
2008061823 - SBKG 182300Z 12005KT 9999 SCT020 21/19 Q1016=
2008061900 - SBKG 190000Z 12005KT 9999 SCT015 21/20 Q1017=
2008061901 - SBKG 190100Z 15005KT CAVOK 20/18 Q1017=
2008061902 - SBKG 190200Z 13004KT CAVOK 19/18 Q1017=
2008061903 - SBKG 190300Z 14005KT CAVOK 19/18 Q1017=
2008061904 - Mensagem METAR de 'SBKG' para 19/06/2008 as 04(UTC) não localizada na base de dados da REDEMET
2008061905 - Mensagem METAR de 'SBKG' para 19/06/2008 as 05(UTC) não localizada na base de dados da REDEMET
2008061906 - Mensagem METAR de 'SBKG' para 19/06/2008 as 06(UTC) não localizada na base de dados da REDEMET
2008061907 - Mensagem METAR de 'SBKG' para 19/06/2008 as 07(UTC) não localizada na base de dados da REDEMET
2008061908 - Mensagem METAR de 'SBKG' para 19/06/2008 as 08(UTC) não localizada na base de dados da REDEMET
2008061909 - SBKG 190915Z 00000KT CAVOK 16/16 Q1016=
2008061910 - SBKG 191000Z 30004KT CAVOK 18/18 Q1017=
2008061911 - SBKG 191100Z 27002KT 9999 FEW012 SCT015 20/18 Q1017=
2008061912 - SBKG 191200Z 18008KT 9999 FEW012 22/19 Q1018=
2008061913 - SBKG 191300Z 19006KT 9999 SCT018 23/20 Q1018=
2008061914 - SBKG 191400Z 21004KT 9999 SCT021 25/19 Q1017=
2008061915 - SBKG 191500Z 15006KT 9999 SCT032 27/18 Q1016=
2008061916 - SBKG 191600Z 16006KT 9999 SCT040 27/18 Q1015=
2008061917 - SBKG 191700Z 14008KT 9999 SCT040 28/18 Q1015=
2008061918 - SBKG 191800Z 18006KT 9999 BKN040 27/18 Q1014=
2008061919 - SBKG 191900Z 16006KT 9999 BKN040 26/19 Q1014=
2008061920 - SBKG 192000Z 17006KT CAVOK 25/19 Q1014=
2008061921 - SBKG 192100Z 15004KT 9999 BKN030 24/20 Q1015=
2008061922 - SBKG 192200Z 13004KT 9999 SCT015 23/20 Q1015=
2008061923 - SBKG 192300Z 15008KT 9999 SCT010 22/21 Q1016=
2008062000 - SBKG 200000Z 13004KT 8000 -RA BR FEW006 BKN010 22/21 Q1017=
2008062001 - SBKG 200100Z 12004KT 9999 SCT010 21/20 Q1017=
2008062002 - SBKG 200200Z 13003KT 9999 SCT010 21/20 Q1017=
2008062003 - SBKG 200300Z 15004KT 9999 SCT010 21/20 Q1017=
2008062004 - Mensagem METAR de 'SBKG' para 20/06/2008 as 04(UTC) não localizada na base de dados da REDEMET
2008062005 - Mensagem METAR de 'SBKG' para 20/06/2008 as 05(UTC) não localizada na base de dados da REDEMET
2008062006 - Mensagem METAR de 'SBKG' para 20/06/2008 as 06(UTC) não localizada na base de dados da REDEMET
2008062007 - Mensagem METAR de 'SBKG' para 20/06/2008 as 07(UTC) não localizada na base de dados da REDEMET
2008062008 - Mensagem METAR de 'SBKG' para 20/06/2008 as 08(UTC) não localizada na base de dados da REDEMET
2008062009 - SBKG 200915Z 17006KT 9000 SCT010 BKN018 20/19 Q1016=
2008062010 - SBKG 201000Z 17006KT 9999 7000SE VCSH SCT010 BKN018 20/20 Q1016=
2008062011 - SBKG 201100Z 16006KT 3000 -RA BKN010 BKN018 21/20 Q1017 =
2008062011 - SBKG 201130Z 15012KT 3000 -RADZ BR BKN006 BKN010 BKN018 20/20 Q1017=
2008062012 - SBKG 201200Z 16008KT 6000 VCSH SCT008 SCT012 BKN015 21/20 Q1017=
2008062013 - SBKG 201300Z 16010KT 6000 VCSH FEW008 SCT012 BKN015 22/21 Q1017=
2008062014 - SBKG 201400Z 15006KT 9999 SCT015 BKN018 24/21 Q1016=
2008062015 - SBKG 201500Z 18011KT 9999 BKN020 25/21 Q1016=
2008062016 - SBKG 201600Z 15009KT 9999 SCT025 SCT030 25/19 Q1015=
2008062017 - SBKG 201700Z 12014KT 9999 SCT025 SCT030 26/20 Q1014=
2008062018 - SBKG 201800Z 12013KT 9999 SCT025 25/20 Q1013=
2008062019 - SBKG 201900Z 14009KT 9999 SCT030 SCT070 25/19 Q1014=
2008062020 - SBKG 202000Z 13012KT 9999 FEW025 SCT070 23/19 Q1014=
2008062021 - SBKG 202100Z 12007KT 9999 FEW020 SCT070 22/19 Q1015=
2008062022 - SBKG 202200Z 14006KT 9999 FEW017 20/19 Q1016 =
2008062023 - SBKG 202300Z 16006KT CAVOK 20/19 Q1016 =
2008062100 - SBKG 210000Z 17004KT CAVOK 19/18 Q1017 =
2008062101 - SBKG 210100Z 17006KT CAVOK 19/18 Q1017 =
2008062102 - SBKG 210200Z 18004KT CAVOK 18/18 Q1017 =
2008062103 - SBKG 210300Z 18004KT CAVOK 18/17 Q1016 =
2008062104 - Mensagem METAR de 'SBKG' para 21/06/2008 as 04(UTC) não localizada na base de dados da REDEMET
2008062105 - Mensagem METAR de 'SBKG' para 21/06/2008 as 05(UTC) não localizada na base de dados da REDEMET
2008062106 - Mensagem METAR de 'SBKG' para 21/06/2008 as 06(UTC) não localizada na base de dados da REDEMET
2008062107 - Mensagem METAR de 'SBKG' para 21/06/2008 as 07(UTC) não localizada na base de dados da REDEMET
2008062108 - Mensagem METAR de 'SBKG' para 21/06/2008 as 08(UTC) não localizada na base de dados da REDEMET
2008062109 - SBKG 210915Z 25006KT CAVOK 17/17 Q1016=
2008062110 - SBKG 211000Z 00000KT CAVOK 18/17 Q1016=
2008062111 - SBKG 211100Z 20005KT CAVOK 22/18 Q1016=
2008062112 - SBKG 211200Z 17007KT CAVOK 22/16 Q1017=
2008062113 - SBKG 211300Z 15011KT CAVOK 25/17 Q1016=
2008062114 - SBKG 211400Z 15008KT 9999 FEW025 BKN070 26/17 Q1016=
2008062115 - SBKG 211500Z 13011KT 9999 SCT025 BKN070 26/17 Q1016=
2008062116 - SBKG 211600Z 12006KT 9999 SCT025 BKN100 25/19 Q1015=
2008062117 - SBKG 211700Z 13008KT 9999 SCT025 BKN100 25/19 Q1014=
2008062118 - SBKG 211800Z 13006KT 9999 SCT025 BKN100 25/18 Q1014=
2008062119 - SBKG 211900Z 12006KT 9999 SCT015 BKN020 BKN080 24/19 Q1014=
2008062120 - SBKG 212000Z 12006KT 9999 SCT015 BKN020 BKN080 23/19 Q1014=
2008062121 - SBKG 212100Z 12004KT 9999 SCT015 SCT020 BKN080 22/20 Q1014=
2008062122 - SBKG 212200Z 13003KT CAVOK 21/20 Q1015=
2008062123 - SBKG 212300Z 00000KT CAVOK 21/20 Q1015=
2008062200 - SBKG 220000Z 13002KT CAVOK 20/19 Q1016=
2008062201 - SBKG 220100Z 13006KT CAVOK 20/18 Q1016=
2008062202 - SBKG 220200Z 14002KT 9999 SCT032 BKN080 20/19 Q1016=
2008062203 - SBKG 220300Z 16006KT 9999 SCT028 BKN080 20/18 Q1016=
2008062204 - Mensagem METAR de 'SBKG' para 22/06/2008 as 04(UTC) não localizada na base de dados da REDEMET
2008062205 - Mensagem METAR de 'SBKG' para 22/06/2008 as 05(UTC) não localizada na base de dados da REDEMET
2008062206 - Mensagem METAR de 'SBKG' para 22/06/2008 as 06(UTC) não localizada na base de dados da REDEMET
2008062207 - Mensagem METAR de 'SBKG' para 22/06/2008 as 07(UTC) não localizada na base de dados da REDEMET
2008062208 - Mensagem METAR de 'SBKG' para 22/06/2008 as 08(UTC) não localizada na base de dados da REDEMET
2008062209 - SBKG 220915Z 00000KT CAVOK 18/16 Q1016=
2008062210 - SBKG 221000Z 25004KT CAVOK 20/19 Q1016=
2008062211 - SBKG 221100Z 21006KT CAVOK 21/19 Q1016=
2008062212 - SBKG 221200Z 18006KT CAVOK 22/17 Q1016=
2008062213 - SBKG 221300Z 15006KT 9999 SCT020 25/18 Q1016=
2008062214 - SBKG 221400Z 15006KT 9999 SCT020 26/18 Q1016=
2008062215 - SBKG 221500Z 12005KT 9999 SCT020 27/18 Q1015=
2008062216 - SBKG 221600Z 13006KT 9999 SCT025 28/19 Q1014 =
2008062217 - SBKG 221700Z 12006KT 9999 SCT025 28/20 Q1014 =
2008062218 - SBKG 221800Z 10005KT 9999 FEW025 28/20 Q1014 =
2008062219 - SBKG 221900Z 12006KT 9999 FEW025 27/20 Q1014 =
2008062220 - SBKG 222000Z 13006KT 9999 FEW020 26/20 Q1015 =
2008062221 - SBKG 222100Z 12006KT 9999 SCT020 24/21 Q1015=
2008062222 - SBKG 222200Z 14006KT 9999 SCT012 BKN018 23/22 Q1016=
2008062223 - SBKG 222300Z 13006KT 9999 BKN015 BKN018 22/21 Q1016=
2008062300 - SBKG 230000Z 14004KT 9999 SCT012 BKN018 22/21 Q1017=
2008062301 - SBKG 230100Z 14002KT 9999 SCT016 SCT020 21/21 Q1017=
2008062302 - SBKG 230200Z 14003KT 2500 VCFG SCT005 20/20 Q1017=
2008062303 - SBKG 230300Z 00000KT 0150 FG VV/// 20/20 Q1017=
2008062304 - Mensagem METAR de 'SBKG' para 23/06/2008 as 04(UTC) não localizada na base de dados da REDEMET
2008062305 - Mensagem METAR de 'SBKG' para 23/06/2008 as 05(UTC) não localizada na base de dados da REDEMET
2008062306 - Mensagem METAR de 'SBKG' para 23/06/2008 as 06(UTC) não localizada na base de dados da REDEMET
2008062307 - Mensagem METAR de 'SBKG' para 23/06/2008 as 07(UTC) não localizada na base de dados da REDEMET
2008062308 - Mensagem METAR de 'SBKG' para 23/06/2008 as 08(UTC) não localizada na base de dados da REDEMET
2008062309 - SBKG 230915Z 00000KT 0500 FG OVC003 19/19 Q1016=
2008062310 - SBKG 231000Z 28004KT 1500 BR SCT006 BKN010 BKN070 19/19 Q1017=
2008062310 - SBKG 231020Z 21002KT 3000 BR SCT006 BKN010 BKN070 20/19 Q1017=
2008062311 - SBKG 231100Z 18004KT 5000 BR SCT010 BKN015 BKN100 20/19 Q1017=
2008062312 - SBKG 231200Z 14006KT 9999 BKN020 BKN090 23/21 Q1018 =
2008062313 - SBKG 231300Z 12002KT 9999 BKN020 BKN300 25/20 Q1018 =
2008062314 - SBKG 231400Z 12006KT 9999 SCT025 BKN300 26/20 Q1017 =
2008062315 - SBKG 231500Z 14006KT 9999 SCT025 BKN300 27/20 Q1017 =
2008062316 - SBKG 231600Z 13008KT 9999 SCT032 BKN300 27/22 Q1016=
2008062317 - SBKG 231700Z 14007KT 9999 SCT034 SCT300 28/21 Q1015=
2008062318 - SBKG 231800Z 13009KT 9999 FEW040 SCT300 28/21 Q1015=
2008062319 - SBKG 231900Z 12008KT 9999 FEW032 SCT333 27/20 Q1015=
2008062320 - SBKG 232000Z 12008KT 9999 FEW028 BKN333 26/21 Q1015=
2008062321 - SBKG 232100Z 13005KT 9999 FEW026 SCT333 24/21 Q1016=
2008062322 - SBKG 232200Z 12007KT 9999 SCT020 23/21 Q1017=
2008062323 - SBKG 232300Z 12005KT 9999 SCT020 23/21 Q1018=
2008062400 - SBKG 240000Z 12005KT 9999 SCT015 22/20 Q1018=
2008062401 - SBKG 240100Z 12005KT 9999 SCT015 21/21 Q1018=
2008062402 - SBKG 240200Z 12003KT 9999 SCT015 22/21 Q1018=
2008062403 - SBKG 240300Z 12003KT 9999 SCT015 22/21 Q1018=
2008062404 - SBKG 240400Z 17005KT 9999 SCT008 BKN015 21/21 Q1018=
2008062405 - SBKG 240500Z 13005KT 9999 FEW007 BKN015 21/20 Q1018=
2008062406 - Mensagem METAR de 'SBKG' para 24/06/2008 as 06(UTC) não localizada na base de dados da REDEMET
2008062407 - Mensagem METAR de 'SBKG' para 24/06/2008 as 07(UTC) não localizada na base de dados da REDEMET
2008062408 - Mensagem METAR de 'SBKG' para 24/06/2008 as 08(UTC) não localizada na base de dados da REDEMET
2008062409 - SBKG 240915Z 17003KT 9999 SCT012 SCT015 BKN080 20/20 Q1018 =
2008062410 - SBKG 241000Z 18008KT 9999 FEW014 BKN080 21/20 Q1019=
2008062411 - SBKG 241100Z 16008KT 9999 FEW014 SCT018 BKN090 22/19 Q1019=
2008062412 - SBKG 241200Z 18012KT 9999 SCT021 BKN090 23/20 Q1019=
2008062413 - SBKG 241300Z 17007KT 9999 SCT026 BKN090 23/20 Q1019=
2008062414 - SBKG 241400Z 17008KT 9999 FEW018 BKN028 BKN080 24/19 Q1019=
2008062415 - SBKG 241500Z 15007KT 9999 BKN032 BKN080 25/19 Q1018=
2008062416 - SBKG 241600Z 14006KT 9999 BKN040 SCT080 26/18 Q1017=
2008062417 - SBKG 241700Z 17006KT 9999 BKN040 SCT100 26/19 Q1016=
2008062418 - SBKG 241800Z 18006KT 9999 SCT040 26/19 Q1016=
2008062419 - SBKG 241900Z 13006KT CAVOK 25/19 Q1016=
2008062420 - SBKG 242000Z 14004KT 9999 FEW030 BKN150 25/19 Q1016=
2008062421 - SBKG 242100Z 14010KT 9999 FEW025 BKN150 23/19 Q1017=
2008062422 - SBKG 242200Z 15008KT 9999 FEW015 SCT100 22/19 Q1017=
2008062423 - SBKG 242300Z 15010KT 9999 FEW015 22/19 Q1017=
2008062500 - SBKG 250000Z 15006KT 9999 FEW015 21/20 Q1018=
2008062501 - SBKG 250100Z 18004KT 9999 FEW015 21/20 Q1018=
2008062502 - SBKG 250200Z 15003KT 9999 FEW015 21/20 Q1018=
2008062503 - SBKG 250300Z 18004KT 9999 FEW015 21/20 Q1018=
2008062504 - Mensagem METAR de 'SBKG' para 25/06/2008 as 04(UTC) não localizada na base de dados da REDEMET
2008062505 - Mensagem METAR de 'SBKG' para 25/06/2008 as 05(UTC) não localizada na base de dados da REDEMET
2008062506 - Mensagem METAR de 'SBKG' para 25/06/2008 as 06(UTC) não localizada na base de dados da REDEMET
2008062507 - Mensagem METAR de 'SBKG' para 25/06/2008 as 07(UTC) não localizada na base de dados da REDEMET
2008062508 - Mensagem METAR de 'SBKG' para 25/06/2008 as 08(UTC) não localizada na base de dados da REDEMET
2008062509 - SBKG 250915Z 24003KT 9999 FEW010 20/20 Q1017=
2008062510 - SBKG 251000Z 21006KT 9999 FEW012 20/19 Q1017=
2008062511 - SBKG 251100Z 21007KT 9999 FEW012 SCT080 21/20 Q1018=
2008062512 - SBKG 251200Z 18008KT 9999 BKN018 BKN080 23/20 Q1018=
2008062513 - SBKG 251300Z 15008KT 9999 VCSH BKN020 BKN100 23/20 Q1018=
2008062514 - SBKG 251400Z 15010KT 5000 VCSH SCT012 BKN020 BKN100 23/21 Q1017=
2008062515 - SBKG 251500Z 15006KT 9999 BKN016 SCT020 24/21 Q1016=
2008062516 - SBKG 251600Z 13013KT 7000 -RA SCT015 SCT025 23/22 Q1016=
2008062517 - SBKG 251700Z 12005KT 9999 SCT025 BKN080 22/20 Q1016=
2008062518 - SBKG 251800Z 12008KT 9999 5000SW VCSH SCT012 SCT020 BKN070 23/21 Q1015=
2008062518 - SBKG 251815Z 13007KT 2000 -RA BR SCT012 BKN020 BKN070 22/21 Q1015=
2008062518 - SBKG 251835Z 13009KT 8000 FEW010 SCT020 BKN070 21/21 Q1016=
2008062519 - SBKG 251900Z 12005KT 9999 FEW007 OVC070 21/21 Q1016=
2008062520 - SBKG 252000Z 12003KT 9999 SCT015 BKN070 21/21 Q1016=
2008062521 - SBKG 252100Z 12003KT 9999 FEW010 BKN070 21/21 Q1016=
2008062522 - SBKG 252200Z 13004KT 9999 SCT015 BKN090 21/20 Q1016 =
2008062523 - SBKG 252300Z 14006KT 9999 SCT017 20/19 Q1017 =
2008062500 - SBKG 250000Z 15006KT 9999 FEW015 21/20 Q1018=
2008062501 - SBKG 250100Z 18004KT 9999 FEW015 21/20 Q1018=
2008062502 - SBKG 250200Z 15003KT 9999 FEW015 21/20 Q1018=
2008062503 - SBKG 250300Z 18004KT 9999 FEW015 21/20 Q1018=
2008062504 - Mensagem METAR de 'SBKG' para 25/06/2008 as 04(UTC) não localizada na base de dados da REDEMET
2008062505 - Mensagem METAR de 'SBKG' para 25/06/2008 as 05(UTC) não localizada na base de dados da REDEMET
2008062506 - Mensagem METAR de 'SBKG' para 25/06/2008 as 06(UTC) não localizada na base de dados da REDEMET
2008062507 - Mensagem METAR de 'SBKG' para 25/06/2008 as 07(UTC) não localizada na base de dados da REDEMET
2008062508 - Mensagem METAR de 'SBKG' para 25/06/2008 as 08(UTC) não localizada na base de dados da REDEMET
2008062509 - SBKG 250915Z 24003KT 9999 FEW010 20/20 Q1017=
2008062510 - SBKG 251000Z 21006KT 9999 FEW012 20/19 Q1017=
2008062511 - SBKG 251100Z 21007KT 9999 FEW012 SCT080 21/20 Q1018=
2008062512 - SBKG 251200Z 18008KT 9999 BKN018 BKN080 23/20 Q1018=
2008062513 - SBKG 251300Z 15008KT 9999 VCSH BKN020 BKN100 23/20 Q1018=
2008062514 - SBKG 251400Z 15010KT 5000 VCSH SCT012 BKN020 BKN100 23/21 Q1017=
2008062515 - SBKG 251500Z 15006KT 9999 BKN016 SCT020 24/21 Q1016=
2008062516 - SBKG 251600Z 13013KT 7000 -RA SCT015 SCT025 23/22 Q1016=
2008062517 - SBKG 251700Z 12005KT 9999 SCT025 BKN080 22/20 Q1016=
2008062518 - SBKG 251800Z 12008KT 9999 5000SW VCSH SCT012 SCT020 BKN070 23/21 Q1015=
2008062518 - SBKG 251815Z 13007KT 2000 -RA BR SCT012 BKN020 BKN070 22/21 Q1015=
2008062518 - SBKG 251835Z 13009KT 8000 FEW010 SCT020 BKN070 21/21 Q1016=
2008062519 - SBKG 251900Z 12005KT 9999 FEW007 OVC070 21/21 Q1016=
2008062520 - SBKG 252000Z 12003KT 9999 SCT015 BKN070 21/21 Q1016=
2008062521 - SBKG 252100Z 12003KT 9999 FEW010 BKN070 21/21 Q1016=
2008062522 - SBKG 252200Z 13004KT 9999 SCT015 BKN090 21/20 Q1016 =
2008062523 - SBKG 252300Z 14006KT 9999 SCT017 20/19 Q1017 =
2008062600 - SBKG 260000Z 12004KT CAVOK 19/19 Q1017 =
2008062701 - SBKG 270100Z 17006KT CAVOK 19/18 Q1018=
2008062702 - SBKG 270200Z 21004KT 9000 SKC 19/18 Q1018=
2008062703 - SBKG 270300Z 23002KT 9999 5000NW SKC 19/18 Q1018=
2008062704 - Mensagem METAR de 'SBKG' para 27/06/2008 as 04(UTC) não localizada na base de dados da REDEMET
2008062705 - Mensagem METAR de 'SBKG' para 27/06/2008 as 05(UTC) não localizada na base de dados da REDEMET
2008062706 - Mensagem METAR de 'SBKG' para 27/06/2008 as 06(UTC) não localizada na base de dados da REDEMET
2008062707 - Mensagem METAR de 'SBKG' para 27/06/2008 as 07(UTC) não localizada na base de dados da REDEMET
2008062708 - Mensagem METAR de 'SBKG' para 27/06/2008 as 08(UTC) não localizada na base de dados da REDEMET
2008062709 - SBKG 270915Z 00000KT 9999 SCT010 19/18 Q1017=
2008062710 - SBKG 271000Z 25002KT CAVOK 19/18 Q1018=
2008062711 - SBKG 271100Z 15010KT 9999 FEW018 SCT080 21/18 Q1019=
2008062712 - SBKG 271200Z 18010KT 9999 BKN020 23/19 Q1019=
2008062713 - SBKG 271300Z 13014KT 9999 BKN020 23/18 Q1019=
2008062714 - SBKG 271400Z 15012KT 9999 SCT020 BKN300 26/17 Q1018=
2008062715 - SBKG 271500Z 15015KT 9999 SCT020 27/17 Q1018=
2008062716 - SBKG 271600Z 15012KT 9999 SCT030 BKN300 27/18 Q1017 =
2008062717 - SBKG 271700Z 16012KT 9999 SCT030 SCT300 27/18 Q1016 =
2008062718 - SBKG 271800Z 13010KT 9999 SCT030 SCT300 26/18 Q1017 =
2008062719 - SBKG 271900Z 14008KT 9999 SCT025 BKN300 26/19 Q1017 =
2008062720 - SBKG 272000Z 13008KT 9999 SCT020 BKN300 25/20 Q1017 =
2008062721 - SBKG 272100Z 16010KT 9999 SCT017 SCT020 BKN300 23/20 Q1018 =
2008062722 - SBKG 272200Z 15008KT 9999 BKN016 BKN300 22/20 Q1019=
2008062723 - SBKG 272300Z 18008KT 9999 BKN016 BKN300 22/19 Q1019=
2008062800 - SBKG 280000Z 18008KT 9999 BKN012 BKN015 21/19 Q1019=
2008062801 - SBKG 280100Z 19008KT 9999 SCT012 BKN015 21/19 Q1019=
2008062802 - SBKG 280200Z 21008KT 9999 SCT010 BKN015 20/20 Q1019=
2008062803 - SBKG 280300Z 18008KT 9999 VCSH BKN010 BKN012 20/20 Q1019=
2008062804 - Mensagem METAR de 'SBKG' para 28/06/2008 as 04(UTC) não localizada na base de dados da REDEMET
2008062805 - Mensagem METAR de 'SBKG' para 28/06/2008 as 05(UTC) não localizada na base de dados da REDEMET
2008062806 - Mensagem METAR de 'SBKG' para 28/06/2008 as 06(UTC) não localizada na base de dados da REDEMET
2008062807 - Mensagem METAR de 'SBKG' para 28/06/2008 as 07(UTC) não localizada na base de dados da REDEMET
2008062808 - Mensagem METAR de 'SBKG' para 28/06/2008 as 08(UTC) não localizada na base de dados da REDEMET
2008062809 - SBKG 280915Z 15006KT 9999 SCT020 BKN300 20/19 Q1019 =
2008062810 - SBKG 281000Z 16010KT 9999 SCT020 BKN300 21/20 Q1020 =
2008062811 - SBKG 281100Z 18012KT 9999 SCT020 BKN300 22/20 Q1021 =
2008062812 - SBKG 281200Z 17012KT 9999 SCT020 BKN300 24/20 Q1021 =
2008062813 - SBKG 281300Z 16014KT 9999 BKN020 BKN300 25/19 Q1021 =
2008062814 - SBKG 281400Z 12014KT 9999 BKN020 BKN300 26/19 Q1020 =
2008062815 - SBKG 281500Z 15014KT 9999 SCT030 BKN300 27/19 Q1019 =
2008062816 - SBKG 281600Z 14016KT 9999 SCT032 BKN300 27/18 Q1018=
2008062817 - SBKG 281700Z 12010KT 9999 SCT032 BKN300 26/20 Q1018=
2008062818 - SBKG 281800Z 13012KT 9999 SCT034 SCT300 26/19 Q1018=
2008062819 - SBKG 281900Z 13008KT 9999 SCT032 SCT090 25/19 Q1018=
2008062820 - SBKG 282000Z 14008KT 9999 FEW028 SCT080 BKN300 24/20 Q1018=
2008062821 - SBKG 282100Z 18010KT 9999 FEW006 SCT026 BKN080 21/21 Q1019=
2008062822 - SBKG 282200Z 16008KT 9999 SCT007 BKN070 20/20 Q1020=
2008062823 - SBKG 282300Z 14005KT 5000 -DZ SCT007 BKN070 20/20 Q1020=
2008062900 - SBKG 290000Z 14010KT 9999 FEW007 BKN070 20/20 Q1020=
2008062901 - SBKG 290100Z 15009KT 9999 BKN010 BKN070 20/20 Q1020=
2008062902 - SBKG 290200Z 14005KT 9999 BKN012 BKN070 20/20 Q1020=
2008062903 - SBKG 290300Z 14008KT 9999 BKN012 BKN070 20/19 Q1020=
2008062904 - Mensagem METAR de 'SBKG' para 29/06/2008 as 04(UTC) não localizada na base de dados da REDEMET
2008062905 - Mensagem METAR de 'SBKG' para 29/06/2008 as 05(UTC) não localizada na base de dados da REDEMET
2008062906 - Mensagem METAR de 'SBKG' para 29/06/2008 as 06(UTC) não localizada na base de dados da REDEMET
2008062907 - Mensagem METAR de 'SBKG' para 29/06/2008 as 07(UTC) não localizada na base de dados da REDEMET
2008062908 - Mensagem METAR de 'SBKG' para 29/06/2008 as 08(UTC) não localizada na base de dados da REDEMET
2008062909 - SBKG 290915Z 17004KT 5000 BR SCT012 SCT018 BKN080 19/19 Q1019 =
2008062910 - SBKG 291000Z 16006KT 8000 VCSH SCT012 BKN016 BKN080 20/20 Q1020=
2008062911 - SBKG 291100Z 17010KT 8000 VCSH SCT014 SCT021 BKN090 20/20 Q1020=
2008062912 - SBKG 291200Z 15012KT 9999 FEW015 SCT018 BKN090 21/19 Q1021=
2008062913 - SBKG 291300Z 16012KT 9999 SCT026 SCT032 BKN090 23/20 Q1021=
2008062914 - SBKG 291400Z 18010KT 9999 BKN026 BKN090 23/19 Q1020=
2008062915 - SBKG 291500Z 17010KT 9999 8000S VCSH SCT028 BKN090 24/19 Q1019=
2008062916 - SBKG 291600Z 16010KT 9999 FEW028 BKN090 25/18 Q1018=
2008062917 - SBKG 291700Z 18010KT 9999 BKN030 SCT090 26/18 Q1017=
2008062918 - SBKG 291800Z 14015KT 9999 BKN030 26/19 Q1017=
2008062919 - SBKG 291900Z 19011KT 9999 BKN032 23/19 Q1018=
2008062920 - SBKG 292000Z 14007KT CAVOK 23/17 Q1018=
2008062921 - SBKG 292100Z 18008KT 9999 SCT025 22/18 Q1018=
2008062922 - SBKG 292200Z 15004KT 9999 FEW015 21/18 Q1019=
2008062923 - SBKG 292300Z 15002KT CAVOK 20/18 Q1019=
2008063000 - SBKG 300000Z 15006KT CAVOK 19/18 Q1020=
2008063001 - SBKG 300100Z 15006KT CAVOK 19/18 Q1019=
2008063002 - SBKG 300200Z 18006KT 9999 SCT015 19/18 Q1019=
2008063003 - SBKG 300300Z 18002KT 9999 SCT015 19/18 Q1019=
2008063004 - Mensagem METAR de 'SBKG' para 30/06/2008 as 04(UTC) não localizada na base de dados da REDEMET
2008063005 - Mensagem METAR de 'SBKG' para 30/06/2008 as 05(UTC) não localizada na base de dados da REDEMET
2008063006 - Mensagem METAR de 'SBKG' para 30/06/2008 as 06(UTC) não localizada na base de dados da REDEMET
2008063007 - Mensagem METAR de 'SBKG' para 30/06/2008 as 07(UTC) não localizada na base de dados da REDEMET
2008063008 - Mensagem METAR de 'SBKG' para 30/06/2008 as 08(UTC) não localizada na base de dados da REDEMET
2008063009 - SBKG 300915Z 25001KT CAVOK 18/18 Q1018=
2008063010 - SBKG 301000Z 22004KT 9999 FEW015 19/18 Q1019=
2008063011 - SBKG 301100Z 17007KT 9999 SCT015 21/18 Q1019=
2008063012 - SBKG 301200Z 18012KT 9999 SCT020 23/19 Q1019=
2008063013 - SBKG 301300Z 16010KT 9999 BKN025 24/18 Q1019=
2008063014 - SBKG 301400Z 18010KT 9999 BKN025 25/20 Q1019 =
2008063015 - SBKG 301500Z 15012KT 9999 7000SE VCSH BKN020 25/19 Q1018=
2008063016 - SBKG 301600Z 15009KT 9999 8000NW VCSH BKN020 23/20 Q1017=
2008063017 - SBKG 301700Z 12009KT 9999 8000S VCSH BKN020 BKN070 24/20 Q1017=
2008063018 - SBKG 301800Z 12005KT 5000 -RA BKN020 BKN070 23/21 Q1016=
2008063019 - SBKG 301900Z 20007KT 5000 -RA BKN020 OVC080 22/21 Q1017=
2008063020 - SBKG 302000Z 15007KT 9999 BKN010 OVC070 21/21 Q1017=
2008063021 - SBKG 302100Z 13005KT 8000 -RA BKN010 OVC070 21/21 Q1018=
2008063022 - SBKG 302200Z 16004KT 9999 SCT006 BKN015 BKN070 21/20 Q1018 =
2008063023 - SBKG 302300Z 16006KT 9999 SCT015 BKN090 21/20 Q1018 =