2011060100 - SBKG 010000Z 15007KT CAVOK 22/20 Q1016=
2011060101 - SBKG 010100Z 15008KT CAVOK 21/20 Q1016=
2011060102 - SBKG 010200Z 16007KT CAVOK 21/20 Q1015=
2011060103 - SBKG 010300Z 15008KT CAVOK 21/20 Q1015=
2011060104 - Mensagem METAR de 'SBKG' para 01/06/2011 as 04(UTC) não localizada na base de dados da REDEMET
2011060105 - Mensagem METAR de 'SBKG' para 01/06/2011 as 05(UTC) não localizada na base de dados da REDEMET
2011060106 - Mensagem METAR de 'SBKG' para 01/06/2011 as 06(UTC) não localizada na base de dados da REDEMET
2011060107 - Mensagem METAR de 'SBKG' para 01/06/2011 as 07(UTC) não localizada na base de dados da REDEMET
2011060108 - Mensagem METAR de 'SBKG' para 01/06/2011 as 08(UTC) não localizada na base de dados da REDEMET
2011060109 - SBKG 010915Z 12003KT 9999 SCT010 21/20 Q1015=
2011060110 - SBKG 011000Z 13007KT 9999 SCT010 BKN015 23/21 Q1015=
2011060111 - SBKG 011100Z 14006KT 9999 SCT015 BKN018 24/21 Q1016=
2011060112 - SBKG 011200Z 14006KT 9999 SCT015 BKN018 24/21 Q1016=
2011060113 - SBKG 011300Z 17011KT 9999 SCT015 BKN018 26/21 Q1016=
2011060114 - SBKG 011400Z 13011KT 5000 -RA BR SCT010 BKN015 23/21 Q1015=
2011060115 - SBKG 011500Z 14010KT 9999 SCT015 BKN020 25/21 Q1014=
2011060116 - SBKG 011600Z 10009KT 9999 SCT030 27/21 Q1013 =
2011060117 - SBKG 011700Z 10007KT 9999 SCT030 28/21 Q1013=
2011060118 - SBKG 011800Z 12008KT 9999 SCT027 27/19 Q1013=
2011060119 - SBKG 011900Z 12007KT 9999 SCT027 25/19 Q1013=
2011060120 - SBKG 012000Z 14007KT 9999 FEW020 24/19 Q1013 =
2011060121 - SBKG 012100Z 13007KT 9999 FEW020 22/19 Q1014=
2011060122 - SBKG 012200Z 12004KT 9999 FEW025 21/19 Q1014=
2011060123 - SBKG 012300Z 14002KT CAVOK 20/19 Q1015=
2011060200 - SBKG 020000Z 13004KT CAVOK 20/19 Q1015=
2011060201 - SBKG 020100Z 13002KT CAVOK 20/19 Q1016=
2011060202 - SBKG 020200Z 12002KT 9999 FEW015 20/19 Q1016=
2011060203 - SBKG 020300Z 13003KT 9999 SCT020 20/20 Q1016=
2011060204 - Mensagem METAR de 'SBKG' para 02/06/2011 as 04(UTC) não localizada na base de dados da REDEMET
2011060205 - Mensagem METAR de 'SBKG' para 02/06/2011 as 05(UTC) não localizada na base de dados da REDEMET
2011060206 - Mensagem METAR de 'SBKG' para 02/06/2011 as 06(UTC) não localizada na base de dados da REDEMET
2011060207 - Mensagem METAR de 'SBKG' para 02/06/2011 as 07(UTC) não localizada na base de dados da REDEMET
2011060208 - Mensagem METAR de 'SBKG' para 02/06/2011 as 08(UTC) não localizada na base de dados da REDEMET
2011060209 - SBKG 020915Z 14003KT 9999 SCT010 20/20 Q1014=
2011060210 - SBKG 021000Z 14005KT 9999 SCT015 23/21 Q1015=
2011060211 - SBKG 021100Z 14010KT 9999 SCT018 25/20 Q1015=
2011060212 - SBKG 021200Z 14010KT 9999 FEW020 27/19 Q1016=
2011060213 - SBKG 021300Z 15011KT 9999 BKN020 27/19 Q1016=
2011060214 - SBKG 021400Z 16012KT 9999 BKN025 29/19 Q1016=
2011060215 - SBKG 021500Z 15010KT 9999 BKN040 29/19 Q1015=
2011060216 - SBKG 021600Z 13009KT 9999 BKN030 28/19 Q1014=
2011060217 - SBKG 021700Z 13006KT 9999 SCT030 29/20 Q1013=
2011060218 - SBKG 021800Z 12007KT 9999 SCT030 28/20 Q1013=
2011060219 - SBKG 021900Z 10010KT 9999 SCT025 24/21 Q1014 =
2011060220 - SBKG 022000Z 13016KT 2000 -RA BR SCT009 BKN012 22/20 Q1014 =
2011060221 - SBKG 022100Z 10008KT 9999 FEW010 OVC070 21/20 Q1014=
2011060222 - SBKG 022200Z 15006KT 3000 -RA BR SCT006 BKN010 OVC070 21/20 Q1015=
2011060222 - SBKG 022220Z 16006KT 5000 BR SCT010 BKN015 OVC070 21/20 Q1015 =
2011060223 - SBKG 022300Z 13006KT 9999 SCT015 BKN080 21/20 Q1015=
2011060300 - SBKG 030000Z 13004KT 9999 SCT015 BKN080 21/20 Q1016 =
2011060301 - SBKG 030100Z 17003KT 9999 SCT015 BKN080 21/20 Q1016=
2011060302 - SBKG 030200Z 18004KT 9999 SCT015 BKN080 22/21 Q1016 =
2011060303 - SBKG 030300Z 16004KT 9999 SCT015 BKN080 22/21 Q1016=
2011060304 - Mensagem METAR de 'SBKG' para 03/06/2011 as 04(UTC) não localizada na base de dados da REDEMET
2011060305 - Mensagem METAR de 'SBKG' para 03/06/2011 as 05(UTC) não localizada na base de dados da REDEMET
2011060306 - Mensagem METAR de 'SBKG' para 03/06/2011 as 06(UTC) não localizada na base de dados da REDEMET
2011060307 - Mensagem METAR de 'SBKG' para 03/06/2011 as 07(UTC) não localizada na base de dados da REDEMET
2011060308 - Mensagem METAR de 'SBKG' para 03/06/2011 as 08(UTC) não localizada na base de dados da REDEMET
2011060309 - SBKG 030915Z 16002KT 9999 BKN012 21/20 Q1014 =
2011060310 - SBKG 031000Z 15004KT 9999 BKN015 22/20 Q1015=
2011060311 - SBKG 031100Z 17006KT 9999 BKN017 23/20 Q1016=
2011060312 - SBKG 031200Z 14008KT 9999 SCT022 26/20 Q1016=
2011060313 - SBKG 031300Z 19007KT 9999 SCT020 28/20 Q1016 =
2011060314 - SBKG 031400Z 18008KT 9999 SCT030 27/19 Q1016=
2011060315 - SBKG 031500Z 17011KT 9999 SCT030 29/19 Q1015=
2011060316 - SBKG 031600Z 14008KT 9999 SCT030 28/20 Q1014=
2011060317 - SBKG 031700Z 15007KT 9999 SCT030 29/18 Q1014=
2011060318 - SBKG 031800Z 16008KT 9999 SCT030 27/18 Q1014=
2011060319 - SBKG 031900Z 18007KT 9999 FEW030 27/19 Q1014=
2011060320 - SBKG 032000Z 17008KT 9999 SCT030 25/19 Q1014=
2011060321 - SBKG 032100Z 16006KT 9999 SCT020 24/19 Q1014=
2011060322 - SBKG 032200Z 14006KT CAVOK 23/20 Q1015=
2011060323 - SBKG 032300Z 13006KT 9999 FEW020 BKN070 23/20 Q1016=
2011060400 - SBKG 040000Z 13003KT CAVOK 21/20 Q1016=
2011060401 - SBKG 040100Z 25001KT 9999 SCT018 21/19 Q1017=
2011060402 - SBKG 040200Z 18005KT 9999 BKN019 22/20 Q1017=
2011060403 - SBKG 040300Z 18003KT 9999 SCT018 21/20 Q1017=
2011060404 - Mensagem METAR de 'SBKG' para 04/06/2011 as 04(UTC) não localizada na base de dados da REDEMET
2011060405 - Mensagem METAR de 'SBKG' para 04/06/2011 as 05(UTC) não localizada na base de dados da REDEMET
2011060406 - Mensagem METAR de 'SBKG' para 04/06/2011 as 06(UTC) não localizada na base de dados da REDEMET
2011060407 - Mensagem METAR de 'SBKG' para 04/06/2011 as 07(UTC) não localizada na base de dados da REDEMET
2011060408 - Mensagem METAR de 'SBKG' para 04/06/2011 as 08(UTC) não localizada na base de dados da REDEMET
2011060409 - SBKG 040915Z 18003KT 2000 -RA BR SCT006 BKN010 OVC070 20/19 Q1017 =
2011060410 - SBKG 041000Z 13002KT 3000 RA BR SCT007 BKN010 OVC070 20/19 Q1018 =
2011060411 - SBKG 041100Z 15007KT 3000 RA BR SCT007 BKN010 OVC070 20/19 Q1019 =
2011060411 - SBKG 041130Z 13009KT 5000 -RA BR SCT010 BKN015 OVC080 20/19 Q1019 =
2011060412 - SBKG 041200Z 15006KT 6000 SCT010 BKN015 OVC080 21/20 Q1018 RERA =
2011060413 - SBKG 041300Z 23002KT 9999 SCT020 BKN080 25/19 Q1018=
2011060414 - SBKG 041400Z 19002KT 9999 SCT020 BKN100 28/18 Q1016 =
2011060415 - SBKG 041500Z 14006KT 9999 SCT030 28/16 Q1016=
2011060416 - SBKG 041600Z 15005KT 9999 FEW030 28/18 Q1015=
2011060417 - SBKG 041700Z 16006KT 9999 FEW030 28/19 Q1014=
2011060418 - SBKG 041800Z 13006KT 9999 FEW030 26/19 Q1014=
2011060419 - SBKG 041900Z 13005KT 9999 FEW030 25/20 Q1014=
2011060420 - SBKG 042000Z 14004KT 9999 FEW030 24/20 Q1015=
2011060421 - SBKG 042100Z 13004KT 9999 FEW025 23/20 Q1015=
2011060422 - SBKG 042200Z 13002KT CAVOK 22/21 Q1015=
2011060423 - SBKG 042300Z 12002KT CAVOK 22/20 Q1016=
2011060500 - SBKG 050000Z 08002KT CAVOK 22/20 Q1016=
2011060501 - SBKG 050100Z 12002KT CAVOK 21/20 Q1016=
2011060502 - SBKG 050200Z 13004KT CAVOK 21/20 Q1016=
2011060503 - SBKG 050300Z 14002KT CAVOK 21/20 Q1016=
2011060504 - Mensagem METAR de 'SBKG' para 05/06/2011 as 04(UTC) não localizada na base de dados da REDEMET
2011060505 - Mensagem METAR de 'SBKG' para 05/06/2011 as 05(UTC) não localizada na base de dados da REDEMET
2011060506 - Mensagem METAR de 'SBKG' para 05/06/2011 as 06(UTC) não localizada na base de dados da REDEMET
2011060507 - Mensagem METAR de 'SBKG' para 05/06/2011 as 07(UTC) não localizada na base de dados da REDEMET
2011060508 - Mensagem METAR de 'SBKG' para 05/06/2011 as 08(UTC) não localizada na base de dados da REDEMET
2011060509 - SBKG 050915Z 29002KT 5000 BR FEW018 20/20 Q1015 =
2011060510 - SBKG 051000Z 29002KT 6000 SCT018 21/21 Q1016 =
2011060511 - SBKG 051100Z 28004KT 9999 SCT020 24/21 Q1017 =
2011060512 - SBKG 051200Z 22005KT 9999 BKN025 26/20 Q1017 =
2011060513 - SBKG 051300Z 24005KT 9999 SCT030 28/20 Q1016=
2011060514 - SBKG 051400Z 20005KT 9999 BKN030 28/20 Q1016 =
2011060515 - SBKG 051500Z 17008KT 9999 FEW030 28/20 Q1014=
2011060516 - SBKG 051600Z 18006KT 9999 BKN025 29/20 Q1015=
2011060517 - SBKG 051700Z 20006KT 9999 SCT030 29/21 Q1014=
2011060518 - SBKG 051800Z 18007KT 9999 SCT030 29/19 Q1014=
2011060519 - SBKG 051900Z 17008KT 9999 FEW030 28/20 Q1014=
2011060520 - SBKG 052000Z 14006KT 9999 FEW025 26/21 Q1014=
2011060521 - SBKG 052100Z 14005KT 9999 SCT020 25/21 Q1015=
2011060522 - SBKG 052200Z 09005KT CAVOK 23/22 Q1015=
2011060523 - SBKG 052300Z 09002KT CAVOK 23/22 Q1016 =
2011060600 - SBKG 060000Z 13005KT CAVOK 23/22 Q1016=
2011060601 - SBKG 060100Z 12003KT 9999 FEW007 BKN080 22/22 Q1017 =
2011060601 - SBKG 060110Z 11006KT 9999 OVC005 22/22 Q1017 =
2011060602 - SBKG 060200Z 14008KT 9999 FEW007 SCT015 22/21 Q1017=
2011060603 - SBKG 060300Z 14008KT CAVOK 21/21 Q1017=
2011060604 - Mensagem METAR de 'SBKG' para 06/06/2011 as 04(UTC) não localizada na base de dados da REDEMET
2011060605 - Mensagem METAR de 'SBKG' para 06/06/2011 as 05(UTC) não localizada na base de dados da REDEMET
2011060606 - Mensagem METAR de 'SBKG' para 06/06/2011 as 06(UTC) não localizada na base de dados da REDEMET
2011060607 - Mensagem METAR de 'SBKG' para 06/06/2011 as 07(UTC) não localizada na base de dados da REDEMET
2011060608 - Mensagem METAR de 'SBKG' para 06/06/2011 as 08(UTC) não localizada na base de dados da REDEMET
2011060609 - SBKG 060915Z 29001KT 9999 SCT015 19/18 Q1017=
2011060610 - SBKG 061000Z 22001KT CAVOK 21/18 Q1018=
2011060611 - SBKG 061100Z 14002KT CAVOK 23/19 Q1019=
2011060612 - SBKG 061200Z 18008KT 9999 FEW020 25/19 Q1019=
2011060613 - SBKG 061300Z 17008KT 9999 SCT020 SCT100 26/20 Q1018=
2011060614 - SBKG 061400Z 16012KT 9999 BKN025 28/20 Q1018=
2011060615 - SBKG 061500Z 17011KT 9999 BKN030 28/19 Q1017=
2011060616 - SBKG 061600Z 11011KT 9999 BKN030 29/20 Q1016 =
2011060617 - SBKG 061700Z 14012KT 9999 FEW030 28/20 Q1015=
2011060618 - SBKG 061800Z 12008KT 9999 SCT030 28/20 Q1015=
2011060619 - SBKG 061900Z 13009KT 9999 FEW030 27/19 Q1015 =
2011060620 - SBKG 062000Z 16008KT 9999 FEW027 25/20 Q1015 =
2011060621 - SBKG 062100Z 12007KT 9999 FEW024 23/19 Q1016=
2011060622 - SBKG 062200Z 15004KT CAVOK 22/19 Q1017=
2011060623 - SBKG 062300Z 16006KT 9999 SCT018 21/19 Q1017=
2011060700 - SBKG 070000Z 18006KT 9999 FEW030 21/19 Q1018=
2011060701 - SBKG 070100Z 19006KT 9999 BKN040 21/19 Q1018=
2011060702 - SBKG 070200Z 18005KT 9999 BKN020 21/19 Q1018=
2011060703 - SBKG 070300Z 20005KT 9999 BKN016 SCT020 21/19 Q1018=
2011060704 - Mensagem METAR de 'SBKG' para 07/06/2011 as 04(UTC) não localizada na base de dados da REDEMET
2011060705 - Mensagem METAR de 'SBKG' para 07/06/2011 as 05(UTC) não localizada na base de dados da REDEMET
2011060706 - Mensagem METAR de 'SBKG' para 07/06/2011 as 06(UTC) não localizada na base de dados da REDEMET
2011060707 - Mensagem METAR de 'SBKG' para 07/06/2011 as 07(UTC) não localizada na base de dados da REDEMET
2011060708 - Mensagem METAR de 'SBKG' para 07/06/2011 as 08(UTC) não localizada na base de dados da REDEMET
2011060709 - SBKG 070915Z 19004KT 9999 SCT010 BKN015 21/19 Q1017=
2011060710 - SBKG 071000Z 19006KT 9999 SCT010 BKN015 22/20 Q1018=
2011060711 - SBKG 071100Z 17008KT 9999 SCT015 BKN018 23/20 Q1019=
2011060712 - SBKG 071200Z 18009KT 9999 FEW018 BKN020 24/20 Q1019=
2011060713 - SBKG 071300Z 20010KT 9999 BKN030 26/20 Q1019=
2011060714 - SBKG 071400Z 18011KT 9999 8000E VCSH SCT018 BKN030 27/20 Q1018=
2011060715 - SBKG 071500Z 18010KT 9999 FEW018 BKN025 27/20 Q1018=
2011060716 - SBKG 071600Z 12009KT 5000 -RA FEW010 BKN015 OVC080 23/21 Q1017=
2011060717 - SBKG 071700Z 19008KT 5000 VCSH BR SCT010 BKN015 BKN080 22/21 Q1017=
2011060718 - SBKG 071800Z 15008KT 9999 BKN020 OVC070 22/20 Q1017=
2011060719 - SBKG 071900Z 15005KT 9999 SCT015 OVC070 22/20 Q1017=
2011060720 - SBKG 072000Z 00000KT 9999 SCT015 OVC070 22/20 Q1017=
2011060721 - SBKG 072100Z 14008KT 9000 -RA SCT010 SCT015 OVC070 21/20 Q1018=
2011060722 - SBKG 072200Z 16006KT 9999 SCT017 BKN080 21/20 Q1018=
2011060723 - SBKG 072300Z 18004KT 9999 SCT018 BKN080 21/20 Q1019=
2011060800 - SBKG 080000Z 14003KT 9999 SCT015 BKN080 21/19 Q1019=
2011060801 - SBKG 080100Z 15002KT 9999 SCT015 SCT080 21/20 Q1019 =
2011060802 - SBKG 080200Z 16005KT 9999 SCT015 SCT080 21/19 Q1019 =
2011060803 - SBKG 080300Z 15003KT 9999 BKN015 21/19 Q1018=
2011060804 - Mensagem METAR de 'SBKG' para 08/06/2011 as 04(UTC) não localizada na base de dados da REDEMET
2011060805 - Mensagem METAR de 'SBKG' para 08/06/2011 as 05(UTC) não localizada na base de dados da REDEMET
2011060806 - Mensagem METAR de 'SBKG' para 08/06/2011 as 06(UTC) não localizada na base de dados da REDEMET
2011060807 - Mensagem METAR de 'SBKG' para 08/06/2011 as 07(UTC) não localizada na base de dados da REDEMET
2011060808 - Mensagem METAR de 'SBKG' para 08/06/2011 as 08(UTC) não localizada na base de dados da REDEMET
2011060809 - SBKG 080915Z 30002KT 9999 BKN030 20/18 Q1018=
2011060810 - SBKG 081000Z 27004KT 9999 SCT020 BKN100 21/18 Q1018=
2011060811 - SBKG 081100Z 22005KT 9999 SCT018 BKN100 23/19 Q1019=
2011060812 - SBKG 081200Z 19009KT 9999 BKN018 BKN100 26/19 Q1019=
2011060813 - SBKG 081300Z 19008KT 9999 BKN018 SCT100 27/19 Q1019=
2011060814 - SBKG 081400Z 18010KT 9999 SCT025 28/19 Q1018=
2011060815 - SBKG 081500Z 17009KT 9999 BKN030 27/19 Q1018=
2011060816 - SBKG 081600Z 17007KT 9999 BKN030 27/19 Q1017=
2011060817 - SBKG 081700Z 17007KT 9999 BKN030 26/18 Q1016 =
2011060818 - SBKG 081800Z 18008KT 9999 SCT030 28/25 Q1016=
2011060819 - SBKG 081900Z 18008KT 9999 SCT030 28/18 Q1016=
2011060820 - SBKG 082000Z 18004KT 9999 SCT020 25/18 Q1016 =
2011060821 - SBKG 082100Z 17003KT 9999 SCT020 23/19 Q1016 =
2011060822 - SBKG 082200Z 14003KT CAVOK 23/19 Q1017=
2011060823 - SBKG 082300Z 13005KT CAVOK 21/19 Q1018=
2011060900 - SBKG 090000Z 14005KT CAVOK 21/19 Q1018=
2011060901 - SBKG 090100Z 14003KT CAVOK 20/19 Q1018=
2011060902 - SBKG 090200Z 16004KT CAVOK 20/19 Q1018=
2011060903 - SBKG 090300Z 00000KT CAVOK 20/18 Q1017=
2011060904 - Mensagem METAR de 'SBKG' para 09/06/2011 as 04(UTC) não localizada na base de dados da REDEMET
2011060905 - Mensagem METAR de 'SBKG' para 09/06/2011 as 05(UTC) não localizada na base de dados da REDEMET
2011060906 - Mensagem METAR de 'SBKG' para 09/06/2011 as 06(UTC) não localizada na base de dados da REDEMET
2011060907 - Mensagem METAR de 'SBKG' para 09/06/2011 as 07(UTC) não localizada na base de dados da REDEMET
2011060908 - Mensagem METAR de 'SBKG' para 09/06/2011 as 08(UTC) não localizada na base de dados da REDEMET
2011060909 - SBKG 090915Z 22003KT 9999 FEW040 20/18 Q1017=
2011060910 - SBKG 091000Z 24004KT CAVOK 24/18 Q1018=
2011060911 - SBKG 091100Z 18007KT 9999 FEW020 BKN070 24/19 Q1018=
2011060912 - SBKG 091200Z 16009KT 9999 SCT015 BKN020 BKN070 24/20 Q1019=
2011060913 - SBKG 091300Z 17012KT 9999 BKN020 BKN070 25/20 Q1019=
2011060914 - SBKG 091400Z 17012KT 9999 BKN020 BKN070 27/20 Q1018=
2011060915 - SBKG 091500Z 17014KT 9999 BKN020 BKN070 27/20 Q1017=
2011060916 - SBKG 091600Z 17012KT 9999 BKN025 BKN080 27/18 Q1017=
2011060917 - SBKG 091700Z 17012KT 9999 BKN025 BKN080 25/19 Q1016=
2011060918 - SBKG 091800Z 18008KT 9999 SCT025 BKN080 25/20 Q1016=
2011060919 - SBKG 091900Z 18006KT 9999 SCT025 BKN080 25/19 Q1016=
2011060920 - SBKG 092000Z 12008KT 9999 SCT020 BKN080 22/20 Q1017=
2011060921 - SBKG 092100Z 12007KT 9999 SCT020 BKN080 21/20 Q1017=
2011060922 - SBKG 092200Z 13005KT 5000 -RA BR SCT008 BKN010 21/20 Q1018=
2011060923 - SBKG 092300Z 13009KT 3000 -RA BR SCT005 BKN010 21/20 Q1018=
2011061000 - SBKG 100000Z 11009KT 3000 -RA BR SCT005 BKN010 20/20 Q1019=
2011061000 - SBKG 100030Z 13004KT 9999 SCT006 BKN010 20/20 Q1019=
2011061001 - SBKG 100100Z 11004KT 9999 FEW006 BKN015 20/20 Q1019 RERA=
2011061002 - SBKG 100200Z 18003KT 9999 BKN015 20/20 Q1018=
2011061003 - SBKG 100300Z 31001KT 9999 SCT015 20/20 Q1018=
2011061004 - Mensagem METAR de 'SBKG' para 10/06/2011 as 04(UTC) não localizada na base de dados da REDEMET
2011061005 - Mensagem METAR de 'SBKG' para 10/06/2011 as 05(UTC) não localizada na base de dados da REDEMET
2011061006 - Mensagem METAR de 'SBKG' para 10/06/2011 as 06(UTC) não localizada na base de dados da REDEMET
2011061007 - Mensagem METAR de 'SBKG' para 10/06/2011 as 07(UTC) não localizada na base de dados da REDEMET
2011061008 - Mensagem METAR de 'SBKG' para 10/06/2011 as 08(UTC) não localizada na base de dados da REDEMET
2011061009 - SBKG 100915Z 28003KT 1000 BR BKN003 19/19 Q1018 =
2011061010 - SBKG 101000Z 28004KT 2500 BR BKN003 20/20 Q1018 =
2011061010 - SBKG 101045Z 28003KT 5000 BR SCT006 BKN015 22/21 Q1018 =
2011061011 - SBKG 101100Z 28003KT 6000 SCT020 23/22 Q1019=
2011061012 - SBKG 101200Z 25003KT 9999 SCT025 25/21 Q1019 =
2011061013 - SBKG 101300Z 15004KT 9999 SCT030 26/20 Q1014=
2011061014 - SBKG 101400Z 14006KT 9999 SCT030 28/20 Q1018=
2011061015 - SBKG 101500Z 13005KT 9999 BKN030 29/19 Q1017=
2011061016 - SBKG 101600Z 13005KT 9999 BKN030 28/20 Q1017=
2011061017 - SBKG 101700Z 12006KT 9999 SCT030 29/20 Q1016=
2011061018 - SBKG 101800Z 14005KT 9999 SCT030 29/20 Q1016=
2011061019 - SBKG 101900Z 12005KT 9999 SCT030 28/20 Q1016=
2011061020 - SBKG 102000Z 13006KT 9999 SCT025 26/21 Q1017=
2011061021 - SBKG 102100Z 13006KT 9999 SCT015 BKN020 24/22 Q1017=
2011061022 - SBKG 102200Z 11005KT 9999 SCT020 24/22 Q1018 =
2011061023 - SBKG 102300Z 11005KT 9999 SCT018 23/22 Q1018=
2011061100 - SBKG 110000Z 11005KT 9999 SCT018 SCT070 22/22 Q1019=
2011061101 - SBKG 110100Z 11004KT 9999 SCT012 SCT018 22/21 Q1019 =
2011061102 - SBKG 110200Z 12005KT 9999 BKN012 22/21 Q1019=
2011061103 - SBKG 110300Z 12003KT 9999 BKN008 SCT070 22/21 Q1019=
2011061104 - SBKG 110400Z 11003KT 9999 BKN010 21/21 Q1018 =
2011061105 - SBKG 110500Z 00000KT 4000 0800SW PRFG BR SCT007 21/20 Q1018 =
2011061106 - SBKG 110600Z 00000KT 4000 BR SCT007 SCT011 20/20 Q1017 =
2011061107 - Mensagem METAR de 'SBKG' para 11/06/2011 as 07(UTC) não localizada na base de dados da REDEMET
2011061108 - Mensagem METAR de 'SBKG' para 11/06/2011 as 08(UTC) não localizada na base de dados da REDEMET
2011061109 - SBKG 110915Z 19003KT CAVOK 21/20 Q1018=
2011061110 - SBKG 111000Z 17001KT 9999 BKN015 23/21 Q1018=
2011061111 - SBKG 111100Z 17007KT 9999 SCT010 BKN018 24/21 Q1018=
2011061112 - SBKG 111200Z 16006KT 9999 FEW013 BKN018 25/20 Q1018=
2011061113 - SBKG 111300Z 13007KT 9999 FEW015 BKN022 28/20 Q1018=
2011061114 - SBKG 111400Z 17007KT 9999 BKN025 29/21 Q1017=
2011061115 - SBKG 111500Z 16006KT 9999 BKN026 28/20 Q1016=
2011061116 - SBKG 111600Z 11006KT 9999 SCT027 29/20 Q1015=
2011061117 - SBKG 111700Z 16005KT 9999 BKN030 29/20 Q1015 =
2011061118 - SBKG 111800Z 11009KT 9999 SCT025 25/21 Q1015=
2011061119 - SBKG 111900Z 10013KT 9999 BKN027 27/22 Q1015=
2011061120 - SBKG 112000Z 10009KT 9999 SCT020 24/22 Q1016=
2011061121 - SBKG 112100Z 10007KT 9999 BKN018 23/22 Q1016=
2011061122 - SBKG 112200Z 13007KT 9999 SCT010 BKN015 23/22 Q1017=
2011061123 - SBKG 112300Z 12007KT 9999 SCT020 22/21 Q1017=
2011061200 - SBKG 120000Z 12006KT 9999 VCSH SCT007 BKN012 22/22 Q1018=
2011061201 - SBKG 120100Z 13007KT 9999 SCT008 BKN012 22/21 Q1018=
2011061202 - SBKG 120200Z 13005KT 9999 SCT012 BKN018 22/21 Q1017=
2011061203 - SBKG 120300Z 13004KT 9999 VCSH SCT010 BKN015 22/21 Q1017=
2011061204 - Mensagem METAR de 'SBKG' para 12/06/2011 as 04(UTC) não localizada na base de dados da REDEMET
2011061205 - Mensagem METAR de 'SBKG' para 12/06/2011 as 05(UTC) não localizada na base de dados da REDEMET
2011061206 - Mensagem METAR de 'SBKG' para 12/06/2011 as 06(UTC) não localizada na base de dados da REDEMET
2011061207 - Mensagem METAR de 'SBKG' para 12/06/2011 as 07(UTC) não localizada na base de dados da REDEMET
2011061208 - Mensagem METAR de 'SBKG' para 12/06/2011 as 08(UTC) não localizada na base de dados da REDEMET
2011061209 - SBKG 120915Z 14006KT 3000 -RA BR SCT005 BKN010 OVC070 21/21 Q1017=
2011061210 - SBKG 121000Z 16006KT 2000 -RA BR SCT004 BKN010 OVC070 21/21 Q1018=
2011061211 - SBKG 121100Z 16009KT 3000 -RA BR SCT006 BKN010 OVC070 21/20 Q1018=
2011061212 - SBKG 121200Z 15008KT 1500 -RA BR SCT004 BKN010 OVC070 21/21 Q1019=
2011061212 - SBKG 121228Z 16008KT 5000 BR FEW006 BKN015 BKN018 22/21 Q1018=
2011061213 - SBKG 121300Z 15008KT 9999 SCT015 BKN018 24/21 Q1018 RERA=
2011061214 - SBKG 121400Z 16008KT 9999 FEW015 SCT020 BKN090 24/21 Q1018=
2011061215 - SBKG 121500Z 16014KT 9999 FEW015 BKN020 BKN090 25/21 Q1017=
2011061216 - SBKG 121600Z 16013KT 9999 SCT030 SCT070 26/19 Q1016=
2011061217 - SBKG 121700Z 14006KT 9999 SCT025 SCT070 27/20 Q1015=
2011061218 - SBKG 121800Z 14011KT 9999 FEW027 26/18 Q1016=
2011061219 - SBKG 121900Z 10008KT 9999 FEW024 24/19 Q1016=
2011061220 - SBKG 122000Z 11007KT CAVOK 23/19 Q1016=
2011061221 - SBKG 122100Z 10005KT CAVOK 22/19 Q1017=
2011061222 - SBKG 122200Z 16008KT 9999 FEW018 SCT080 22/19 Q1017 =
2011061223 - SBKG 122300Z 16007KT 9999 SCT018 BKN080 21/18 Q1018=
2011061300 - SBKG 130000Z 14004KT 9999 SCT018 BKN080 20/18 Q1019 =
2011061301 - SBKG 130100Z 17005KT CAVOK 20/18 Q1019=
2011061302 - SBKG 130200Z 20007KT CAVOK 20/18 Q1018=
2011061303 - SBKG 130300Z 19006KT CAVOK 19/18 Q1018 =
2011061304 - Mensagem METAR de 'SBKG' para 13/06/2011 as 04(UTC) não localizada na base de dados da REDEMET
2011061305 - Mensagem METAR de 'SBKG' para 13/06/2011 as 05(UTC) não localizada na base de dados da REDEMET
2011061306 - Mensagem METAR de 'SBKG' para 13/06/2011 as 06(UTC) não localizada na base de dados da REDEMET
2011061307 - Mensagem METAR de 'SBKG' para 13/06/2011 as 07(UTC) não localizada na base de dados da REDEMET
2011061308 - Mensagem METAR de 'SBKG' para 13/06/2011 as 08(UTC) não localizada na base de dados da REDEMET
2011061309 - SBKG 130915Z 15007KT 9999 SCT016 19/18 Q1017=
2011061310 - SBKG 131000Z 16007KT 9999 SCT016 21/19 Q1018 =
2011061311 - SBKG 131100Z 17010KT 9999 SCT018 23/19 Q1019=
2011061312 - SBKG 131200Z 16011KT 9999 BKN020 24/18 Q1019=
2011061313 - SBKG 131300Z 16011KT 9999 BKN025 26/17 Q1019=
2011061314 - SBKG 131400Z 15012KT 9999 BKN030 27/17 Q1019=
2011061315 - SBKG 131500Z 16011KT 9999 BKN030 27/16 Q1018=
2011061316 - SBKG 131600Z 17009KT 9999 BKN030 27/16 Q1017=
2011061317 - SBKG 131700Z 17008KT 9999 SCT030 28/17 Q1016 =
2011061318 - SBKG 131800Z 16010KT 9999 FEW030 27/16 Q1016=
2011061319 - SBKG 131900Z 15010KT CAVOK 27/17 Q1016=
2011061320 - SBKG 132000Z 14006KT CAVOK 24/17 Q1016 =
2011061321 - SBKG 132100Z 13004KT CAVOK 21/17 Q1017=
2011061322 - SBKG 132200Z 16004KT CAVOK 20/16 Q1018=
2011061323 - SBKG 132300Z 15005KT CAVOK 20/16 Q1018=
2011061400 - SBKG 140000Z 15004KT CAVOK 19/16 Q1018=
2011061401 - SBKG 140100Z 16005KT CAVOK 19/16 Q1018=
2011061402 - SBKG 140200Z 18003KT CAVOK 18/17 Q1018=
2011061403 - SBKG 140300Z 21003KT CAVOK 18/17 Q1017=
2011061404 - Mensagem METAR de 'SBKG' para 14/06/2011 as 04(UTC) não localizada na base de dados da REDEMET
2011061405 - Mensagem METAR de 'SBKG' para 14/06/2011 as 05(UTC) não localizada na base de dados da REDEMET
2011061406 - Mensagem METAR de 'SBKG' para 14/06/2011 as 06(UTC) não localizada na base de dados da REDEMET
2011061407 - Mensagem METAR de 'SBKG' para 14/06/2011 as 07(UTC) não localizada na base de dados da REDEMET
2011061408 - Mensagem METAR de 'SBKG' para 14/06/2011 as 08(UTC) não localizada na base de dados da REDEMET
2011061409 - SBKG 140915Z 29002KT 9999 FEW015 18/18 Q1017=
2011061410 - SBKG 141000Z 24004KT CAVOK 21/19 Q1017=
2011061411 - SBKG 141100Z 18006KT 9999 FEW018 23/18 Q1018=
2011061412 - SBKG 141200Z 18008KT 9999 FEW020 25/17 Q1018=
2011061413 - SBKG 141300Z 18007KT 9999 SCT023 26/18 Q1018=
2011061414 - SBKG 141400Z 16009KT 9999 BKN023 26/18 Q1017=
2011061415 - SBKG 141500Z 15009KT 9999 BKN025 26/19 Q1017=
2011061416 - SBKG 141600Z 14007KT 9999 SCT030 27/18 Q1016=
2011061417 - SBKG 141700Z 13006KT 9999 SCT030 27/17 Q1015=
2011061418 - SBKG 141800Z 13008KT 9999 SCT030 28/19 Q1015=
2011061419 - SBKG 141900Z 14006KT 9999 SCT030 27/18 Q1015 =
2011061420 - SBKG 142000Z 11004KT 9999 SCT025 BKN090 25/19 Q1015=
2011061421 - SBKG 142100Z 12004KT 9999 FEW020 BKN090 23/19 Q1016 =
2011061422 - SBKG 142200Z 14005KT CAVOK 23/19 Q1016=
2011061423 - SBKG 142300Z 14005KT CAVOK 22/20 Q1016=
2011061500 - SBKG 150000Z 18003KT CAVOK 22/20 Q1017=
2011061501 - SBKG 150100Z 19005KT CAVOK 21/20 Q1017=
2011061502 - SBKG 150200Z 21004KT CAVOK 21/19 Q1017=
2011061503 - SBKG 150300Z 24004KT CAVOK 20/19 Q1016=
2011061504 - Mensagem METAR de 'SBKG' para 15/06/2011 as 04(UTC) não localizada na base de dados da REDEMET
2011061505 - Mensagem METAR de 'SBKG' para 15/06/2011 as 05(UTC) não localizada na base de dados da REDEMET
2011061506 - Mensagem METAR de 'SBKG' para 15/06/2011 as 06(UTC) não localizada na base de dados da REDEMET
2011061507 - Mensagem METAR de 'SBKG' para 15/06/2011 as 07(UTC) não localizada na base de dados da REDEMET
2011061508 - Mensagem METAR de 'SBKG' para 15/06/2011 as 08(UTC) não localizada na base de dados da REDEMET
2011061509 - SBKG 150915Z 27003KT CAVOK 18/17 Q1016 =
2011061510 - SBKG 151000Z 24004KT CAVOK 22/18 Q1016 =
2011061511 - SBKG 151100Z 20008KT CAVOK 24/18 Q1017=
2011061512 - SBKG 151200Z 20009KT 9999 SCT030 25/19 Q1017=
2011061513 - SBKG 151300Z 18010KT 9999 SCT030 27/18 Q1017=
2011061514 - SBKG 151400Z 19013KT 9999 SCT030 27/18 Q1016=
2011061515 - SBKG 151500Z 17014KT 9999 SCT030 29/18 Q1016=
2011061516 - SBKG 151600Z 18011KT 9999 SCT030 28/17 Q1015=
2011061517 - SBKG 151700Z 20011KT 9999 SCT030 28/18 Q1014=
2011061518 - SBKG 151800Z 19011KT 9999 SCT030 28/17 Q1014=
2011061519 - SBKG 151900Z 20010KT 9999 FEW025 27/17 Q1014=
2011061520 - SBKG 152000Z 18009KT CAVOK 25/16 Q1014=
2011061521 - SBKG 152100Z 17006KT CAVOK 23/17 Q1015=
2011061522 - SBKG 152200Z 10007KT CAVOK 23/17 Q1016=
2011061523 - SBKG 152300Z 17007KT 9999 SCT025 22/17 Q1016 =
2011061600 - SBKG 160000Z 17007KT CAVOK 21/18 Q1016 =
2011061601 - SBKG 160100Z 18008KT CAVOK 21/18 Q1017 =
2011061602 - SBKG 160200Z 17005KT 9999 SCT025 21/18 Q1017 =
2011061603 - SBKG 160300Z 18006KT 9999 FEW025 20/18 Q1016=
2011061604 - Mensagem METAR de 'SBKG' para 16/06/2011 as 04(UTC) não localizada na base de dados da REDEMET
2011061605 - Mensagem METAR de 'SBKG' para 16/06/2011 as 05(UTC) não localizada na base de dados da REDEMET
2011061606 - Mensagem METAR de 'SBKG' para 16/06/2011 as 06(UTC) não localizada na base de dados da REDEMET
2011061607 - Mensagem METAR de 'SBKG' para 16/06/2011 as 07(UTC) não localizada na base de dados da REDEMET
2011061608 - Mensagem METAR de 'SBKG' para 16/06/2011 as 08(UTC) não localizada na base de dados da REDEMET
2011061609 - SBKG 160915Z 23003KT 9999 FEW010 20/18 Q1015=
2011061610 - SBKG 161000Z 23004KT 9999 SCT015 BKN018 21/19 Q1016=
2011061611 - SBKG 161100Z 22005KT 9999 SCT018 BKN020 22/19 Q1016=
2011061612 - SBKG 161200Z 20009KT 9999 SCT018 BKN020 24/19 Q1017=
2011061613 - SBKG 161300Z 18010KT 9999 SCT018 BKN025 24/19 Q1017=
2011061614 - SBKG 161400Z 17010KT 9999 SCT018 BKN025 25/19 Q1016=
2011061615 - SBKG 161500Z 15007KT 4000 -RA BR SCT006 BKN015 BKN018 23/20 Q1016=
2011061615 - SBKG 161520Z 10004KT 9999 FEW010 SCT018 OVC080 24/21 Q1016=
2011061616 - SBKG 161600Z 11008KT 3000 RA BKN015 OVC080 24/20 Q1016=
2011061617 - SBKG 161700Z 11006KT 3000 -RA BKN013 OVC070 22/21 Q1015 RERA=
2011061618 - SBKG 161800Z 11004KT 4000 -RA SCT008 BKN013 OVC070 22/21 Q1015=
2011061618 - SBKG 161815Z 12005KT 2000 RA BKN008 SCT013 OVC070 22/21 Q1015=
2011061619 - SBKG 161900Z 14005KT 3000 RA BKN008 BKN013 OVC070 21/21 Q1015 =
2011061620 - SBKG 162000Z 13006KT 3000 RA BR BKN009 BKN014 OVC070 21/21 Q1016=
2011061620 - SBKG 162020Z 16005KT 1500 RA BR SCT004 BKN010 OVC070 21/21 Q1016 =
2011061621 - SBKG 162100Z 16004KT 4000 -RA BKN008 BKN014 OVC070 21/20 Q1016 =
2011061622 - SBKG 162200Z 16006KT 4000 RA BKN008 BKN036 OVC070 20/20 Q1017=
2011061623 - SBKG 162300Z 14004KT 3000 RA BKN007 BKN012 OVC070 20/20 Q1017=
2011061700 - SBKG 170000Z 14003KT 5000 RA BKN008 BKN012 OVC070 20/20 Q1017=
2011061700 - SBKG 170035Z 11003KT 0500 FG VV002 20/20 Q1017=
2011061701 - SBKG 170100Z 11004KT 0050 FG VV001 20/20 Q1017 RERA=
2011061702 - SBKG 170200Z 10004KT 1500 -RA BR BKN005 BKN010 OVC070 21/20 Q1018=
2011061703 - SBKG 170300Z 14004KT 3000 BR SCT005 BKN010 OVC100 21/20 Q1017=
2011061704 - Mensagem METAR de 'SBKG' para 17/06/2011 as 04(UTC) não localizada na base de dados da REDEMET
2011061705 - Mensagem METAR de 'SBKG' para 17/06/2011 as 05(UTC) não localizada na base de dados da REDEMET
2011061706 - Mensagem METAR de 'SBKG' para 17/06/2011 as 06(UTC) não localizada na base de dados da REDEMET
2011061707 - Mensagem METAR de 'SBKG' para 17/06/2011 as 07(UTC) não localizada na base de dados da REDEMET
2011061708 - Mensagem METAR de 'SBKG' para 17/06/2011 as 08(UTC) não localizada na base de dados da REDEMET
2011061709 - SBKG 170915Z 18006KT 1500 -RA BR BKN004 BKN010 OVC070 21/20 Q1016=
2011061710 - SBKG 171000Z 16005KT 1000 -RA BR BKN006 BKN009 OVC070 21/21 Q1016=
2011061711 - SBKG 171100Z 18007KT 1000 -RA BR BKN006 BKN009 OVC070 21/21 Q1017=
2011061712 - SBKG 171200Z 16008KT 1000 -RA BR BKN006 BKN010 OVC070 22/21 Q1017=
2011061713 - SBKG 171300Z 15008KT 3000 BR SCT006 BKN010 OVC070 24/22 Q1017=
2011061714 - SBKG 171400Z 15008KT 9999 8000E VCSH SCT006 BKN010 BKN016 26/21 Q1017=
2011061715 - SBKG 171500Z 15009KT 1500 -RA BR SCT003 BKN010 BKN015 23/21 Q1016=
2011061716 - SBKG 171600Z 12006KT 3000 -RA BR SCT008 BKN010 OVC070 23/22 Q1016=
2011061716 - SBKG 171625Z 15006KT 9999 4900E VCSH SCT012 BKN015 BKN080 25/22 Q1015=
2011061717 - SBKG 171700Z 13008KT 9999 3000E VCSH SCT010 BKN013 BKN080 25/21 Q1015=
2011061717 - SBKG 171712Z 16013KT 2500 RA SCT003 SCT010 BKN013 23/21 Q1015=
2011061717 - SBKG 171745Z 14006KT 7000 SCT010 BKN013 BKN080 23/22 Q1015 RERA=
2011061718 - SBKG 171800Z 13006KT 8000 SCT008 BKN012 BKN090 23/22 Q1015 RERA =
2011061719 - SBKG 171900Z 12005KT 9999 5000 VCSH SCT008 BKN012 BKN090 23/21 Q1015=
2011061720 - SBKG 172000Z 09005KT 6000 FEW004 BKN013 BKN100 21/20 Q1015=
2011061721 - SBKG 172100Z 10007KT 5000 -RA BR BKN010 BKN012 BKN100 21/20 Q1016=
2011061722 - SBKG 172200Z 14004KT 8000 SCT015 BKN100 21/21 Q1016 =
2011061723 - SBKG 172300Z 10004KT 8000 SCT015 BKN100 21/21 Q1017 =
2011061800 - SBKG 180000Z 13002KT 4000 -RA BR SCT006 BKN010 BKN080 21/21 Q1017 =
2011061801 - SBKG 180100Z 11003KT 6000 BKN015 BKN080 21/21 Q1017=
2011061802 - SBKG 180200Z 12007KT 5000 -RA BR SCT006 BKN015 BKN080 21/21 Q1017 =
2011061803 - SBKG 180300Z 10003KT 5000 BR BKN015 BKN080 21/20 Q1017=
2011061804 - Mensagem METAR de 'SBKG' para 18/06/2011 as 04(UTC) não localizada na base de dados da REDEMET
2011061805 - Mensagem METAR de 'SBKG' para 18/06/2011 as 05(UTC) não localizada na base de dados da REDEMET
2011061806 - Mensagem METAR de 'SBKG' para 18/06/2011 as 06(UTC) não localizada na base de dados da REDEMET
2011061807 - Mensagem METAR de 'SBKG' para 18/06/2011 as 07(UTC) não localizada na base de dados da REDEMET
2011061808 - Mensagem METAR de 'SBKG' para 18/06/2011 as 08(UTC) não localizada na base de dados da REDEMET
2011061809 - SBKG 180915Z 18005KT 8000 SCT008 BKN080 21/21 Q1016=
2011061810 - SBKG 181000Z 14008KT 8000 BKN010 BKN080 22/21 Q1016=
2011061811 - SBKG 181100Z 14006KT 5000 BR BKN011 BKN070 23/21 Q1017=
2011061811 - SBKG 181120Z 13009KT 1500 -DZ BR BKN012 OVC080 23/21 Q1017=
2011061812 - SBKG 181200Z 13008KT 9999 BKN011 BKN080 24/22 Q1017=
2011061812 - SBKG 181240Z 14009KT 9999 BKN015 SCT080 25/21 Q1017 =
2011061813 - SBKG 181300Z 12010KT 9999 BKN018 27/21 Q1017 =
2011061814 - SBKG 181400Z 12009KT 9999 BKN020 27/21 Q1016 =
2011061815 - SBKG 181500Z 13011KT 9999 BKN025 29/22 Q1016=
2011061816 - SBKG 181600Z 10006KT 9999 VCSH SCT018 BKN025 26/23 Q1015=
2011061817 - SBKG 181700Z 13008KT 9999 SCT018 BKN025 26/21 Q1014=
2011061818 - SBKG 181800Z 12009KT 9999 FEW018 BKN020 26/21 Q1014=
2011061819 - SBKG 181900Z 12006KT 9999 VCSH FEW018 BKN020 25/21 Q1014=
2011061820 - SBKG 182000Z 16008KT 9999 FEW005 BKN016 22/21 Q1014=
2011061821 - SBKG 182100Z 14005KT 9999 VCSH SCT012 BKN020 22/21 Q1015=
2011061822 - SBKG 182200Z 15006KT 9999 BKN015 23/21 Q1016=
2011061823 - SBKG 182300Z 12003KT 9999 SCT015 22/21 Q1016=
2011061900 - SBKG 190000Z 10005KT 9999 SCT015 22/21 Q1016=
2011061901 - SBKG 190100Z 13003KT 9999 SCT015 21/20 Q1016=
2011061902 - SBKG 190200Z 16004KT 9999 BKN015 22/20 Q1016 =
2011061903 - SBKG 190300Z 14006KT 9999 SCT015 22/21 Q1015 =
2011061904 - Mensagem METAR de 'SBKG' para 19/06/2011 as 04(UTC) não localizada na base de dados da REDEMET
2011061905 - Mensagem METAR de 'SBKG' para 19/06/2011 as 05(UTC) não localizada na base de dados da REDEMET
2011061906 - Mensagem METAR de 'SBKG' para 19/06/2011 as 06(UTC) não localizada na base de dados da REDEMET
2011061907 - Mensagem METAR de 'SBKG' para 19/06/2011 as 07(UTC) não localizada na base de dados da REDEMET
2011061908 - Mensagem METAR de 'SBKG' para 19/06/2011 as 08(UTC) não localizada na base de dados da REDEMET
2011061909 - SBKG 190915Z 17004KT 5000 -DZ BR SCT008 BKN012 21/20 Q1015 =
2011061910 - SBKG 191000Z 18005KT 8000 VCSH SCT008 BKN012 22/21 Q1016=
2011061911 - SBKG 191100Z 17007KT 9999 4000SE VCSH BKN012 BKN015 22/21 Q1016=
2011061912 - SBKG 191200Z 15007KT 9000 4000SE VCSH SCT010 BKN015 23/21 Q1017=
2011061913 - SBKG 191300Z 17007KT 9999 SCT009 BKN016 25/22 Q1017=
2011061914 - SBKG 191400Z 15009KT 9999 BKN015 SCT100 25/22 Q1016=
2011061915 - SBKG 191500Z 16009KT 9999 BKN018 28/21 Q1016=
2011061916 - SBKG 191600Z 14010KT 9999 BKN020 27/21 Q1015 =
2011061917 - SBKG 191700Z 17007KT 9999 SCT025 26/21 Q1014 =
2011061918 - SBKG 191800Z 16009KT 9999 BKN025 26/21 Q1014=
2011061919 - SBKG 191900Z 17009KT 5000 -RA BKN020 22/21 Q1015=
2011061920 - SBKG 192000Z 09004KT 9999 SCT020 22/21 Q1015 =
2011061921 - SBKG 192100Z 10002KT 9999 SCT020 22/21 Q1015=
2011061922 - SBKG 192200Z 13003KT 9999 SCT015 22/21 Q1015=
2011061923 - SBKG 192300Z 16005KT 9999 SCT015 22/21 Q1016=
2011062000 - SBKG 200000Z 13005KT 9999 SCT015 21/21 Q10170=
2011062001 - SBKG 200100Z 14005KT 9999 SCT015 21/20 Q1017=
2011062002 - SBKG 200200Z 14003KT 9999 SCT010 20/19 Q1017=
2011062003 - SBKG 200300Z 19004KT 9999 FEW010 20/19 Q1017=
2011062004 - Mensagem METAR de 'SBKG' para 20/06/2011 as 04(UTC) não localizada na base de dados da REDEMET
2011062005 - Mensagem METAR de 'SBKG' para 20/06/2011 as 05(UTC) não localizada na base de dados da REDEMET
2011062006 - Mensagem METAR de 'SBKG' para 20/06/2011 as 06(UTC) não localizada na base de dados da REDEMET
2011062007 - Mensagem METAR de 'SBKG' para 20/06/2011 as 07(UTC) não localizada na base de dados da REDEMET
2011062008 - Mensagem METAR de 'SBKG' para 20/06/2011 as 08(UTC) não localizada na base de dados da REDEMET
2011062009 - SBKG 200915Z 20003KT 9999 FEW020 BKN100 20/19 Q1016 =
2011062010 - SBKG 201000Z 17003KT 9999 FEW020 SCT100 23/19 Q1016=
2011062011 - SBKG 201100Z 16004KT 9999 SCT025 BKN100 23/18 Q1017=
2011062012 - SBKG 201200Z 16009KT 9999 SCT025 BKN090 24/19 Q1017=
2011062013 - SBKG 201300Z 14010KT 9999 BKN025 BKN090 25/19 Q1017=
2011062014 - SBKG 201400Z 14010KT 9999 BKN025 BKN090 27/19 Q1017=
2011062015 - SBKG 201500Z 15008KT 9999 BKN025 BKN090 28/19 Q1016=
2011062016 - SBKG 201600Z 18007KT 9999 BKN025 SCT090 28/19 Q1015=
2011062017 - SBKG 201700Z 18009KT 9999 SCT025 28/18 Q1014=
2011062018 - SBKG 201800Z 18010KT 9999 SCT025 28/19 Q1014=
2011062019 - SBKG 201900Z 17008KT 9999 FEW025 27/18 Q1014=
2011062020 - SBKG 202000Z 15005KT 9999 FEW020 25/19 Q1015=
2011062021 - SBKG 202100Z 14004KT 9999 FEW020 23/19 Q1015=
2011062022 - SBKG 202200Z 14004KT 9999 FEW020 23/19 Q1015=
2011062023 - SBKG 202300Z 13004KT CAVOK 21/18 Q1016=
2011062100 - SBKG 210000Z 00000KT CAVOK 20/18 Q1016=
2011062101 - SBKG 210100Z 16006KT CAVOK 20/18 Q1017 =
2011062102 - SBKG 210200Z 16005KT CAVOK 20/18 Q1017 =
2011062103 - SBKG 210300Z 00000KT CAVOK 19/18 Q1017=
2011062104 - Mensagem METAR de 'SBKG' para 21/06/2011 as 04(UTC) não localizada na base de dados da REDEMET
2011062105 - Mensagem METAR de 'SBKG' para 21/06/2011 as 05(UTC) não localizada na base de dados da REDEMET
2011062106 - Mensagem METAR de 'SBKG' para 21/06/2011 as 06(UTC) não localizada na base de dados da REDEMET
2011062107 - Mensagem METAR de 'SBKG' para 21/06/2011 as 07(UTC) não localizada na base de dados da REDEMET
2011062108 - Mensagem METAR de 'SBKG' para 21/06/2011 as 08(UTC) não localizada na base de dados da REDEMET
2011062109 - SBKG 210915Z 28001KT 9999 SCT010 BKN015 OVC070 20/19 Q1016=
2011062110 - SBKG 211000Z 24005KT 9999 SCT010 BKN015 OVC070 21/19 Q1017=
2011062111 - SBKG 211100Z 22006KT 9999 SCT010 BKN015 23/20 Q1017=
2011062112 - SBKG 211200Z 21009KT 5000 -RA BR BKN010 BKN015 OVC070 23/20 Q1017=
2011062113 - SBKG 211300Z 18009KT 5000 -RA BR BKN010 BKN015 OVC070 24/21 Q1017=
2011062114 - SBKG 211400Z 19010KT 9999 SCT015 BKN020 26/21 Q1017=
2011062115 - SBKG 211500Z 17008KT 9999 8000E VCSH SCT015 BKN020 28/21 Q1016=
2011062116 - SBKG 211600Z 10013KT 5000 -RA BKN016 24/21 Q1016 =
2011062116 - SBKG 211640Z 11008KT 4000 -RA BKN010 23/21 Q1015 =
2011062117 - SBKG 211700Z 13007KT 5000 BR SCT012 SCT018 22/21 Q1015 =
2011062118 - SBKG 211800Z 12005KT 9999 SCT012 SCT020 BKN070 24/22 Q1015=
2011062118 - SBKG 211850Z 12008KT 3000 -RA SCT012 SCT024 23/20 Q1015=
2011062119 - SBKG 211900Z 12007KT 8000 SCT012 SCT024 23/21 Q1015=
2011062120 - SBKG 212000Z 12003KT 5000 -RA BKN012 SCT020 23/22 Q1016 =
2011062121 - SBKG 212100Z 12005KT 9999 -RA SCT012 SCT020 22/21 Q1016=
2011062122 - SBKG 212200Z 12003KT 9999 SCT010 BKN015 BKN090 22/21 Q1016=
2011062123 - SBKG 212300Z 13003KT 9999 FEW002 BKN016 22/21 Q1017=
2011062200 - SBKG 220000Z 17003KT 8000 SCT010 BKN016 22/21 Q1017=
2011062201 - SBKG 220100Z 18003KT 9999 BKN016 SCT080 21/21 Q1018=
2011062202 - SBKG 220200Z 18003KT 9999 BKN018 SCT080 21/21 Q1018=
2011062203 - SBKG 220300Z 20003KT 9999 BKN016 21/21 Q1018=
2011062204 - Mensagem METAR de 'SBKG' para 22/06/2011 as 04(UTC) não localizada na base de dados da REDEMET
2011062205 - Mensagem METAR de 'SBKG' para 22/06/2011 as 05(UTC) não localizada na base de dados da REDEMET
2011062206 - Mensagem METAR de 'SBKG' para 22/06/2011 as 06(UTC) não localizada na base de dados da REDEMET
2011062207 - Mensagem METAR de 'SBKG' para 22/06/2011 as 07(UTC) não localizada na base de dados da REDEMET
2011062208 - Mensagem METAR de 'SBKG' para 22/06/2011 as 08(UTC) não localizada na base de dados da REDEMET
2011062209 - SBKG 220915Z 27003KT 9999 SCT010 BKN015 20/20 Q1017=
2011062210 - SBKG 221000Z 24004KT 9999 SCT015 BKN018 21/20 Q1018=
2011062211 - SBKG 221100Z 19005KT 9999 SCT010 BKN015 22/20 Q1019=
2011062211 - SBKG 221139Z 16005KT 4000 -RA BR SCT006 BKN010 BKN015 22/20 Q1019=
2011062212 - SBKG 221200Z 14005KT 1500 -RADZ SCT005 BKN009 BKN015 21/20 Q1019=
2011062212 - SBKG 221244Z 16006KT 2000 BR SCT006 BKN010 BKN015 22/21 Q1019=
2011062212 - SBKG 221249Z 16006KT 2000 BR SCT006 BKN010 BKN015 22/21 Q1019=
2011062213 - SBKG 221300Z 14005KT 2000 BR SCT006 BKN010 BKN015 22/21 Q1019=
2011062214 - SBKG 221400Z 14005KT 9999 FEW006 BKN015 BKN020 25/20 Q1018=
2011062215 - SBKG 221500Z 13006KT 9999 SCT015 BKN018 26/21 Q1018=
2011062216 - SBKG 221600Z 11008KT 9999 BKN018 SCT100 27/21 Q1017=
2011062217 - SBKG 221700Z 12007KT 9999 BKN020 SCT100 27/20 Q1016=
2011062218 - SBKG 221800Z 10007KT 9999 BKN020 SCT100 26/20 Q1016=
2011062219 - SBKG 221900Z 11010KT 9999 BKN020 BKN100 26/21 Q1016 =
2011062220 - SBKG 222000Z 10006KT 9999 BKN020 BKN100 24/21 Q1016 =
2011062221 - SBKG 222100Z 14006KT 6000 VCSH SCT015 SCT018 BKN100 23/21 Q1016 =
2011062222 - SBKG 222200Z 12003KT 9999 SCT015 BKN100 22/21 Q1017=
2011062223 - SBKG 222300Z 13004KT CAVOK 22/21 Q1017 =
2011062300 - SBKG 230000Z 13004KT 8000 BKN012 22/21 Q1017=
2011062301 - SBKG 230100Z 11004KT 8000 BKN012 22/21 Q1017 =
2011062302 - SBKG 230200Z 13003KT 9999 BKN012 22/21 Q1017 =
2011062303 - SBKG 230300Z 14002KT 9999 BKN012 22/21 Q1017=
2011062304 - Mensagem METAR de 'SBKG' para 23/06/2011 as 04(UTC) não localizada na base de dados da REDEMET
2011062305 - Mensagem METAR de 'SBKG' para 23/06/2011 as 05(UTC) não localizada na base de dados da REDEMET
2011062306 - Mensagem METAR de 'SBKG' para 23/06/2011 as 06(UTC) não localizada na base de dados da REDEMET
2011062307 - Mensagem METAR de 'SBKG' para 23/06/2011 as 07(UTC) não localizada na base de dados da REDEMET
2011062308 - Mensagem METAR de 'SBKG' para 23/06/2011 as 08(UTC) não localizada na base de dados da REDEMET
2011062309 - SBKG 230915Z 11003KT 7000 BKN012 SCT015 22/21 Q1017=
2011062310 - SBKG 231000Z 12003KT 9999 SCT010 BKN015 22/21 Q1017=
2011062311 - SBKG 231100Z 13006KT 9999 SCT012 SCT016 BKN080 24/22 Q1017=
2011062312 - SBKG 231200Z 14008KT 9999 BKN018 SCT100 25/21 Q1017=
2011062313 - SBKG 231300Z 15006KT 9999 BKN020 26/21 Q1017=
2011062314 - SBKG 231400Z 12008KT 9999 BKN020 29/20 Q1016=
2011062315 - SBKG 231500Z 12006KT 9999 BKN024 SCT100 28/20 Q1016=
2011062316 - SBKG 231600Z 10012KT 9999 BKN022 BKN090 28/21 Q1015 =
2011062317 - SBKG 231700Z 15005KT 9999 SCT020 BKN090 24/21 Q1015=
2011062318 - SBKG 231800Z 18012KT 9999 BKN010 BKN090 25/22 Q1015=
2011062318 - SBKG 231830Z 16008KT 9999 SCT010 OVC080 25/22 Q1015=
2011062319 - SBKG 231900Z 16005KT 9999 SCT010 OVC070 24/21 Q1015=
2011062320 - SBKG 232000Z 18008KT 9999 SCT009 BKN015 OVC090 23/21 Q1016 =
2011062321 - SBKG 232100Z 19007KT 9999 BKN010 OVC080 22/21 Q1016=
2011062322 - SBKG 232200Z 21006KT 9999 SCT009 SCT015 22/21 Q1016 =
2011062323 - SBKG 232300Z 18005KT 9999 SCT012 BKN018 22/20 Q1017 =
2011062400 - SBKG 240000Z 18006KT 9999 SCT010 BKN018 22/20 Q1017 =
2011062401 - SBKG 240100Z 21007KT 9999 SCT009 BKN015 22/20 Q1017 =
2011062402 - SBKG 240200Z 22009KT 8000 SCT018 BKN090 20/19 Q1017 =
2011062403 - SBKG 240300Z 21005KT 9999 SCT034 BKN090 20/19 Q1016 =
2011062404 - Mensagem METAR de 'SBKG' para 24/06/2011 as 04(UTC) não localizada na base de dados da REDEMET
2011062405 - Mensagem METAR de 'SBKG' para 24/06/2011 as 05(UTC) não localizada na base de dados da REDEMET
2011062406 - SBKG 240630Z 20004KT 9999 SCT015 BKN080 20/18 Q1015 =
2011062407 - SBKG 240700Z 20003KT 9999 SCT015 BKN080 20/18 Q1015 =
2011062408 - SBKG 240800Z 21005KT 9999 SCT015 BKN080 20/18 Q1015 =
2011062409 - SBKG 240900Z 26003KT 9999 FEW018 BKN080 19/17 Q1015 =
2011062410 - SBKG 241000Z 22006KT 9999 FEW020 22/18 Q1016=
2011062411 - SBKG 241100Z 21006KT 9999 FEW020 23/18 Q1017=
2011062412 - SBKG 241200Z 20008KT 9999 SCT030 25/17 Q1017=
2011062413 - SBKG 241300Z 18008KT 9999 SCT030 26/18 Q1017 =
2011062414 - SBKG 241400Z 16008KT 9999 SCT025 BKN090 27/17 Q1016=
2011062415 - SBKG 241500Z 12007KT 9999 SCT025 BKN090 26/18 Q1016=
2011062416 - SBKG 241600Z 18008KT 9999 SCT028 27/18 Q1015 =
2011062417 - SBKG 241700Z 18008KT 9999 BKN034 27/17 Q1014 =
2011062418 - SBKG 241800Z 13005KT 9999 SCT034 BKN080 26/18 Q1014 =
2011062419 - SBKG 241900Z 16007KT 9999 FEW047 SCT080 25/18 Q1014 =
2011062420 - SBKG 242000Z 13004KT CAVOK 24/19 Q1014 =
2011062421 - SBKG 242100Z 11002KT CAVOK 22/20 Q1015 =
2011062422 - SBKG 242200Z 14004KT CAVOK 22/19 Q1015=
2011062423 - SBKG 242300Z 14005KT CAVOK 21/19 Q1016=
2011062500 - SBKG 250000Z 17005KT CAVOK 22/19 Q1016=
2011062501 - SBKG 250100Z 15003KT CAVOK 21/19 Q1016=
2011062502 - SBKG 250200Z 16004KT 9999 FEW036 20/19 Q1016=
2011062503 - SBKG 250300Z 16005KT 9999 SCT034 21/18 Q1016=
2011062504 - Mensagem METAR de 'SBKG' para 25/06/2011 as 04(UTC) não localizada na base de dados da REDEMET
2011062505 - Mensagem METAR de 'SBKG' para 25/06/2011 as 05(UTC) não localizada na base de dados da REDEMET
2011062506 - Mensagem METAR de 'SBKG' para 25/06/2011 as 06(UTC) não localizada na base de dados da REDEMET
2011062507 - Mensagem METAR de 'SBKG' para 25/06/2011 as 07(UTC) não localizada na base de dados da REDEMET
2011062508 - Mensagem METAR de 'SBKG' para 25/06/2011 as 08(UTC) não localizada na base de dados da REDEMET
2011062509 - SBKG 250915Z 18003KT CAVOK 20/18 Q1016 =
2011062510 - SBKG 251000Z 23004KT CAVOK 22/18 Q1017 =
2011062511 - SBKG 251100Z 23007KT 9999 SCT017 SCT028 24/18 Q1017 =
2011062512 - SBKG 251200Z 21008KT 9999 BKN019 26/19 Q1017 =
2011062513 - SBKG 251300Z 22007KT 9999 BKN021 26/19 Q1017 =
2011062514 - SBKG 251400Z 22008KT 9999 BKN027 27/19 Q1016 =
2011062515 - SBKG 251500Z 21009KT 9999 BKN033 27/18 Q1016 =
2011062516 - SBKG 251600Z 19007KT 9999 BKN030 27/19 Q1015 =
2011062517 - SBKG 251700Z 15008KT 9999 BKN030 27/19 Q1014 =
2011062518 - SBKG 251800Z 14008KT 9999 BKN030 27/19 Q1014 =
2011062519 - SBKG 251900Z 14007KT 9999 BKN030 26/20 Q1014 =
2011062520 - SBKG 252000Z 12005KT 9999 BKN020 24/19 Q1014=
2011062521 - SBKG 252100Z 14006KT 9999 SCT020 23/20 Q1015=
2011062522 - SBKG 252200Z 14007KT 9999 SCT020 23/19 Q1016 =
2011062523 - SBKG 252300Z 14008KT 9999 SCT020 23/20 Q1016 =
2011062500 - SBKG 250000Z 17005KT CAVOK 22/19 Q1016=
2011062501 - SBKG 250100Z 15003KT CAVOK 21/19 Q1016=
2011062502 - SBKG 250200Z 16004KT 9999 FEW036 20/19 Q1016=
2011062503 - SBKG 250300Z 16005KT 9999 SCT034 21/18 Q1016=
2011062504 - Mensagem METAR de 'SBKG' para 25/06/2011 as 04(UTC) não localizada na base de dados da REDEMET
2011062505 - Mensagem METAR de 'SBKG' para 25/06/2011 as 05(UTC) não localizada na base de dados da REDEMET
2011062506 - Mensagem METAR de 'SBKG' para 25/06/2011 as 06(UTC) não localizada na base de dados da REDEMET
2011062507 - Mensagem METAR de 'SBKG' para 25/06/2011 as 07(UTC) não localizada na base de dados da REDEMET
2011062508 - Mensagem METAR de 'SBKG' para 25/06/2011 as 08(UTC) não localizada na base de dados da REDEMET
2011062509 - SBKG 250915Z 18003KT CAVOK 20/18 Q1016 =
2011062510 - SBKG 251000Z 23004KT CAVOK 22/18 Q1017 =
2011062511 - SBKG 251100Z 23007KT 9999 SCT017 SCT028 24/18 Q1017 =
2011062512 - SBKG 251200Z 21008KT 9999 BKN019 26/19 Q1017 =
2011062513 - SBKG 251300Z 22007KT 9999 BKN021 26/19 Q1017 =
2011062514 - SBKG 251400Z 22008KT 9999 BKN027 27/19 Q1016 =
2011062515 - SBKG 251500Z 21009KT 9999 BKN033 27/18 Q1016 =
2011062516 - SBKG 251600Z 19007KT 9999 BKN030 27/19 Q1015 =
2011062517 - SBKG 251700Z 15008KT 9999 BKN030 27/19 Q1014 =
2011062518 - SBKG 251800Z 14008KT 9999 BKN030 27/19 Q1014 =
2011062519 - SBKG 251900Z 14007KT 9999 BKN030 26/20 Q1014 =
2011062520 - SBKG 252000Z 12005KT 9999 BKN020 24/19 Q1014=
2011062521 - SBKG 252100Z 14006KT 9999 SCT020 23/20 Q1015=
2011062522 - SBKG 252200Z 14007KT 9999 SCT020 23/19 Q1016 =
2011062523 - SBKG 252300Z 14008KT 9999 SCT020 23/20 Q1016 =
2011062600 - SBKG 260000Z 16007KT 9999 SCT020 22/20 Q1017 =
2011062701 - SBKG 270100Z 12006KT 9999 BKN020 21/19 Q1017=
2011062702 - SBKG 270200Z 11006KT 9999 SCT030 21/19 Q1017=
2011062703 - SBKG 270300Z 11004KT 9999 FEW020 20/19 Q1017=
2011062704 - Mensagem METAR de 'SBKG' para 27/06/2011 as 04(UTC) não localizada na base de dados da REDEMET
2011062705 - Mensagem METAR de 'SBKG' para 27/06/2011 as 05(UTC) não localizada na base de dados da REDEMET
2011062706 - Mensagem METAR de 'SBKG' para 27/06/2011 as 06(UTC) não localizada na base de dados da REDEMET
2011062707 - Mensagem METAR de 'SBKG' para 27/06/2011 as 07(UTC) não localizada na base de dados da REDEMET
2011062708 - Mensagem METAR de 'SBKG' para 27/06/2011 as 08(UTC) não localizada na base de dados da REDEMET
2011062709 - SBKG 270915Z 27001KT 9999 SCT010 SCT015 20/19 Q1016=
2011062710 - SBKG 271000Z 27002KT 9999 FEW010 BKN015 21/20 Q1017=
2011062711 - SBKG 271100Z 22005KT 9999 BKN018 25/19 Q1017=
2011062712 - SBKG 271200Z 20006KT 9999 SCT020 27/20 Q1018 =
2011062713 - SBKG 271300Z 15006KT 9999 SCT025 26/19 Q1018 =
2011062714 - SBKG 271400Z 18007KT 9999 BKN026 26/19 Q1017 =
2011062715 - SBKG 271500Z 14010KT 9999 BKN026 27/20 Q1016 =
2011062716 - SBKG 271600Z 09006KT 9999 BKN025 29/20 Q1015 =
2011062717 - SBKG 271700Z 13005KT 9999 SCT025 SCT070 29/19 Q1015=
2011062718 - SBKG 271800Z 10007KT 9999 BKN027 27/19 Q1014=
2011062719 - SBKG 271900Z 09010KT 9999 BKN020 25/20 Q1015=
2011062720 - SBKG 272000Z 09009KT 6000 VCSH SCT010 BKN015 22/21 Q1015=
2011062721 - SBKG 272100Z 09007KT 7000 3000SE VCSH SCT008 BKN015 22/20 Q1016=
2011062722 - SBKG 272200Z 11005KT 9999 BKN015 SCT034 21/20 Q1016=
2011062723 - SBKG 272300Z 07002KT 9999 FEW014 21/20 Q1016=
2011062800 - SBKG 280000Z 11003KT 9999 BKN040 21/20 Q1017=
2011062801 - SBKG 280100Z 10002KT 9999 FEW040 21/20 Q1017=
2011062802 - SBKG 280200Z 12002KT 9999 FEW042 21/20 Q1017=
2011062803 - SBKG 280300Z 07001KT 9999 SCT038 21/20 Q1016=
2011062804 - Mensagem METAR de 'SBKG' para 28/06/2011 as 04(UTC) não localizada na base de dados da REDEMET
2011062805 - Mensagem METAR de 'SBKG' para 28/06/2011 as 05(UTC) não localizada na base de dados da REDEMET
2011062806 - Mensagem METAR de 'SBKG' para 28/06/2011 as 06(UTC) não localizada na base de dados da REDEMET
2011062807 - Mensagem METAR de 'SBKG' para 28/06/2011 as 07(UTC) não localizada na base de dados da REDEMET
2011062808 - Mensagem METAR de 'SBKG' para 28/06/2011 as 08(UTC) não localizada na base de dados da REDEMET
2011062809 - SBKG 280915Z 21002KT 7000 3000NW BCFG FEW003 SCT012 BKN020 21/20 Q1016=
2011062810 - SBKG 281000Z 18004KT 9999 SCT012 BKN020 21/20 Q1017=
2011062811 - SBKG 281100Z 18004KT 9999 BKN030 24/21 Q1017=
2011062812 - SBKG 281200Z 18006KT 9999 BKN020 SCT080 27/21 Q1018=
2011062813 - SBKG 281300Z 17006KT 9999 SCT016 BKN024 25/20 Q1018=
2011062814 - SBKG 281400Z 17006KT 9999 VCSH BKN018 BKN070 26/20 Q1017=
2011062815 - SBKG 281500Z 08004KT 9999 BKN020 26/21 Q1016=
2011062816 - SBKG 281600Z 13005KT 9999 BKN025 27/19 Q1015=
2011062817 - SBKG 281700Z 16004KT 9999 BKN025 28/19 Q1014 =
2011062818 - SBKG 281800Z 09003KT 9999 SCT030 28/21 Q1014=
2011062819 - SBKG 281900Z 10005KT 9999 FEW030 27/21 Q1014=
2011062820 - SBKG 282000Z 10003KT 9999 FEW030 26/21 Q1014=
2011062821 - SBKG 282100Z 09005KT 9999 FEW030 24/22 Q1015 =
2011062822 - SBKG 282200Z 11005KT 9999 SCT015 23/21 Q1015 =
2011062823 - SBKG 282300Z 12005KT 9999 SCT011 BKN020 23/22 Q1016 =
2011062900 - SBKG 290000Z 11005KT 8000 SCT007 BKN016 23/22 Q1016 =
2011062901 - SBKG 290100Z 12004KT 7000 SCT012 BKN018 22/22 Q1016 =
2011062902 - SBKG 290200Z 14004KT 9999 BKN015 22/21 Q1016 =
2011062903 - SBKG 290300Z 17005KT 9999 BKN015 22/21 Q1016 =
2011062904 - Mensagem METAR de 'SBKG' para 29/06/2011 as 04(UTC) não localizada na base de dados da REDEMET
2011062905 - Mensagem METAR de 'SBKG' para 29/06/2011 as 05(UTC) não localizada na base de dados da REDEMET
2011062906 - Mensagem METAR de 'SBKG' para 29/06/2011 as 06(UTC) não localizada na base de dados da REDEMET
2011062907 - Mensagem METAR de 'SBKG' para 29/06/2011 as 07(UTC) não localizada na base de dados da REDEMET
2011062908 - Mensagem METAR de 'SBKG' para 29/06/2011 as 08(UTC) não localizada na base de dados da REDEMET
2011062909 - SBKG 290915Z 20004KT 3000 -RA BKN010 BKN015 19/17 Q1017 =
2011062909 - SBKG 290930Z 25006KT 5000 BR SCT010 BKN015 18/17 Q1016 =
2011062910 - SBKG 291000Z 27004KT 6000 SCT015 BKN018 18/16 Q1017=
2011062911 - SBKG 291100Z 25002KT 9999 SCT018 BKN080 21/18 Q1018=
2011062912 - SBKG 291200Z 21006KT 9999 BKN018 BKN080 24/20 Q1018 =
2011062913 - SBKG 291300Z 22008KT 9999 SCT020 SCT100 26/20 Q1017 =
2011062914 - SBKG 291400Z 20010KT 9999 BKN018 BKN080 24/20 Q1017 =
2011062915 - SBKG 291500Z 18007KT 9999 SCT015 BKN020 BKN080 25/20 Q1016=
2011062916 - SBKG 291600Z 21007KT 9999 BKN023 BKN080 27/20 Q1016 =
2011062917 - SBKG 291700Z 20006KT 8000 VCSH SCT015 BKN019 BKN080 23/20 Q1015 =
2011062917 - SBKG 291710Z 19009KT 4000 -RA SCT012 BKN018 BKN080 23/21 Q1015 =
2011062918 - SBKG 291800Z 14004KT 3000 RA BR SCT004 BKN012 SCT025TCU 22/21 Q1015 =
2011062919 - SBKG 291900Z 12005KT 3000 -RA BR SCT008 BKN022 BKN080 22/21 Q1015 RERA =
2011062920 - SBKG 292000Z 13003KT 5000 BR SCT010 SCT021 BKN080 21/21 Q1015 =
2011062921 - SBKG 292100Z 16001KT 5000 -RA BR SCT012 BKN020 BKN080 21/21 Q1016 =
2011062922 - SBKG 292200Z 14006KT 5000 -RA BR SCT006 BKN010 BKN015 21/21 Q1016=
2011062923 - SBKG 292300Z 14004KT 5000 BR SCT004 BKN010 BKN015 21/21 Q1017 RERA =
2011063000 - SBKG 300000Z 14003KT 5000 BR SCT006 BKN010 BKN015 21/21 Q1017=
2011063001 - SBKG 300100Z 13003KT 5000 BR SCT006 BKN010 BKN015 21/21 Q1017=
2011063002 - SBKG 300200Z 16004KT 9999 SCT010 BKN015 21/20 Q1016 =
2011063003 - SBKG 300300Z 15001KT 9999 SCT010 BKN015 20/20 Q1016=
2011063004 - Mensagem METAR de 'SBKG' para 30/06/2011 as 04(UTC) não localizada na base de dados da REDEMET
2011063005 - Mensagem METAR de 'SBKG' para 30/06/2011 as 05(UTC) não localizada na base de dados da REDEMET
2011063006 - Mensagem METAR de 'SBKG' para 30/06/2011 as 06(UTC) não localizada na base de dados da REDEMET
2011063007 - Mensagem METAR de 'SBKG' para 30/06/2011 as 07(UTC) não localizada na base de dados da REDEMET
2011063008 - Mensagem METAR de 'SBKG' para 30/06/2011 as 08(UTC) não localizada na base de dados da REDEMET
2011063009 - SBKG 300915Z 17004KT 9999 SCT015 21/20 Q1016 =
2011063010 - SBKG 301000Z 17006KT 9999 FEW013 SCT015 22/21 Q1017 =
2011063011 - SBKG 301100Z 16010KT 9999 SCT016 SCT021 24/20 Q1017 =
2011063012 - SBKG 301200Z 17010KT 9999 FEW014 BKN018 25/20 Q1018 =
2011063013 - SBKG 301300Z 18010KT 9999 SCT018 BKN028 24/21 Q1018 =
2011063014 - SBKG 301400Z 17011KT 9999 8000S VCSH SCT028 FEW030TCU 27/21 Q1017 =
2011063015 - SBKG 301500Z 18013KT 9999 FEW028 SCT090 27/21 Q1016=
2011063016 - SBKG 301600Z 17011KT 9999 SCT028 SCT090 27/20 Q1016=
2011063017 - SBKG 301700Z 16011KT 9999 SCT030 28/20 Q1015=
2011063018 - SBKG 301800Z 17012KT 9999 SCT030 28/19 Q1014=
2011063019 - SBKG 301900Z 16010KT 9999 SCT030 26/19 Q1014=
2011063020 - SBKG 302000Z 16010KT 9999 FEW025 24/19 Q1015=
2011063021 - SBKG 302100Z 16007KT 9999 FEW020 22/19 Q1015=
2011063022 - SBKG 302200Z 11002KT 9999 SCT025 22/19 Q1016=
2011063023 - SBKG 302300Z 12005KT CAVOK 21/18 Q1016=