2010060100 - SBKG 010000Z 10004KT CAVOK 22/22 Q1017=
2010060101 - SBKG 010100Z 00000KT CAVOK 22/22 Q1017=
2010060102 - SBKG 010200Z 00000KT CAVOK 22/22 Q1018=
2010060103 - SBKG 010300Z 00000KT CAVOK 22/21 Q1017=
2010060104 - Mensagem METAR de 'SBKG' para 01/06/2010 as 04(UTC) não localizada na base de dados da REDEMET
2010060105 - Mensagem METAR de 'SBKG' para 01/06/2010 as 05(UTC) não localizada na base de dados da REDEMET
2010060106 - Mensagem METAR de 'SBKG' para 01/06/2010 as 06(UTC) não localizada na base de dados da REDEMET
2010060107 - Mensagem METAR de 'SBKG' para 01/06/2010 as 07(UTC) não localizada na base de dados da REDEMET
2010060108 - Mensagem METAR de 'SBKG' para 01/06/2010 as 08(UTC) não localizada na base de dados da REDEMET
2010060109 - SBKG 010915Z 00000KT CAVOK 22/22 Q1018 =
2010060110 - SBKG 011000Z 03004KT 9000 SCT016 SCT100 23/22 Q1018 =
2010060111 - SBKG 011100Z 00000KT 9999 FEW018 25/22 Q1019 =
2010060112 - SBKG 011200Z 00000KT 9999 SCT030 28/21 Q1019 =
2010060113 - SBKG 011300Z 30003KT 9999 SCT032 28/21 Q1018 =
2010060114 - SBKG 011400Z 00000KT 9999 BKN040 31/20 Q1018 =
2010060115 - SBKG 011500Z 09003KT 9999 BKN040 33/21 Q1016 =
2010060116 - SBKG 011600Z 12003KT 9999 SCT030 33/20 Q1015=
2010060117 - SBKG 011700Z 12004KT 9999 SCT030 34/20 Q1014=
2010060118 - SBKG 011800Z 09003KT 9999 SCT030 32/19 Q1014=
2010060119 - SBKG 011900Z 10011KT 9999 BKN025 31/21 Q1014=
2010060120 - SBKG 012000Z 16016KT 9999 8000S VCSH SCT025TCU 26/21 Q1016 =
2010060121 - SBKG 012100Z 09008KT 9999 -RA BKN025TCU SCT080 24/23 Q1016=
2010060122 - SBKG 012200Z 07005KT 9999 VCTS SCT016 SCT018 FEW023CB 24/21 Q1017=
2010060123 - SBKG 012300Z 09006KT 9999 VCTS SCT015 FEW020CB 24/21 Q1018=
2010060200 - SBKG 020000Z 10007KT 9999 SCT010 BKN016 23/22 Q1018=
2010060201 - SBKG 020100Z 09005KT 9999 SCT010 SCT015 23/22 Q1018=
2010060202 - SBKG 020200Z 11003KT 9999 SCT010 SCT012 23/22 Q1018=
2010060203 - SBKG 020300Z 11006KT 9999 SCT009 BKN012 23/22 Q1018=
2010060204 - Mensagem METAR de 'SBKG' para 02/06/2010 as 04(UTC) não localizada na base de dados da REDEMET
2010060205 - Mensagem METAR de 'SBKG' para 02/06/2010 as 05(UTC) não localizada na base de dados da REDEMET
2010060206 - Mensagem METAR de 'SBKG' para 02/06/2010 as 06(UTC) não localizada na base de dados da REDEMET
2010060207 - Mensagem METAR de 'SBKG' para 02/06/2010 as 07(UTC) não localizada na base de dados da REDEMET
2010060208 - Mensagem METAR de 'SBKG' para 02/06/2010 as 08(UTC) não localizada na base de dados da REDEMET
2010060209 - SBKG 020915Z 00000KT CAVOK 22/22 Q1017=
2010060210 - SBKG 021000Z 16003KT 9999 FEW008 23/22 Q1018=
2010060211 - SBKG 021100Z 14003KT 9999 FEW012 26/21 Q1018=
2010060212 - SBKG 021200Z 17002KT 9999 SCT020 27/22 Q1018=
2010060213 - SBKG 021300Z 12014KT 9999 BKN027 29/20 Q1017 =
2010060214 - SBKG 021400Z 13004KT 9999 SCT030 30/20 Q1017=
2010060215 - SBKG 021500Z 16004KT 9999 BKN030 31/19 Q1016=
2010060216 - SBKG 021600Z 16008KT 9999 SCT030 31/22 Q1015=
2010060217 - SBKG 021700Z 14006KT 9999 SCT030 32/22 Q1014=
2010060218 - SBKG 021800Z 12010KT 9999 SCT030 32/21 Q1014=
2010060219 - SBKG 021900Z 13010KT 9999 BKN030 31/21 Q1014=
2010060220 - SBKG 022000Z 12008KT 9999 BKN025 29/21 Q1015=
2010060221 - SBKG 022100Z 09006KT 9999 SCT020 27/22 Q1015=
2010060222 - SBKG 022200Z 10010KT 9999 SCT015 26/22 Q1016=
2010060223 - SBKG 022300Z 09010KT 9999 FEW006 SCT015 25/22 Q1016=
2010060300 - SBKG 030000Z 10008KT 9999 FEW006 SCT015 25/22 Q1017=
2010060301 - SBKG 030100Z 09008KT 9999 SCT006 BKN015 24/23 Q1018=
2010060302 - SBKG 030200Z 12006KT 9999 FEW006 BKN015 24/23 Q1018=
2010060303 - SBKG 030300Z 10005KT 9999 FEW006 BKN015 24/22 Q1018=
2010060304 - Mensagem METAR de 'SBKG' para 03/06/2010 as 04(UTC) não localizada na base de dados da REDEMET
2010060305 - Mensagem METAR de 'SBKG' para 03/06/2010 as 05(UTC) não localizada na base de dados da REDEMET
2010060306 - Mensagem METAR de 'SBKG' para 03/06/2010 as 06(UTC) não localizada na base de dados da REDEMET
2010060307 - Mensagem METAR de 'SBKG' para 03/06/2010 as 07(UTC) não localizada na base de dados da REDEMET
2010060308 - Mensagem METAR de 'SBKG' para 03/06/2010 as 08(UTC) não localizada na base de dados da REDEMET
2010060309 - SBKG 030915Z 00000KT 9999 SCT008 23/22 Q1018=
2010060310 - SBKG 031000Z 14006KT 9999 SCT010 24/21 Q1018 =
2010060311 - SBKG 031100Z 16004KT 9999 SCT020 26/23 Q1018=
2010060312 - SBKG 031200Z 17005KT 9999 SCT025 28/21 Q1018=
2010060313 - SBKG 031300Z 11010KT 9999 SCT025 29/20 Q1018 =
2010060314 - SBKG 031400Z 12010KT 9999 BKN030 29/21 Q1017=
2010060315 - SBKG 031500Z 12012KT 9999 BKN030 31/22 Q1017=
2010060316 - SBKG 031600Z 13010KT 9999 BKN040 31/20 Q1016=
2010060317 - SBKG 031700Z 13008KT 9999 BKN040 32/19 Q1015 =
2010060318 - SBKG 031800Z 14008KT 9999 BKN040 32/20 Q1015=
2010060319 - SBKG 031900Z 11010KT 9999 SCT040 30/20 Q1015=
2010060320 - SBKG 032000Z 10012KT 9999 SCT030 29/21 Q1016=
2010060321 - SBKG 032100Z 11010KT 9999 BKN025 27/22 Q1016=
2010060322 - SBKG 032200Z 12008KT 9999 BKN024 25/23 Q1017 =
2010060323 - SBKG 032300Z 13005KT 9999 SCT018 BKN026 25/22 Q1018 =
2010060400 - SBKG 040000Z 14009KT 9999 SCT018 BKN021 25/22 Q1018 =
2010060401 - SBKG 040100Z 16006KT 9999 FEW018 BKN020 24/22 Q1018 =
2010060402 - SBKG 040200Z 14006KT 9999 FEW018 BKN022 24/22 Q1018 =
2010060403 - SBKG 040300Z 15004KT 9999 SCT024 23/23 Q1018 =
2010060404 - Mensagem METAR de 'SBKG' para 04/06/2010 as 04(UTC) não localizada na base de dados da REDEMET
2010060405 - Mensagem METAR de 'SBKG' para 04/06/2010 as 05(UTC) não localizada na base de dados da REDEMET
2010060406 - Mensagem METAR de 'SBKG' para 04/06/2010 as 06(UTC) não localizada na base de dados da REDEMET
2010060407 - Mensagem METAR de 'SBKG' para 04/06/2010 as 07(UTC) não localizada na base de dados da REDEMET
2010060408 - Mensagem METAR de 'SBKG' para 04/06/2010 as 08(UTC) não localizada na base de dados da REDEMET
2010060409 - SBKG 040915Z 16006KT 9999 SCT015 BKN019 23/22 Q1017=
2010060410 - SBKG 041000Z 16004KT 9999 SCT015 BKN019 24/22 Q1018=
2010060411 - SBKG 041100Z 17006KT 9999 BKN020 25/22 Q1018=
2010060412 - SBKG 041200Z 18006KT 9999 BKN025 27/22 Q1019 =
2010060413 - SBKG 041300Z 16008KT 9999 BKN025 26/22 Q1018=
2010060414 - SBKG 041400Z 10008KT 9999 BKN025 28/22 Q1018=
2010060415 - SBKG 041500Z 18006KT 9999 BKN025 27/23 Q1017=
2010060415 - SBKG 041540Z 21020KT 4000 -SHRA SCT012 BKN022 FEW024TCU 25/22 Q1017=
2010060416 - SBKG 041600Z 21018KT 4000 -SHRA SCT006 BKN015 FEW022TCU 24/24 Q1016 =
2010060416 - SBKG 041630Z 15010KT 3000 -TSRA SCT012 BKN015 FEW022CB 24/24 Q1016 =
2010060417 - SBKG 041700Z 18012KT 3000 +TSRA SCT006 BKN014 SCT020CB 22/22 Q1016 =
2010060418 - SBKG 041800Z 18006KT 4000 -TSRA SCT006 BKN014 FEW020CB 22/22 Q1017 =
2010060418 - SBKG 041840Z 15004KT 4000 -RA SCT006 BKN014 BKN080 22/22 Q1016 RETS =
2010060419 - SBKG 041900Z 15004KT 5000 -RA BKN012 SCT024 OVC080 22/22 Q1017 RETS =
2010060420 - SBKG 042000Z 18006KT 2500 -RA BR BKN010 BKN018 OVC080 22/22 Q1017 =
2010060421 - SBKG 042100Z 23006KT 3500 -RA BR SCT007 SCT018 OVC070 22/22 Q1018 =
2010060422 - SBKG 042200Z 24005KT 4000 BR SCT007 SCT018 OVC070 22/22 Q1018 RERA=
2010060423 - SBKG 042300Z 23005KT 3000 -RA BR SCT006 BKN010 OVC070 22/22 Q1019=
2010060500 - SBKG 050000Z 23002KT 3000 -RA BR SCT006 BKN010 OVC070 22/22 Q1019=
2010060501 - SBKG 050100Z 23002KT 3000 -RA BR SCT006 BKN010 OVC070 22/22 Q1019=
2010060502 - SBKG 050200Z 22003KT 4000 BR SCT006 BKN010 OVC070 22/22 Q1018 RERA=
2010060503 - SBKG 050300Z 22004KT 4000 BR SCT006 BKN010 OVC070 21/21 Q1018=
2010060504 - Mensagem METAR de 'SBKG' para 05/06/2010 as 04(UTC) não localizada na base de dados da REDEMET
2010060505 - Mensagem METAR de 'SBKG' para 05/06/2010 as 05(UTC) não localizada na base de dados da REDEMET
2010060506 - Mensagem METAR de 'SBKG' para 05/06/2010 as 06(UTC) não localizada na base de dados da REDEMET
2010060507 - Mensagem METAR de 'SBKG' para 05/06/2010 as 07(UTC) não localizada na base de dados da REDEMET
2010060508 - Mensagem METAR de 'SBKG' para 05/06/2010 as 08(UTC) não localizada na base de dados da REDEMET
2010060509 - SBKG 050915Z 27005KT 9999 SCT006 SCT010 BKN015 21/21 Q1018 =
2010060510 - SBKG 051000Z 27005KT 9999 FEW008 22/21 Q1018 =
2010060511 - SBKG 051100Z 27005KT 9999 SCT014 SCT026 23/22 Q1019 =
2010060512 - SBKG 051200Z 27006KT 9999 SCT018 24/21 Q1019 =
2010060513 - SBKG 051300Z 25003KT 9999 SCT020 26/21 Q1019 =
2010060514 - SBKG 051400Z 19003KT 9999 SCT028 28/21 Q1018 =
2010060515 - SBKG 051500Z 27002KT 9999 BKN032 29/21 Q1017 =
2010060516 - SBKG 051600Z 16003KT 9999 BKN032 29/20 Q1017=
2010060517 - SBKG 051700Z 00000KT 9999 BKN032 BKN100 30/20 Q1016=
2010060518 - SBKG 051800Z 14005KT 9999 SCT032 BKN100 31/20 Q1016=
2010060519 - SBKG 051900Z 12003KT 9999 SCT030 BKN100 30/20 Q1016=
2010060520 - SBKG 052000Z 09006KT 9999 SCT020 SCT100 28/21 Q1016=
2010060521 - SBKG 052100Z 09006KT 9999 SCT020 27/22 Q1016=
2010060522 - SBKG 052200Z 08003KT 9999 SCT010 SCT080 25/22 Q1017=
2010060523 - SBKG 052300Z 10004KT 9999 SCT012 SCT080 24/22 Q1018=
2010060600 - SBKG 060000Z 10004KT 9999 SCT007 BKN018 24/23 Q1018=
2010060601 - SBKG 060100Z 12004KT 9999 SCT008 BKN018 23/22 Q1018=
2010060602 - SBKG 060200Z 12003KT 9999 SCT007 BKN016 23/22 Q1018=
2010060603 - SBKG 060300Z 12003KT 9999 FEW008 BKN016 22/22 Q1018=
2010060604 - SBKG 060400Z 13002KT 9999 FEW008 BKN016 22/22 Q1018=
2010060605 - Mensagem METAR de 'SBKG' para 06/06/2010 as 05(UTC) não localizada na base de dados da REDEMET
2010060606 - Mensagem METAR de 'SBKG' para 06/06/2010 as 06(UTC) não localizada na base de dados da REDEMET
2010060607 - Mensagem METAR de 'SBKG' para 06/06/2010 as 07(UTC) não localizada na base de dados da REDEMET
2010060608 - Mensagem METAR de 'SBKG' para 06/06/2010 as 08(UTC) não localizada na base de dados da REDEMET
2010060609 - SBKG 060915Z 12003KT 9999 FEW010 22/21 Q1018=
2010060610 - SBKG 061000Z 12004KT 9999 SCT015 23/21 Q1018=
2010060611 - SBKG 061100Z 13007KT 9999 FEW015 BKN018 24/20 Q1018=
2010060612 - SBKG 061200Z 14004KT 9999 BKN020 27/22 Q1018=
2010060613 - SBKG 061300Z 09006KT 9999 BKN020 28/22 Q1018=
2010060614 - SBKG 061400Z 12005KT 9999 BKN025 29/21 Q1017=
2010060615 - SBKG 061500Z 10006KT 9999 BKN025 30/21 Q1016=
2010060616 - SBKG 061600Z 13004KT 9999 BKN027 30/22 Q1016 =
2010060617 - SBKG 061700Z 13003KT 9999 BKN030 31/21 Q1015=
2010060618 - SBKG 061800Z 14005KT 9999 SCT030 31/21 Q1015=
2010060619 - SBKG 061900Z 12004KT 9999 SCT030 29/21 Q1015=
2010060620 - SBKG 062000Z 10006KT 9999 FEW027 28/21 Q1015=
2010060621 - SBKG 062100Z 10007KT 9999 BKN025 26/22 Q1016=
2010060622 - SBKG 062200Z 09006KT 9999 BKN020 25/21 Q1017=
2010060623 - SBKG 062300Z 09007KT 9999 BKN018 24/22 Q1018=
2010060700 - SBKG 070000Z 09005KT 9999 FEW016 24/22 Q1018=
2010060701 - SBKG 070100Z 10005KT 9999 FEW012 23/22 Q1018=
2010060702 - SBKG 070200Z 09004KT 9999 FEW010 23/22 Q1018=
2010060703 - SBKG 070300Z 09007KT 9999 SCT008 BKN010 23/22 Q1018=
2010060704 - Mensagem METAR de 'SBKG' para 07/06/2010 as 04(UTC) não localizada na base de dados da REDEMET
2010060705 - Mensagem METAR de 'SBKG' para 07/06/2010 as 05(UTC) não localizada na base de dados da REDEMET
2010060706 - Mensagem METAR de 'SBKG' para 07/06/2010 as 06(UTC) não localizada na base de dados da REDEMET
2010060707 - Mensagem METAR de 'SBKG' para 07/06/2010 as 07(UTC) não localizada na base de dados da REDEMET
2010060708 - Mensagem METAR de 'SBKG' para 07/06/2010 as 08(UTC) não localizada na base de dados da REDEMET
2010060709 - SBKG 070915Z 12006KT 9999 SCT015 BKN019 22/22 Q1018=
2010060710 - SBKG 071000Z 10004KT 9999 SCT015 BKN020 23/22 Q1018 =
2010060711 - SBKG 071100Z 10006KT 9999 BKN020 24/22 Q1019=
2010060712 - SBKG 071200Z 09006KT 9999 BKN020 25/22 Q1019=
2010060713 - SBKG 071300Z 12010KT 9999 SCT030 28/21 Q1019=
2010060714 - SBKG 071400Z 10010KT 9999 SCT030 29/21 Q1019=
2010060715 - SBKG 071500Z 12010KT 9999 SCT030 30/21 Q1018=
2010060716 - SBKG 071600Z 10008KT 9999 FEW030 30/20 Q1017 =
2010060717 - SBKG 071700Z 12004KT 9999 FEW030 31/20 Q1016=
2010060718 - SBKG 071800Z 13007KT 9999 FEW030 30/19 Q1016=
2010060719 - SBKG 071900Z 11005KT 9999 FEW040 30/18 Q1016=
2010060720 - SBKG 072000Z 13005KT CAVOK 28/18 Q1016=
2010060721 - SBKG 072100Z 12005KT CAVOK 26/19 Q1017=
2010060722 - SBKG 072200Z 12008KT CAVOK 25/20 Q1018=
2010060723 - SBKG 072300Z 11010KT CAVOK 24/20 Q1019=
2010060800 - SBKG 080000Z 12006KT CAVOK 23/20 Q1020=
2010060801 - SBKG 080100Z 12006KT 9999 FEW018 SCT070 23/20 Q1020=
2010060802 - SBKG 080200Z 12010KT 9999 FEW017 SCT070 23/20 Q1020=
2010060803 - SBKG 080300Z 09004KT 9999 -RA SCT016 BKN070 21/20 Q1020=
2010060804 - Mensagem METAR de 'SBKG' para 08/06/2010 as 04(UTC) não localizada na base de dados da REDEMET
2010060805 - Mensagem METAR de 'SBKG' para 08/06/2010 as 05(UTC) não localizada na base de dados da REDEMET
2010060806 - Mensagem METAR de 'SBKG' para 08/06/2010 as 06(UTC) não localizada na base de dados da REDEMET
2010060807 - Mensagem METAR de 'SBKG' para 08/06/2010 as 07(UTC) não localizada na base de dados da REDEMET
2010060808 - Mensagem METAR de 'SBKG' para 08/06/2010 as 08(UTC) não localizada na base de dados da REDEMET
2010060809 - SBKG 080915Z 00000KT CAVOK 21/20 Q1018=
2010060810 - SBKG 081000Z 16005KT 9999 SCT020 22/20 Q1019=
2010060811 - SBKG 081100Z 12010KT 9999 BKN020 23/21 Q1020=
2010060812 - SBKG 081200Z 15010KT 9999 BKN025 26/21 Q1020 =
2010060813 - SBKG 081300Z 12012KT 9999 SCT025 28/22 Q1019=
2010060814 - SBKG 081400Z 14012KT 9999 SCT030 28/21 Q1019=
2010060815 - SBKG 081500Z 12015KT 9999 SCT030 28/20 Q1018=
2010060816 - SBKG 081600Z 11008KT 9999 SCT040 30/18 Q1017=
2010060817 - SBKG 081700Z 14008KT 9999 SCT040 30/17 Q1016=
2010060818 - SBKG 081800Z 10010KT CAVOK 31/16 Q1016=
2010060819 - SBKG 081900Z 13010KT CAVOK 29/17 Q1016=
2010060820 - SBKG 082000Z 13010KT CAVOK 28/17 Q1017=
2010060821 - SBKG 082100Z 12007KT CAVOK 26/19 Q1017=
2010060822 - SBKG 082200Z 10006KT CAVOK 24/20 Q1018 =
2010060823 - SBKG 082300Z 10007KT CAVOK 23/20 Q1019 =
2010060900 - SBKG 090000Z 09006KT CAVOK 22/21 Q1019 =
2010060901 - SBKG 090100Z 10005KT CAVOK 21/21 Q1019 =
2010060902 - SBKG 090200Z 09004KT CAVOK 21/21 Q1019 =
2010060903 - SBKG 090300Z 10004KT CAVOK 21/21 Q1019 =
2010060904 - Mensagem METAR de 'SBKG' para 09/06/2010 as 04(UTC) não localizada na base de dados da REDEMET
2010060905 - Mensagem METAR de 'SBKG' para 09/06/2010 as 05(UTC) não localizada na base de dados da REDEMET
2010060906 - Mensagem METAR de 'SBKG' para 09/06/2010 as 06(UTC) não localizada na base de dados da REDEMET
2010060907 - Mensagem METAR de 'SBKG' para 09/06/2010 as 07(UTC) não localizada na base de dados da REDEMET
2010060908 - Mensagem METAR de 'SBKG' para 09/06/2010 as 08(UTC) não localizada na base de dados da REDEMET
2010060909 - SBKG 090915Z 24002KT 9999 FEW015 20/19 Q1018=
2010060910 - SBKG 091000Z 23004KT 9999 FEW016 21/20 Q1019=
2010060911 - SBKG 091100Z 17007KT 9999 SCT016 22/19 Q1020=
2010060912 - SBKG 091200Z 17010KT 9999 SCT020 24/19 Q1020=
2010060913 - SBKG 091300Z 18008KT 9999 SCT025 27/17 Q1020=
2010060914 - SBKG 091400Z 15008KT 9999 FEW030 28/16 Q1019=
2010060915 - SBKG 091500Z 13008KT CAVOK 29/16 Q1018=
2010060916 - SBKG 091600Z 12010KT CAVOK 29/17 Q1017 =
2010060917 - SBKG 091700Z 13010KT CAVOK 30/18 Q1016 =
2010060918 - SBKG 091800Z 10008KT CAVOK 29/17 Q1016 =
2010060919 - SBKG 091900Z 10010KT CAVOK 29/18 Q1016=
2010060920 - SBKG 092000Z 12008KT CAVOK 27/18 Q1016 =
2010060921 - SBKG 092100Z 13007KT CAVOK 26/18 Q1017 =
2010060922 - SBKG 092200Z 10008KT CAVOK 25/19 Q1017=
2010060923 - SBKG 092300Z 12007KT CAVOK 24/20 Q1018=
2010061000 - SBKG 100000Z 10004KT CAVOK 23/20 Q1018=
2010061001 - SBKG 100100Z 10003KT CAVOK 22/21 Q1018=
2010061002 - SBKG 100200Z 09002KT CAVOK 21/20 Q1018=
2010061003 - SBKG 100300Z 00000KT CAVOK 21/20 Q1017=
2010061004 - Mensagem METAR de 'SBKG' para 10/06/2010 as 04(UTC) não localizada na base de dados da REDEMET
2010061005 - Mensagem METAR de 'SBKG' para 10/06/2010 as 05(UTC) não localizada na base de dados da REDEMET
2010061006 - Mensagem METAR de 'SBKG' para 10/06/2010 as 06(UTC) não localizada na base de dados da REDEMET
2010061007 - Mensagem METAR de 'SBKG' para 10/06/2010 as 07(UTC) não localizada na base de dados da REDEMET
2010061008 - Mensagem METAR de 'SBKG' para 10/06/2010 as 08(UTC) não localizada na base de dados da REDEMET
2010061009 - SBKG 100915Z 18006KT 9999 FEW020 21/20 Q1017 =
2010061010 - SBKG 101000Z 18008KT 9999 FEW020 22/21 Q1017 =
2010061011 - SBKG 101100Z 17006KT 9999 BKN025 23/21 Q1018=
2010061012 - SBKG 101200Z 15008KT 9999 BKN025 24/19 Q1019=
2010061013 - SBKG 101300Z 15010KT 9999 BKN026 26/20 Q1018=
2010061014 - SBKG 101400Z 14009KT 9999 SCT028 28/18 Q1018=
2010061015 - SBKG 101500Z 14010KT 9999 SCT032 29/18 Q1017=
2010061016 - SBKG 101600Z 12013KT 9999 SCT032 30/19 Q1016=
2010061017 - SBKG 101700Z 09010KT 9999 SCT032 30/19 Q1015=
2010061018 - SBKG 101800Z 13010KT 9999 SCT030 29/20 Q1015=
2010061019 - SBKG 101900Z 09012KT 9999 SCT025 29/20 Q1015=
2010061020 - SBKG 102000Z 13010KT 9999 FEW020 27/20 Q1016=
2010061021 - SBKG 102100Z 13010KT 9999 SCT015 SCT020 26/20 Q1016=
2010061022 - SBKG 102200Z 14008KT 9999 SCT020 25/22 Q1018=
2010061023 - SBKG 102300Z 13005KT 9999 SCT020 24/21 Q1018=
2010061100 - SBKG 110000Z 13003KT 9999 SCT020 23/21 Q1019=
2010061101 - SBKG 110100Z 14004KT 9999 SCT020 23/21 Q1019=
2010061102 - SBKG 110200Z 15004KT 9999 SCT020 23/21 Q1018=
2010061103 - SBKG 110300Z 15007KT 9999 FEW018 22/21 Q1018=
2010061104 - Mensagem METAR de 'SBKG' para 11/06/2010 as 04(UTC) não localizada na base de dados da REDEMET
2010061105 - Mensagem METAR de 'SBKG' para 11/06/2010 as 05(UTC) não localizada na base de dados da REDEMET
2010061106 - Mensagem METAR de 'SBKG' para 11/06/2010 as 06(UTC) não localizada na base de dados da REDEMET
2010061107 - Mensagem METAR de 'SBKG' para 11/06/2010 as 07(UTC) não localizada na base de dados da REDEMET
2010061108 - Mensagem METAR de 'SBKG' para 11/06/2010 as 08(UTC) não localizada na base de dados da REDEMET
2010061109 - SBKG 110915Z 18004KT 9000 FEW018 BKN080 21/21 Q1017 =
2010061110 - SBKG 111000Z 16005KT 9999 FEW014 BKN090 22/21 Q1018 =
2010061111 - SBKG 111100Z 15007KT 9999 SCT026 BKN090 23/21 Q1018 =
2010061112 - SBKG 111200Z 14006KT 9999 SCT021 BKN026 25/20 Q1019 =
2010061113 - SBKG 111300Z 14008KT 9999 BKN028 26/21 Q1019 =
2010061114 - SBKG 111400Z 15005KT 9999 SCT032 27/20 Q1018 =
2010061115 - SBKG 111500Z 13006KT 9999 BKN032 29/20 Q1017=
2010061116 - SBKG 111600Z 12008KT 9999 SCT030 29/19 Q1016=
2010061117 - SBKG 111700Z 11011KT 9999 BKN030 26/22 Q1016=
2010061118 - SBKG 111800Z 14008KT 9999 SCT030 26/20 Q1016=
2010061119 - SBKG 111900Z 14008KT 9999 FEW030 26/23 Q1016=
2010061120 - SBKG 112000Z 13007KT 9999 FEW025 26/21 Q1016=
2010061121 - SBKG 112100Z 12004KT CAVOK 24/22 Q1017=
2010061122 - SBKG 112200Z 12003KT 9999 FEW020 23/20 Q1017=
2010061123 - SBKG 112300Z 12002KT 9999 FEW020 22/19 Q1018=
2010061200 - SBKG 120000Z 12003KT CAVOK 22/20 Q1018=
2010061201 - SBKG 120100Z 16002KT CAVOK 21/20 Q1019=
2010061202 - SBKG 120200Z 12002KT 9999 FEW018 21/20 Q1019=
2010061203 - SBKG 120300Z 16003KT 9999 BKN015 21/20 Q1019=
2010061204 - Mensagem METAR de 'SBKG' para 12/06/2010 as 04(UTC) não localizada na base de dados da REDEMET
2010061205 - Mensagem METAR de 'SBKG' para 12/06/2010 as 05(UTC) não localizada na base de dados da REDEMET
2010061206 - Mensagem METAR de 'SBKG' para 12/06/2010 as 06(UTC) não localizada na base de dados da REDEMET
2010061207 - Mensagem METAR de 'SBKG' para 12/06/2010 as 07(UTC) não localizada na base de dados da REDEMET
2010061208 - Mensagem METAR de 'SBKG' para 12/06/2010 as 08(UTC) não localizada na base de dados da REDEMET
2010061209 - SBKG 120915Z 19005KT 9999 SCT020 21/21 Q1017=
2010061210 - SBKG 121000Z 16002KT 9999 BKN020 21/20 Q1018 =
2010061211 - SBKG 121100Z 15003KT 9999 BKN015 24/22 Q1018=
2010061212 - SBKG 121200Z 13005KT 9999 BKN018 26/22 Q1019=
2010061213 - SBKG 121300Z 18007KT 9999 BKN025 27/21 Q1018=
2010061214 - SBKG 121400Z 13005KT 9999 BKN028 28/22 Q1018 =
2010061215 - SBKG 121500Z 14010KT 9999 BKN030 28/20 Q1017=
2010061216 - SBKG 121600Z 16005KT 9999 BKN025 FEW030TCU 27/20 Q1017=
2010061217 - SBKG 121700Z 12007KT 9999 BKN030 28/20 Q1016=
2010061218 - SBKG 121800Z 12005KT 9999 SCT030 SCT080 28/19 Q1016=
2010061219 - SBKG 121900Z 13008KT 9999 SCT025 SCT030 28/21 Q1016=
2010061220 - SBKG 122000Z 12007KT 9999 FEW020 26/19 Q1016=
2010061221 - SBKG 122100Z 12005KT 9999 FEW020 25/19 Q1016=
2010061222 - SBKG 122200Z 12004KT CAVOK 24/20 Q1017 =
2010061223 - SBKG 122300Z 12006KT CAVOK 23/20 Q1018=
2010061300 - SBKG 130000Z 10004KT CAVOK 23/21 Q1018=
2010061301 - SBKG 130100Z 13005KT CAVOK 22/21 Q1019=
2010061302 - SBKG 130200Z 14006KT 9999 SCT017 22/21 Q1019=
2010061303 - SBKG 130300Z 16004KT 9999 SCT015 22/21 Q1018=
2010061304 - Mensagem METAR de 'SBKG' para 13/06/2010 as 04(UTC) não localizada na base de dados da REDEMET
2010061305 - Mensagem METAR de 'SBKG' para 13/06/2010 as 05(UTC) não localizada na base de dados da REDEMET
2010061306 - Mensagem METAR de 'SBKG' para 13/06/2010 as 06(UTC) não localizada na base de dados da REDEMET
2010061307 - Mensagem METAR de 'SBKG' para 13/06/2010 as 07(UTC) não localizada na base de dados da REDEMET
2010061308 - Mensagem METAR de 'SBKG' para 13/06/2010 as 08(UTC) não localizada na base de dados da REDEMET
2010061309 - SBKG 130915Z 23003KT CAVOK 20/19 Q1017=
2010061310 - SBKG 131000Z 22007KT 9999 FEW020 22/20 Q1018=
2010061311 - SBKG 131100Z 18011KT 9999 BKN020 24/20 Q1018=
2010061312 - SBKG 131200Z 17008KT 9999 BKN020 24/20 Q1019=
2010061313 - SBKG 131300Z 18012KT 9999 BKN025 27/22 Q1019=
2010061314 - SBKG 131400Z 17010KT 9999 BKN025 26/22 Q1018=
2010061315 - SBKG 131500Z 16005KT 9999 BKN020 SCT070 23/21 Q1017=
2010061316 - SBKG 131600Z 18010KT 9999 8000SE VCSH BKN020 26/21 Q1017 =
2010061317 - SBKG 131700Z 16008KT 5000 -RA BKN020 25/22 Q1016=
2010061318 - SBKG 131800Z 15014KT 5000 -RA BKN020 25/22 Q1016=
2010061319 - SBKG 131900Z 16008KT 9999 BKN020 23/22 Q1016=
2010061320 - SBKG 132000Z 17005KT 9999 SCT020 BKN090 23/22 Q1016 =
2010061321 - SBKG 132100Z 16004KT 9999 SCT015 SCT020 22/21 Q1016=
2010061322 - SBKG 132200Z 15006KT 9999 SCT021 BKN080 22/21 Q1017 =
2010061323 - SBKG 132300Z 18004KT 9999 SCT012 SCT018 BKN080 22/21 Q1018 =
2010061400 - SBKG 140000Z 19006KT 9999 SCT010 SCT016 BKN080 22/21 Q1018 =
2010061401 - SBKG 140100Z 17003KT 9999 SCT010 BKN016 BKN080 21/21 Q1018 =
2010061402 - SBKG 140200Z 18005KT 9999 BKN015 BKN018 BKN080 21/21 Q1018 =
2010061403 - SBKG 140300Z 15005KT 9999 SCT015 BKN018 BKN080 21/21 Q1018 =
2010061404 - Mensagem METAR de 'SBKG' para 14/06/2010 as 04(UTC) não localizada na base de dados da REDEMET
2010061405 - Mensagem METAR de 'SBKG' para 14/06/2010 as 05(UTC) não localizada na base de dados da REDEMET
2010061406 - Mensagem METAR de 'SBKG' para 14/06/2010 as 06(UTC) não localizada na base de dados da REDEMET
2010061407 - Mensagem METAR de 'SBKG' para 14/06/2010 as 07(UTC) não localizada na base de dados da REDEMET
2010061408 - Mensagem METAR de 'SBKG' para 14/06/2010 as 08(UTC) não localizada na base de dados da REDEMET
2010061409 - SBKG 140915Z 19005KT 9999 SCT015 BKN018 21/18 Q1017=
2010061410 - SBKG 141000Z 20007KT 9999 BKN018 21/18 Q1018=
2010061411 - SBKG 141100Z 20010KT 9999 BKN018 BKN021 22/18 Q1018=
2010061412 - SBKG 141200Z 18010KT 9999 BKN020 23/18 Q1018=
2010061413 - SBKG 141300Z 18012KT 9999 BKN025 24/18 Q1019=
2010061414 - SBKG 141400Z 18012KT 9999 BKN030 26/17 Q1018=
2010061415 - SBKG 141500Z 18010KT 9999 BKN025 25/19 Q1018=
2010061416 - SBKG 141600Z 16006KT 9999 BKN025 25/19 Q1017 =
2010061417 - SBKG 141700Z 18010KT 9999 BKN028 BKN080 25/19 Q1016 =
2010061418 - SBKG 141800Z 16012KT 8000 VCSH BKN030 BKN080 24/19 Q1017 =
2010061418 - SBKG 141840Z 18010KT 4000 -RA BR BKN022 BKN070 23/22 Q1017 =
2010061419 - SBKG 141900Z 14006KT 4000 -RA BR FEW018 BKN020 BKN070 22/21 Q1017 =
2010061420 - SBKG 142000Z 17002KT 3000 -RA BR SCT015 BKN020 OVC070 22/22 Q1017 =
2010061420 - SBKG 142025Z 14005KT 5000 -RA BR SCT010 BKN022 OVC070 22/22 Q1017 =
2010061421 - SBKG 142100Z 15004KT 6000 SCT016 BKN022 OVC070 21/21 Q1018 =
2010061422 - SBKG 142200Z 15010KT 5000 -RA BR BKN010 BKN015 OVC070 21/20 Q1018=
2010061423 - SBKG 142300Z 15007KT 5000 BR BKN010 BKN015 OVC070 21/20 Q1019 RERA=
2010061500 - SBKG 150000Z 13004KT 8000 BKN010 BKN015 OVC070 21/20 Q1019=
2010061501 - SBKG 150100Z 15002KT 9999 BKN010 OVC070 20/19 Q1019=
2010061502 - SBKG 150200Z 18005KT 9999 BKN010 21/20 Q1019=
2010061503 - SBKG 150300Z 18005KT 9999 BKN010 21/20 Q1019=
2010061504 - Mensagem METAR de 'SBKG' para 15/06/2010 as 04(UTC) não localizada na base de dados da REDEMET
2010061505 - Mensagem METAR de 'SBKG' para 15/06/2010 as 05(UTC) não localizada na base de dados da REDEMET
2010061506 - Mensagem METAR de 'SBKG' para 15/06/2010 as 06(UTC) não localizada na base de dados da REDEMET
2010061507 - Mensagem METAR de 'SBKG' para 15/06/2010 as 07(UTC) não localizada na base de dados da REDEMET
2010061508 - Mensagem METAR de 'SBKG' para 15/06/2010 as 08(UTC) não localizada na base de dados da REDEMET
2010061509 - SBKG 150915Z 18004KT 9999 SCT015 BKN100 20/20 Q1019=
2010061510 - SBKG 151000Z 15006KT 9999 FEW016 BKN100 21/20 Q1019 =
2010061511 - SBKG 151100Z 16006KT 9999 SCT020 BKN100 22/20 Q1019=
2010061512 - SBKG 151200Z 14008KT 9999 BKN020 BKN100 23/21 Q1019=
2010061513 - SBKG 151300Z 13010KT 9999 BKN020 BKN100 24/21 Q1019=
2010061514 - SBKG 151400Z 14008KT 9999 BKN021 BKN100 26/20 Q1019 =
2010061515 - SBKG 151500Z 10010KT 9999 SCT025 BKN100 26/21 Q1018 =
2010061516 - SBKG 151600Z 12010KT 9999 BKN025 BKN100 27/21 Q1017=
2010061517 - SBKG 151700Z 12010KT 9999 BKN025 BKN100 27/22 Q1016=
2010061518 - SBKG 151800Z 13014KT 8000 VCSH SCT015 BKN020 BKN100 25/21 Q1016=
2010061519 - SBKG 151900Z 15008KT 8000 VCSH SCT015 BKN020 BKN100 24/21 Q1017=
2010061520 - SBKG 152000Z 15008KT 5000 -RA BR BKN010 BKN015 23/22 Q1017=
2010061521 - SBKG 152100Z 09006KT 5000 -RA BR BKN010 BKN015 22/21 Q1017=
2010061522 - SBKG 152200Z 12006KT 8000 -RA SCT007 BKN010 22/22 Q1018=
2010061523 - SBKG 152300Z 13004KT 9000 -RA SCT008 BKN013 21/21 Q1018=
2010061600 - SBKG 160000Z 17003KT 8000 -RA SCT008 BKN013 21/21 Q1018=
2010061601 - SBKG 160100Z 16007KT 9999 SCT008 BKN013 21/21 Q1018=
2010061602 - SBKG 160200Z 19002KT 9999 SCT008 BKN013 21/21 Q1018=
2010061603 - SBKG 160300Z 00000KT 9000 BKN010 21/21 Q1018=
2010061604 - Mensagem METAR de 'SBKG' para 16/06/2010 as 04(UTC) não localizada na base de dados da REDEMET
2010061605 - Mensagem METAR de 'SBKG' para 16/06/2010 as 05(UTC) não localizada na base de dados da REDEMET
2010061606 - Mensagem METAR de 'SBKG' para 16/06/2010 as 06(UTC) não localizada na base de dados da REDEMET
2010061607 - Mensagem METAR de 'SBKG' para 16/06/2010 as 07(UTC) não localizada na base de dados da REDEMET
2010061608 - Mensagem METAR de 'SBKG' para 16/06/2010 as 08(UTC) não localizada na base de dados da REDEMET
2010061609 - SBKG 160910Z 19005KT 4000 -RADZ SCT006 SCT012 BKN016 20/20 Q1017 =
2010061610 - SBKG 161000Z 18008KT 3000 -RADZ SCT006 SCT012 BKN014 20/20 Q1018 =
2010061610 - SBKG 161020Z 19006KT 5000 -RADZ SCT006 SCT014 BKN015 21/21 Q1018 =
2010061611 - SBKG 161100Z 17006KT 5000 BR FEW007 SCT014 BKN016 21/21 Q1018 =
2010061612 - SBKG 161200Z 17006KT 5000 RA SCT008 BKN018 21/21 Q1018 =
2010061613 - SBKG 161300Z 18007KT 9999 BKN015 BKN018 23/22 Q1018 =
2010061614 - SBKG 161400Z 16008KT 4000 RA BKN012 BKN015 OVC070 23/23 Q1018 =
2010061615 - SBKG 161500Z 17006KT 9999 SCT014 SCT021 BKN080 24/22 Q1017 =
2010061616 - SBKG 161600Z 18008KT 9999 SCT014 SCT020 26/22 Q1016=
2010061616 - SBKG 161620Z 15013KT 2500 -RA BR SCT014 BKN020 25/22 Q1016=
2010061617 - SBKG 161700Z 17008KT 9999 SCT014 SCT020 24/23 Q1016=
2010061617 - SBKG 161748Z 16004KT 4000 -RA FEW008 BKN020 24/22 Q1016=
2010061618 - SBKG 161800Z 16002KT 5000 -RA FEW008 BKN020 23/22 Q1016=
2010061619 - SBKG 161900Z 16008KT 9999 SCT014 BKN080 23/22 Q1016=
2010061619 - SBKG 161915Z 14007KT 4000 -RA FEW008 BKN020 22/22 Q1016=
2010061620 - SBKG 162000Z 14008KT 4000 -RA FEW008 SCT020 OVC070 22/21 Q1016=
2010061621 - SBKG 162100Z 15004KT 3000 -RA SCT007 SCT020 OVC070 21/21 Q1017=
2010061622 - SBKG 162200Z 15004KT 6000 -RA BKN010 SCT015 OVC070 22/22 Q1017=
2010061623 - SBKG 162300Z 16005KT 3000 -RA BR BKN007 SCT015 OVC070 22/22 Q1017=
2010061700 - SBKG 170000Z 16006KT 4000 -RA BR BKN009 OVC070 22/21 Q1017=
2010061701 - SBKG 170100Z 16005KT 4000 -RA BR BKN009 OVC070 21/21 Q1018=
2010061702 - SBKG 170200Z 17004KT 4000 BR BKN010 OVC070 21/21 Q1017=
2010061703 - SBKG 170300Z 18003KT 3500 -RA BR BKN010 SCT012 OVC070 21/21 Q1017=
2010061704 - Mensagem METAR de 'SBKG' para 17/06/2010 as 04(UTC) não localizada na base de dados da REDEMET
2010061705 - Mensagem METAR de 'SBKG' para 17/06/2010 as 05(UTC) não localizada na base de dados da REDEMET
2010061706 - Mensagem METAR de 'SBKG' para 17/06/2010 as 06(UTC) não localizada na base de dados da REDEMET
2010061707 - Mensagem METAR de 'SBKG' para 17/06/2010 as 07(UTC) não localizada na base de dados da REDEMET
2010061708 - Mensagem METAR de 'SBKG' para 17/06/2010 as 08(UTC) não localizada na base de dados da REDEMET
2010061709 - SBKG 170915Z 17005KT 3000 BR SCT006 BKN010 BKN015 21/21 Q1015=
2010061710 - SBKG 171000Z 15004KT 4000 BR SCT005 BKN010 BKN015 21/21 Q1016=
2010061710 - SBKG 171012Z 15004KT 2000 -RA BR BKN005 BKN010 BKN015 21/21 Q1016=
2010061711 - SBKG 171100Z 19005KT 8000 SCT006 SCT010 BKN015 22/21 Q1016 RERA=
2010061712 - SBKG 171200Z 15005KT 9999 FEW006 SCT010 BKN015 23/21 Q1017=
2010061713 - SBKG 171300Z 13006KT 9999 SCT010 BKN018 BKN100 24/21 Q1017=
2010061714 - SBKG 171400Z 18006KT 8000 -RA BR FEW006 BKN010 BKN090 24/21 Q1016=
2010061715 - SBKG 171500Z 15006KT 3000 -RA BR SCT006 BKN010 BKN015 24/22 Q1016=
2010061716 - SBKG 171600Z 13004KT 3000 RA OVC010 23/23 Q1015=
2010061717 - SBKG 171700Z 13003KT 5000 RA BKN010 BKN013 OVC070 23/23 Q1014 RERA=
2010061718 - SBKG 171800Z 13005KT 6000 BKN013 SCT015 OVC070 23/22 Q1014=
2010061719 - SBKG 171900Z 09006KT 6000 -RA BKN010 SCT015 OVC070 23/22 Q1014=
2010061720 - SBKG 172000Z 09003KT 9999 SCT010 BKN018 BKN070 22/22 Q1014=
2010061721 - SBKG 172100Z 12002KT 9999 SCT012 BKN015 OVC080 22/22 Q1015=
2010061722 - SBKG 172200Z 10004KT 6000 SCT006 BKN015 22/22 Q1015=
2010061723 - SBKG 172300Z 12006KT 3000 -RA BR SCT006 BKN010 OVC080 22/22 Q1015 =
2010061800 - SBKG 180000Z 16004KT 3000 -RA BR BKN010 OVC080 22/22 Q1016 =
2010061801 - SBKG 180100Z 12008KT 3000 -RA BR BKN010 OVC080 22/22 Q1017=
2010061802 - SBKG 180200Z 14006KT 3000 RA BKN010 OVC070 22/22 Q1017 =
2010061803 - SBKG 180300Z 18006KT 3000 RA BKN010 OVC070 21/21 Q1016=
2010061804 - Mensagem METAR de 'SBKG' para 18/06/2010 as 04(UTC) não localizada na base de dados da REDEMET
2010061805 - Mensagem METAR de 'SBKG' para 18/06/2010 as 05(UTC) não localizada na base de dados da REDEMET
2010061806 - Mensagem METAR de 'SBKG' para 18/06/2010 as 06(UTC) não localizada na base de dados da REDEMET
2010061807 - Mensagem METAR de 'SBKG' para 18/06/2010 as 07(UTC) não localizada na base de dados da REDEMET
2010061808 - Mensagem METAR de 'SBKG' para 18/06/2010 as 08(UTC) não localizada na base de dados da REDEMET
2010061809 - SBKG 180915Z 00000KT 8000 BKN015 OVC070 21/21 Q1015=
2010061809 - SBKG 180945Z 00000KT 3000 -RA BKN012 SCT020 OVC070 21/21 Q1016=
2010061810 - SBKG 181000Z 00000KT 2500 -RA SCT010 BKN020 OVC070 21/21 Q1016=
2010061811 - SBKG 181100Z 00000KT 6000 SCT015 BKN020 OVC070 23/22 Q1016=
2010061812 - SBKG 181200Z 14002KT 4000 -RA BKN010 SCT020 OVC070 23/22 Q1017=
2010061812 - SBKG 181225Z 16004KT 7000 -RA SCT010 BKN016 OVC070 24/23 Q1017=
2010061813 - SBKG 181300Z 14004KT 5000 -RA SCT012 BKN020 OVC070 23/23 Q1017=
2010061814 - SBKG 181400Z 15008KT 8000 SCT012 SCT020 OVC080 24/23 Q1016=
2010061815 - SBKG 181500Z 11007KT 9999 SCT012 SCT080 25/23 Q1015=
2010061816 - SBKG 181600Z 09006KT 9999 SCT026 FEW028TCU 27/23 Q1014 =
2010061817 - SBKG 181700Z 09010KT 9999 SCT024 FEW026TCU 27/23 Q1013 =
2010061818 - SBKG 181800Z 09008KT 9999 FEW021 SCT028 28/22 Q1013 =
2010061819 - SBKG 181900Z 07006KT 9999 SCT032 SCT080 26/22 Q1013 =
2010061820 - SBKG 182000Z 11009KT 5000 RA SCT018 SCT021 BKN080 24/22 Q1014 =
2010061820 - SBKG 182015Z 10008KT 3000 -RA BR SCT010 BKN018 BKN080 23/23 Q1014 =
2010061821 - SBKG 182100Z 09004KT 4000 -RA BR SCT005 BKN018 BKN080 22/22 Q1014 =
2010061822 - SBKG 182200Z 10006KT 3000 -RA BR SCT005 BKN010 OVC080 22/22 Q1015=
2010061823 - SBKG 182300Z 12006KT 3000 -RA BR SCT005 BKN010 OVC080 22/22 Q1015 =
2010061900 - SBKG 190000Z 09006KT 3000 -RA BR SCT006 BKN010 OVC080 22/22 Q1016 =
2010061901 - SBKG 190100Z 12006KT 3000 -RA BR SCT006 BKN010 OVC080 22/22 Q1016 =
2010061902 - SBKG 190200Z 10004KT 2500 -RA BR BKN010 OVC080 22/22 Q1016 =
2010061903 - SBKG 190300Z 10006KT 2000 BR BKN010 OVC070 21/21 Q1016 =
2010061904 - Mensagem METAR de 'SBKG' para 19/06/2010 as 04(UTC) não localizada na base de dados da REDEMET
2010061905 - Mensagem METAR de 'SBKG' para 19/06/2010 as 05(UTC) não localizada na base de dados da REDEMET
2010061906 - Mensagem METAR de 'SBKG' para 19/06/2010 as 06(UTC) não localizada na base de dados da REDEMET
2010061907 - Mensagem METAR de 'SBKG' para 19/06/2010 as 07(UTC) não localizada na base de dados da REDEMET
2010061908 - Mensagem METAR de 'SBKG' para 19/06/2010 as 08(UTC) não localizada na base de dados da REDEMET
2010061909 - SBKG 190915Z 09006KT 3500 -RA BR SCT005 BKN010 BKN014 21/21 Q1015 =
2010061910 - SBKG 191000Z 10010KT 6000 SCT014 SCT016 21/21 Q1015 =
2010061911 - SBKG 191100Z 10008KT 5000 BR SCT006 BKN018 BKN070 22/22 Q1016 =
2010061912 - SBKG 191200Z 10006KT 7000 SCT012 BKN015 BKN070 23/22 Q1016 =
2010061913 - SBKG 191300Z 12010KT 9000 SCT015 BKN018 BKN090 25/22 Q1016 =
2010061914 - SBKG 191400Z 09008KT 8000 VCSH SCT016 BKN024 FEW027TCU BKN090 26/22 Q1015 =
2010061915 - SBKG 191500Z 12010KT 9999 SCT021 BKN090 27/22 Q1015 =
2010061916 - SBKG 191600Z 12010KT 9999 BKN020 27/23 Q1014=
2010061917 - SBKG 191700Z 12010KT 9999 SCT025 27/23 Q1013=
2010061918 - SBKG 191800Z 10010KT 9999 SCT025 26/23 Q1013=
2010061919 - SBKG 191900Z 10012KT 9999 SCT025 26/22 Q1014=
2010061920 - SBKG 192000Z 10012KT 9999 SCT020 26/22 Q1014=
2010061921 - SBKG 192100Z 10006KT 9999 SCT020 23/21 Q1015=
2010061922 - SBKG 192200Z 10005KT 9999 SCT015 23/21 Q1015=
2010061923 - SBKG 192300Z 10004KT 9999 FEW015 22/21 Q1016=
2010062000 - SBKG 200000Z 10003KT 9999 FEW015 21/20 Q10=
2010062001 - SBKG 200100Z 10003KT 9999 SCT015 21/20 Q1016=
2010062002 - SBKG 200200Z 10004KT 9999 SCT015 SCT018 21/20 Q1016=
2010062003 - SBKG 200300Z 16006KT 9999 SCT015 21/20 Q1015=
2010062004 - Mensagem METAR de 'SBKG' para 20/06/2010 as 04(UTC) não localizada na base de dados da REDEMET
2010062005 - Mensagem METAR de 'SBKG' para 20/06/2010 as 05(UTC) não localizada na base de dados da REDEMET
2010062006 - Mensagem METAR de 'SBKG' para 20/06/2010 as 06(UTC) não localizada na base de dados da REDEMET
2010062007 - Mensagem METAR de 'SBKG' para 20/06/2010 as 07(UTC) não localizada na base de dados da REDEMET
2010062008 - Mensagem METAR de 'SBKG' para 20/06/2010 as 08(UTC) não localizada na base de dados da REDEMET
2010062009 - SBKG 200915Z 12006KT 9999 FEW020 21/20 Q1015 =
2010062010 - SBKG 201000Z 10006KT 9999 FEW020 22/21 Q1015=
2010062011 - SBKG 201100Z 12010KT 9999 SCT025 23/21 Q1016=
2010062012 - SBKG 201200Z 12012KT 9999 SCT020 24/21 Q1016=
2010062013 - SBKG 201300Z 12014KT 9999 SCT025 26/22 Q1016 =
2010062014 - SBKG 201400Z 13010KT 9999 SCT030 27/22 Q1015 =
2010062015 - SBKG 201500Z 14012KT 9999 SCT030 28/22 Q1015=
2010062016 - SBKG 201600Z 12010KT 9999 SCT030 29/20 Q1014=
2010062017 - SBKG 201700Z 15010KT 9999 SCT030 29/20 Q1013=
2010062018 - SBKG 201800Z 13010KT 9999 SCT030 28/20 Q1012=
2010062019 - SBKG 201900Z 10010KT 9999 SCT025 27/20 Q1013=
2010062020 - SBKG 202000Z 10008KT 9999 FEW020 26/20 Q1013=
2010062021 - SBKG 202100Z 12006KT 9999 FEW020 24/20 Q1014=
2010062022 - SBKG 202200Z 13005KT 9999 SCT020 23/20 Q1015=
2010062023 - SBKG 202300Z 13007KT CAVOK 22/21 Q1015=
2010062100 - SBKG 210000Z 14006KT CAVOK 22/21 Q1015=
2010062101 - SBKG 210100Z 15005KT CAVOK 21/21 Q1015=
2010062102 - SBKG 210200Z 08005KT CAVOK 21/20 Q1015=
2010062103 - SBKG 210300Z 00000KT CAVOK 21/20 Q1015=
2010062104 - Mensagem METAR de 'SBKG' para 21/06/2010 as 04(UTC) não localizada na base de dados da REDEMET
2010062105 - Mensagem METAR de 'SBKG' para 21/06/2010 as 05(UTC) não localizada na base de dados da REDEMET
2010062106 - Mensagem METAR de 'SBKG' para 21/06/2010 as 06(UTC) não localizada na base de dados da REDEMET
2010062107 - Mensagem METAR de 'SBKG' para 21/06/2010 as 07(UTC) não localizada na base de dados da REDEMET
2010062108 - Mensagem METAR de 'SBKG' para 21/06/2010 as 08(UTC) não localizada na base de dados da REDEMET
2010062109 - SBKG 210915Z 13003KT 9999 SCT010 SCT015 20/20 Q1015=
2010062110 - SBKG 211000Z 12005KT 9999 SCT010 SCT015 22/20 Q1016=
2010062111 - SBKG 211100Z 12007KT 9999 FEW015 BKN018 23/21 Q1017=
2010062112 - SBKG 211200Z 12010KT 9999 BKN020 24/20 Q1017=
2010062113 - SBKG 211300Z 12010KT 9999 SCT020 27/21 Q1016=
2010062114 - SBKG 211400Z 14010KT 9999 SCT020 28/20 Q1016=
2010062115 - SBKG 211500Z 09010KT 9999 SCT025 28/19 Q1015=
2010062116 - SBKG 211600Z 12011KT 9999 FEW030 29/19 Q1014=
2010062117 - SBKG 211700Z 12012KT 9999 SCT027 29/19 Q1013=
2010062118 - SBKG 211800Z 12011KT 9999 SCT030 28/19 Q1013=
2010062119 - SBKG 211900Z 12005KT 9999 SCT025 28/19 Q1013=
2010062120 - SBKG 212000Z 12008KT 9999 FEW020 26/20 Q1014=
2010062121 - SBKG 212100Z 12005KT 9999 SCT020 24/20 Q1014=
2010062122 - SBKG 212200Z 09010KT CAVOK 22/21 Q1015 =
2010062123 - SBKG 212300Z 10006KT CAVOK 22/21 Q1016 =
2010062200 - SBKG 220000Z 09005KT CAVOK 21/20 Q1016 =
2010062201 - SBKG 220100Z 12004KT CAVOK 21/21 Q1016 =
2010062202 - SBKG 220200Z 12002KT CAVOK 21/21 Q1016 =
2010062203 - SBKG 220300Z 00000KT CAVOK 20/20 Q1015 =
2010062204 - Mensagem METAR de 'SBKG' para 22/06/2010 as 04(UTC) não localizada na base de dados da REDEMET
2010062205 - Mensagem METAR de 'SBKG' para 22/06/2010 as 05(UTC) não localizada na base de dados da REDEMET
2010062206 - Mensagem METAR de 'SBKG' para 22/06/2010 as 06(UTC) não localizada na base de dados da REDEMET
2010062207 - Mensagem METAR de 'SBKG' para 22/06/2010 as 07(UTC) não localizada na base de dados da REDEMET
2010062208 - Mensagem METAR de 'SBKG' para 22/06/2010 as 08(UTC) não localizada na base de dados da REDEMET
2010062209 - SBKG 220915Z 14003KT 8000 FEW006 SCT010 BKN015 20/20 Q1016=
2010062210 - SBKG 221000Z 14004KT 8000 FEW006 SCT010 BKN015 22/21 Q1016=
2010062210 - SBKG 221030Z 13005KT 4000 -RA BR SCT006 BKN010 BKN015 22/22 Q1017=
2010062211 - SBKG 221100Z 14004KT 4000 BR SCT006 BKN010 BKN015 22/21 Q1017=
2010062212 - SBKG 221200Z 10004KT 2500 -RA BR SCT006 BKN010 BKN015 23/23 Q1018=
2010062212 - SBKG 221230Z 18003KT 9999 SCT010 BKN020 BKN090 24/21 Q1017=
2010062213 - SBKG 221300Z 13006KT 9999 SCT020 BKN090 25/22 Q1017=
2010062214 - SBKG 221400Z 12006KT 9999 BKN020 SCT090 28/21 Q1016=
2010062215 - SBKG 221500Z 10005KT 9999 BKN020 28/21 Q1016=
2010062216 - SBKG 221600Z 14007KT 9999 BKN025 27/21 Q1015=
2010062217 - SBKG 221700Z 09008 9999 SCT027 28/22 Q1014=
2010062218 - SBKG 221800Z 12008KT 9999 FEW027 28/22 Q1014=
2010062219 - SBKG 221900Z 10008KT 9999 FEW025 28/22 Q1014=
2010062220 - SBKG 222000Z 10007KT 9999 FEW020 27/21 Q1015=
2010062221 - SBKG 222100Z 12008KT 9999 SCT025 SCT090 25/23 Q1015=
2010062222 - SBKG 222200Z 10006KT 9999 SCT020 24/21 Q1016=
2010062223 - SBKG 222300Z 12006KT 9999 SCT020 24/21 Q1016=
2010062300 - SBKG 230000Z 12006KT 9999 SCT020 23/22 Q1017=
2010062301 - SBKG 230100Z 10006KT 9999 SCT017 23/22 Q1017=
2010062302 - SBKG 230200Z 09004KT 9999 SCT015 23/21 Q1017 =
2010062303 - SBKG 230300Z 10004KT 9999 BKN015 22/21 Q1016=
2010062304 - Mensagem METAR de 'SBKG' para 23/06/2010 as 04(UTC) não localizada na base de dados da REDEMET
2010062305 - Mensagem METAR de 'SBKG' para 23/06/2010 as 05(UTC) não localizada na base de dados da REDEMET
2010062306 - Mensagem METAR de 'SBKG' para 23/06/2010 as 06(UTC) não localizada na base de dados da REDEMET
2010062307 - Mensagem METAR de 'SBKG' para 23/06/2010 as 07(UTC) não localizada na base de dados da REDEMET
2010062308 - Mensagem METAR de 'SBKG' para 23/06/2010 as 08(UTC) não localizada na base de dados da REDEMET
2010062309 - SBKG 230915Z 10005KT 2000 -RA BR SCT004 BKN006 OVC070 22/22 Q1017=
2010062309 - SBKG 230935Z 10005KT 3000 -RA BR SCT005 BKN010 OVC070 22/22 Q1017=
2010062310 - SBKG 231000Z 10008KT 3500 -RA BR SCT006 BKN010 OVC070 22/22 Q1018=
2010062311 - SBKG 231100Z 10012KT 4000 -RA SCT006 BKN010 OVC070 21/21 Q1019=
2010062312 - SBKG 231200Z 10010KT 3000 -RA BR SCT005 BKN008 OVC070 22/22 Q1019=
2010062312 - SBKG 231230Z 09016KT 4000 -RA SCT006 BKN010 OVC070 22/22 Q1019=
2010062313 - SBKG 231300Z 10018KT 4000 -RA SCT010 BKN015 OVC070 22/22 Q1019=
2010062314 - SBKG 231400Z 11013KT 4000 -RA SCT009 BKN015 OVC070 22/22 Q1019=
2010062314 - SBKG 231420Z 14010KT 6000 -RA SCT011 BKN015 OVC070 22/21 Q1018=
2010062315 - SBKG 231500Z 10008KT 9999 -RA SCT011 SCT020 OVC080 24/21 Q1018=
2010062316 - SBKG 231600Z 12010KT 6000 VCSH SCT010 BKN015 BKN080 23/22 Q1017=
2010062317 - SBKG 231700Z 10012KT 8000 VCSH SCT010 BKN015 BKN080 24/22 Q1017 =
2010062318 - SBKG 231800Z 12008KT 9999 BKN020 BKN080 24/22 Q1016=
2010062319 - SBKG 231900Z 09010KT 8000 VCSH BKN020 BKN080 24/21 Q1016 =
2010062320 - SBKG 232000Z 12008KT 9999 SCT020 BKN080 24/21 Q1017=
2010062321 - SBKG 232100Z 13006KT 9999 SCT020 23/21 Q1017=
2010062322 - SBKG 232200Z 10006KT CAVOK 21/20 Q1018 =
2010062323 - SBKG 232300Z 13008KT CAVOK 21/20 Q1018 =
2010062400 - SBKG 240000Z 10005KT CAVOK 21/21 Q1019 =
2010062401 - SBKG 240100Z 09004KT CAVOK 20/20 Q1019 =
2010062402 - SBKG 240200Z 09003KT CAVOK 20/20 Q1019 =
2010062403 - SBKG 240300Z 09005KT CAVOK 19/19 Q1019 =
2010062404 - Mensagem METAR de 'SBKG' para 24/06/2010 as 04(UTC) não localizada na base de dados da REDEMET
2010062405 - Mensagem METAR de 'SBKG' para 24/06/2010 as 05(UTC) não localizada na base de dados da REDEMET
2010062406 - Mensagem METAR de 'SBKG' para 24/06/2010 as 06(UTC) não localizada na base de dados da REDEMET
2010062407 - Mensagem METAR de 'SBKG' para 24/06/2010 as 07(UTC) não localizada na base de dados da REDEMET
2010062408 - Mensagem METAR de 'SBKG' para 24/06/2010 as 08(UTC) não localizada na base de dados da REDEMET
2010062409 - SBKG 240915Z 12006KT 9999 SCT019 20/20 Q1019 =
2010062410 - SBKG 241000Z 10004KT 9999 SCT020 21/20 Q1019=
2010062411 - SBKG 241100Z 12010KT 9999 SCT020 23/20 Q1020=
2010062412 - SBKG 241200Z 13012KT 9999 SCT025 25/19 Q1020=
2010062413 - SBKG 241300Z 14010KT 9999 SCT025 25/19 Q1020=
2010062414 - SBKG 241400Z 12014KT 9999 SCT030 26/19 Q1019=
2010062415 - SBKG 241500Z 13012KT 9999 SCT030 26/19 Q1019=
2010062416 - SBKG 241600Z 15010KT 9999 SCT032 27/17 Q1018 =
2010062417 - SBKG 241700Z 15010KT 9999 SCT037 27/19 Q1018 =
2010062418 - SBKG 241800Z 14008KT 9999 SCT039 27/19 Q1017 =
2010062419 - SBKG 241900Z 10008KT CAVOK 26/18 Q1017=
2010062420 - SBKG 242000Z 13005KT CAVOK 25/18 Q1018 =
2010062421 - SBKG 242100Z 13006KT CAVOK 23/19 Q1018 =
2010062422 - SBKG 242200Z 10005KT CAVOK 22/19 Q1018 =
2010062423 - SBKG 242300Z 10006KT CAVOK 20/19 Q1019=
2010062500 - SBKG 250000Z 15006KT CAVOK 20/19 Q1019=
2010062501 - SBKG 250100Z 15004KT CAVOK 20/19 Q1019=
2010062502 - SBKG 250200Z 13002KT CAVOK 20/19 Q1019=
2010062503 - SBKG 250300Z 15004KT CAVOK 20/19 Q1019=
2010062504 - Mensagem METAR de 'SBKG' para 25/06/2010 as 04(UTC) não localizada na base de dados da REDEMET
2010062505 - Mensagem METAR de 'SBKG' para 25/06/2010 as 05(UTC) não localizada na base de dados da REDEMET
2010062506 - Mensagem METAR de 'SBKG' para 25/06/2010 as 06(UTC) não localizada na base de dados da REDEMET
2010062507 - Mensagem METAR de 'SBKG' para 25/06/2010 as 07(UTC) não localizada na base de dados da REDEMET
2010062508 - Mensagem METAR de 'SBKG' para 25/06/2010 as 08(UTC) não localizada na base de dados da REDEMET
2010062509 - SBKG 250915Z 00000KT 9999 FEW018 19/19 Q1018 =
2010062510 - SBKG 251000Z 13005KT 9999 FEW016 SCT018 20/20 Q1019 =
2010062511 - SBKG 251100Z 10006KT 9999 SCT021 23/21 Q1019 =
2010062512 - SBKG 251200Z 12014KT 9999 BKN021 25/20 Q1020 =
2010062513 - SBKG 251300Z 10015KT 9999 SCT026 26/20 Q1020 =
2010062514 - SBKG 251400Z 12016KT 9999 SCT028 26/20 Q1019 =
2010062515 - SBKG 251500Z 13012KT 9999 SCT032 28/21 Q1018 =
2010062516 - SBKG 251600Z 15010KT 9999 SCT032 29/21 Q1018=
2010062517 - SBKG 251700Z 15015KT 9999 SCT032 29/20 Q1017=
2010062518 - SBKG 251800Z 15014KT 9999 SCT025 28/20 Q1017=
2010062519 - SBKG 251900Z 11010KT 9999 SCT020 26/20 Q1016=
2010062520 - SBKG 252000Z 16010KT 9999 SCT015 BKN020 24/20 Q1017=
2010062521 - SBKG 252100Z 15010KT 9999 SCT015 SCT020 23/20 Q1017=
2010062522 - SBKG 252200Z 14008KT CAVOK 21/20 Q1018=
2010062523 - SBKG 252300Z 15006KT 9999 SCT015 22/21 Q1018 =
2010062500 - SBKG 250000Z 15006KT CAVOK 20/19 Q1019=
2010062501 - SBKG 250100Z 15004KT CAVOK 20/19 Q1019=
2010062502 - SBKG 250200Z 13002KT CAVOK 20/19 Q1019=
2010062503 - SBKG 250300Z 15004KT CAVOK 20/19 Q1019=
2010062504 - Mensagem METAR de 'SBKG' para 25/06/2010 as 04(UTC) não localizada na base de dados da REDEMET
2010062505 - Mensagem METAR de 'SBKG' para 25/06/2010 as 05(UTC) não localizada na base de dados da REDEMET
2010062506 - Mensagem METAR de 'SBKG' para 25/06/2010 as 06(UTC) não localizada na base de dados da REDEMET
2010062507 - Mensagem METAR de 'SBKG' para 25/06/2010 as 07(UTC) não localizada na base de dados da REDEMET
2010062508 - Mensagem METAR de 'SBKG' para 25/06/2010 as 08(UTC) não localizada na base de dados da REDEMET
2010062509 - SBKG 250915Z 00000KT 9999 FEW018 19/19 Q1018 =
2010062510 - SBKG 251000Z 13005KT 9999 FEW016 SCT018 20/20 Q1019 =
2010062511 - SBKG 251100Z 10006KT 9999 SCT021 23/21 Q1019 =
2010062512 - SBKG 251200Z 12014KT 9999 BKN021 25/20 Q1020 =
2010062513 - SBKG 251300Z 10015KT 9999 SCT026 26/20 Q1020 =
2010062514 - SBKG 251400Z 12016KT 9999 SCT028 26/20 Q1019 =
2010062515 - SBKG 251500Z 13012KT 9999 SCT032 28/21 Q1018 =
2010062516 - SBKG 251600Z 15010KT 9999 SCT032 29/21 Q1018=
2010062517 - SBKG 251700Z 15015KT 9999 SCT032 29/20 Q1017=
2010062518 - SBKG 251800Z 15014KT 9999 SCT025 28/20 Q1017=
2010062519 - SBKG 251900Z 11010KT 9999 SCT020 26/20 Q1016=
2010062520 - SBKG 252000Z 16010KT 9999 SCT015 BKN020 24/20 Q1017=
2010062521 - SBKG 252100Z 15010KT 9999 SCT015 SCT020 23/20 Q1017=
2010062522 - SBKG 252200Z 14008KT CAVOK 21/20 Q1018=
2010062523 - SBKG 252300Z 15006KT 9999 SCT015 22/21 Q1018 =
2010062600 - SBKG 260000Z 17003KT 9999 SCT015 21/20 Q1018 =
2010062701 - SBKG 270100Z 10002KT CAVOK 20/20 Q1017 =
2010062702 - SBKG 270200Z 09004KT CAVOK 20/20 Q1017 =
2010062703 - SBKG 270300Z 09003KT 9999 SCT032 BKN100 21/20 Q1017 =
2010062704 - Mensagem METAR de 'SBKG' para 27/06/2010 as 04(UTC) não localizada na base de dados da REDEMET
2010062705 - Mensagem METAR de 'SBKG' para 27/06/2010 as 05(UTC) não localizada na base de dados da REDEMET
2010062706 - Mensagem METAR de 'SBKG' para 27/06/2010 as 06(UTC) não localizada na base de dados da REDEMET
2010062707 - Mensagem METAR de 'SBKG' para 27/06/2010 as 07(UTC) não localizada na base de dados da REDEMET
2010062708 - Mensagem METAR de 'SBKG' para 27/06/2010 as 08(UTC) não localizada na base de dados da REDEMET
2010062709 - SBKG 270915Z 09005KT 5000 BR BKN010 BKN015 21/20 Q1015=
2010062710 - SBKG 271000Z 13005KT 9999 SCT015 BKN018 21/20 Q1016=
2010062711 - SBKG 271100Z 12006KT 9999 FEW015 BKN020 23/20 Q1016=
2010062712 - SBKG 271200Z 10010KT 9999 FEW015 BKN020 25/21 Q1017=
2010062713 - SBKG 271300Z 09010KT 9999 FEW015 BKN020 26/21 Q1017=
2010062714 - SBKG 271400Z 13015KT 9999 SCT015 BKN020 26/20 Q1017=
2010062715 - SBKG 271500Z 12013KT 9999 FEW015 BKN020 26/20 Q1016=
2010062716 - SBKG 271600Z 10014KT 9999 BKN025 28/22 Q1015=
2010062717 - SBKG 271700Z 12013KT 9999 BKN030 28/24 Q1014=
2010062718 - SBKG 271800Z 12010KT 9999 BKN025 28/21 Q1014=
2010062719 - SBKG 271900Z 10008KT 9999 BKN025 27/22 Q1014=
2010062720 - SBKG 272000Z 15008KT 9999 FEW008 BKN025 25/22 Q1014=
2010062721 - SBKG 272100Z 10008KT 9999 SCT018 BKN025 24/22 Q1015=
2010062722 - SBKG 272200Z 12006KT 9999 BKN018 23/22 Q1016=
2010062723 - SBKG 272300Z 12006KT 3000 -RA BR BKN015 22/21 Q1017=
2010062800 - SBKG 280000Z 10004KT 6000 SCT015 22/21 Q1017=
2010062801 - SBKG 280100Z 09004KT 9999 BKN015 22/21 Q1017=
2010062802 - SBKG 280200Z 12004KT 9999 BKN015 22/21 Q1017=
2010062803 - SBKG 280300Z 14006KT 9999 BKN015 22/21 Q1017=
2010062804 - Mensagem METAR de 'SBKG' para 28/06/2010 as 04(UTC) não localizada na base de dados da REDEMET
2010062805 - Mensagem METAR de 'SBKG' para 28/06/2010 as 05(UTC) não localizada na base de dados da REDEMET
2010062806 - Mensagem METAR de 'SBKG' para 28/06/2010 as 06(UTC) não localizada na base de dados da REDEMET
2010062807 - Mensagem METAR de 'SBKG' para 28/06/2010 as 07(UTC) não localizada na base de dados da REDEMET
2010062808 - Mensagem METAR de 'SBKG' para 28/06/2010 as 08(UTC) não localizada na base de dados da REDEMET
2010062809 - SBKG 280915Z 16005KT 2000 -RADZ BKN009 20/20 Q1016=
2010062809 - SBKG 280928Z 15003KT 3500 -RADZ BKN010 20/20 Q1016=
2010062810 - SBKG 281000Z 12008KT 8000 -DZ BKN010 21/21 Q1016=
2010062811 - SBKG 281100Z 15008KT 3000 -RADZ SCT008 BKN011 21/21 Q1017=
2010062812 - SBKG 281200Z 16008KT 4000 -RA BKN010 BKN015 OVC070 22/21 Q1017=
2010062813 - SBKG 281300Z 16010KT 8000 -RA SCT010 BKN015 BKN070 22/22 Q1017=
2010062814 - SBKG 281400Z 14012KT 5000 -RADZ SCT010 BKN015 BKN070 22/21 Q1017=
2010062815 - SBKG 281500Z 15011KT 6000 -RADZ SCT013 BKN020 OVC070 22/21 Q1017=
2010062816 - SBKG 281600Z 13010KT 5000 -RADZ SCT010 BKN018 OVC070 22/21 Q1016 =
2010062816 - SBKG 281625Z 14010KT 3000 -RADZ SCT006 BKN010 OVC070 22/22 Q1016 =
2010062817 - SBKG 281700Z 13008KT 3000 -RADZ SCT006 BKN010 OVC070 22/22 Q1016 =
2010062818 - SBKG 281800Z 15008KT 4000 BR SCT006 BKN013 OVC070 22/22 Q1016 =
2010062818 - SBKG 281830Z 15010KT 5000 BR SCT010 BKN015 OVC070 22/22 Q1016 =
2010062819 - SBKG 281900Z 16008KT 6000 SCT010 BKN015 OVC070 22/21 Q1016 =
2010062820 - SBKG 282000Z 14004KT 9999 SCT015 BKN020 BKN090 22/21 Q1016 =
2010062821 - SBKG 282100Z 12006KT 9999 SCT015 BKN020 BKN090 22/21 Q1016 =
2010062822 - SBKG 282200Z 00000KT 9999 FEW018 SCT070 21/20 Q1017=
2010062823 - SBKG 282300Z 18005KT CAVOK 21/20 Q1017=
2010062900 - SBKG 290000Z 18005KT 9999 BKN017 20/20 Q1018=
2010062901 - SBKG 290100Z 15006KT 9999 SCT016 BKN070 20/20 Q1018=
2010062902 - SBKG 290200Z 14005KT 9999 FEW014 BKN070 20/20 Q1018=
2010062903 - SBKG 290300Z 18005KT CAVOK 20/20 Q1017=
2010062904 - Mensagem METAR de 'SBKG' para 29/06/2010 as 04(UTC) não localizada na base de dados da REDEMET
2010062905 - Mensagem METAR de 'SBKG' para 29/06/2010 as 05(UTC) não localizada na base de dados da REDEMET
2010062906 - Mensagem METAR de 'SBKG' para 29/06/2010 as 06(UTC) não localizada na base de dados da REDEMET
2010062907 - Mensagem METAR de 'SBKG' para 29/06/2010 as 07(UTC) não localizada na base de dados da REDEMET
2010062908 - Mensagem METAR de 'SBKG' para 29/06/2010 as 08(UTC) não localizada na base de dados da REDEMET
2010062909 - SBKG 290915Z 18004KT 8000 SCT015 19/18 Q1016=
2010062910 - SBKG 291000Z 18006KT 9999 FEW020 19/18 Q1017=
2010062911 - SBKG 291100Z 17006KT 9999 SCT020 21/19 Q1017=
2010062912 - SBKG 291200Z 18006KT 9999 SCT025 22/20 Q1018=
2010062913 - SBKG 291300Z 17008KT 9999 SCT025 24/20 Q1018=
2010062914 - SBKG 291400Z 16012KT 9999 FEW030 26/20 Q1017=
2010062915 - SBKG 291500Z 14012KT 9999 FEW030 28/20 Q1017=
2010062916 - SBKG 291600Z 17008KT 9999 SCT032 28/19 Q1016 =
2010062917 - SBKG 291700Z 13008KT 9999 SCT034 SCT090 27/20 Q1015 =
2010062918 - SBKG 291800Z 15005KT 9999 SCT034 27/20 Q1015 =
2010062919 - SBKG 291900Z 13005KT 9999 SCT032 SCT100 26/20 Q1015 =
2010062920 - SBKG 292000Z 12005KT 9999 SCT032 25/22 Q1015 =
2010062921 - SBKG 292100Z 10004KT CAVOK 23/21 Q1016 =
2010062922 - SBKG 292200Z 10004KT CAVOK 23/20 Q1016=
2010062923 - SBKG 292300Z 10004KT CAVOK 22/20 Q1017=
2010063000 - SBKG 300000Z 12005KT CAVOK 21/20 Q1017=
2010063001 - SBKG 300100Z 16008KT CAVOK 21/20 Q1018=
2010063002 - SBKG 300200Z 16006KT CAVOK 21/20 Q1018=
2010063003 - SBKG 300300Z 14003KT CAVOK 20/19 Q1017=
2010063004 - Mensagem METAR de 'SBKG' para 30/06/2010 as 04(UTC) não localizada na base de dados da REDEMET
2010063005 - Mensagem METAR de 'SBKG' para 30/06/2010 as 05(UTC) não localizada na base de dados da REDEMET
2010063006 - Mensagem METAR de 'SBKG' para 30/06/2010 as 06(UTC) não localizada na base de dados da REDEMET
2010063007 - Mensagem METAR de 'SBKG' para 30/06/2010 as 07(UTC) não localizada na base de dados da REDEMET
2010063008 - Mensagem METAR de 'SBKG' para 30/06/2010 as 08(UTC) não localizada na base de dados da REDEMET
2010063009 - SBKG 300915Z 00000KT 9999 SCT015 SCT090 20/19 Q1017 =
2010063010 - SBKG 301000Z 18004KT 9999 SCT018 SCT090 20/19 Q1017 =
2010063011 - SBKG 301100Z 15010KT 9999 BKN018 23/20 Q1018 =
2010063012 - SBKG 301200Z 15008KT 9999 SCT026 SCT100 24/19 Q1018 =
2010063013 - SBKG 301300Z 14012KT 9999 SCT028 SCT100 24/19 Q1018=
2010063014 - SBKG 301400Z 16006KT 9999 SCT032 SCT100 25/19 Q1018 =
2010063015 - SBKG 301500Z 14008KT 9999 SCT032 SCT100 26/20 Q1017 =
2010063016 - SBKG 301600Z 15012KT 9999 SCT032 SCT100 27/20 Q1016=
2010063017 - SBKG 301700Z 12010KT 9999 SCT032 28/20 Q1016=
2010063018 - SBKG 301800Z 12008KT 9999 SCT020 BKN030 28/20 Q1016=
2010063019 - SBKG 301900Z 13008KT 9999 FEW015 BKN025 BKN100 27/20 Q1016=
2010063020 - SBKG 302000Z 11005KT 9999 FEW020 BKN100 26/21 Q1016=
2010063021 - SBKG 302100Z 12005KT 9999 FEW015 SCT020 24/20 Q1017=
2010063022 - SBKG 302200Z 10004KT CAVOK 22/20 Q1017=
2010063023 - SBKG 302300Z 10004KT CAVOK 21/20 Q1018=