2012060100 - Mensagem METAR de 'SBKG' para 01/06/2012 as 00(UTC) não localizada na base de dados da REDEMET
2012060101 - Mensagem METAR de 'SBKG' para 01/06/2012 as 01(UTC) não localizada na base de dados da REDEMET
2012060102 - Mensagem METAR de 'SBKG' para 01/06/2012 as 02(UTC) não localizada na base de dados da REDEMET
2012060103 - Mensagem METAR de 'SBKG' para 01/06/2012 as 03(UTC) não localizada na base de dados da REDEMET
2012060103 - SPECI SBKG 010315Z 11006KT 9999 FEW015 21/21 Q1018=
2012060104 - METAR SBKG 010400Z 10005KT 9999 BKN010 21/21 Q1017=
2012060105 - METAR SBKG 010500Z 10004KT 9999 SCT010 21/21 Q1017=
2012060105 - SPECI SBKG 010539Z 11003KT 0800 FG SCT001 OVC007 20/20 Q1017=
2012060106 - METAR SBKG 010600Z 12003KT 0700 FG BKN001 OVC007 20/20 Q1017=
2012060106 - SPECI SBKG 010626Z 11003KT 3000 BR SCT004 BKN010 20/20 Q1017=
2012060107 - METAR SBKG 010700Z 11003KT 8000 FEW005 SCT010 20/20 Q1017=
2012060108 - METAR SBKG 010800Z 11006KT 9999 SCT010 21/21 Q1017=
2012060109 - METAR SBKG 010900Z 11006KT 9999 SCT010 BKN015 21/21 Q1018=
2012060110 - METAR SBKG 011000Z 11006KT 9999 SCT008 SCT012 21/21 Q1019=
2012060111 - METAR SBKG 011100Z 11010KT 9999 SCT013 SCT020 23/21 Q1019=
2012060112 - METAR SBKG 011200Z 13009KT 9999 FEW017 SCT018 24/19 Q1020=
2012060113 - METAR SBKG 011300Z 12010KT 9999 SCT030 28/19 Q1020=
2012060114 - METAR SBKG 011400Z 11010KT 9999 SCT032 29/19 Q1019=
2012060115 - METAR SBKG 011500Z 12010KT CAVOK 29/18 Q1018=
2012060116 - METAR SBKG 011600Z 13011KT 9999 SCT040 28/18 Q1017=
2012060117 - METAR SBKG 011700Z 11008KT 9999 SCT040 30/18 Q1016=
2012060118 - METAR SBKG 011800Z 12007KT 9999 FEW040 29/18 Q1016=
2012060119 - METAR SBKG 011900Z 11010KT 9999 FEW030 28/17 Q1016=
2012060120 - METAR SBKG 012000Z 12008KT CAVOK 27/18 Q1016=
2012060121 - METAR SBKG 012100Z 11007KT CAVOK 25/19 Q1017=
2012060122 - Mensagem METAR de 'SBKG' para 01/06/2012 as 22(UTC) não localizada na base de dados da REDEMET
2012060123 - Mensagem METAR de 'SBKG' para 01/06/2012 as 23(UTC) não localizada na base de dados da REDEMET
2012060200 - Mensagem METAR de 'SBKG' para 02/06/2012 as 00(UTC) não localizada na base de dados da REDEMET
2012060201 - Mensagem METAR de 'SBKG' para 02/06/2012 as 01(UTC) não localizada na base de dados da REDEMET
2012060202 - Mensagem METAR de 'SBKG' para 02/06/2012 as 02(UTC) não localizada na base de dados da REDEMET
2012060203 - Mensagem METAR de 'SBKG' para 02/06/2012 as 03(UTC) não localizada na base de dados da REDEMET
2012060203 - SPECI SBKG 020315Z 11004KT 9999 FEW005 21/21 Q1018=
2012060204 - METAR SBKG 020400Z 11005KT 9999 SCT016 21/21 Q1018=
2012060205 - METAR SBKG 020500Z 11004KT 9999 BKN016 21/21 Q1017=
2012060206 - METAR SBKG 020600Z 12005KT 9999 BKN007 SCT015 21/21 Q1017=
2012060206 - SPECI SBKG 020640Z 13006KT 8000 BKN010 BKN080 21/21 Q1017=
2012060207 - METAR SBKG 020700Z 12006KT 8000 BKN010 BKN080 21/21 Q1017=
2012060208 - METAR SBKG 020800Z 12005KT 9999 4000SE VCFG SCT008 BKN010 BKN080 21/21 Q1017=
2012060209 - METAR SBKG 020900Z 11005KT 9999 SCT018 SCT020 21/20 Q1018=
2012060210 - METAR SBKG 021000Z 12007KT 9999 BKN015 21/21 Q1018=
2012060211 - METAR SBKG 021100Z 12010KT 9999 BKN018 24/20 Q1019=
2012060212 - METAR SBKG 021200Z 12012KT 9999 SCT020 25/18 Q1019=
2012060213 - METAR SBKG 021300Z 13014KT 9999 SCT030 27/17 Q1019=
2012060214 - METAR SBKG 021400Z 12012KT 9999 FEW030 27/16 Q1018=
2012060215 - METAR SBKG 021500Z 13010KT 9999 SCT040 SCT080 28/17 Q1017=
2012060216 - METAR SBKG 021600Z 13012KT 9999 SCT030 SCT100 28/15 Q1016=
2012060217 - METAR SBKG 021700Z 12008KT 9999 SCT030 29/15 Q1016=
2012060218 - METAR COR SBKG 021800Z 12010KT 9999 FEW030 29/15 Q1015=
2012060219 - METAR SBKG 021900Z 11010KT 9999 FEW030 28/16 Q1016=
2012060220 - METAR SBKG 022000Z 11007KT CAVOK 26/16 Q1016=
2012060221 - METAR SBKG 022100Z 10008KT CAVOK 24/18 Q1017=
2012060222 - Mensagem METAR de 'SBKG' para 02/06/2012 as 22(UTC) não localizada na base de dados da REDEMET
2012060223 - Mensagem METAR de 'SBKG' para 02/06/2012 as 23(UTC) não localizada na base de dados da REDEMET
2012060300 - METAR SBKG 030015Z 08006KT CAVOK 21/19 Q1019=
2012060300 - SPECI SBKG 030015Z 08006KT CAVOK 21/19 Q1019=
2012060301 - Mensagem METAR de 'SBKG' para 03/06/2012 as 01(UTC) não localizada na base de dados da REDEMET
2012060302 - METAR SBKG 030200Z 09005KT CAVOK 20/19 Q1019=
2012060303 - METAR SBKG 030300Z 10003KT CAVOK 20/19 Q1018=
2012060304 - METAR SBKG 030400Z 11005KT CAVOK 20/19 Q1017=
2012060305 - METAR SBKG 030500Z 09002KT 9000 NSC 19/19 Q1017=
2012060306 - METAR SBKG 030600Z 11004KT CAVOK 20/19 Q1017=
2012060307 - METAR SBKG 030700Z 10002KT CAVOK 19/19 Q1017=
2012060308 - METAR SBKG 030800Z 11004KT CAVOK 20/19 Q1017=
2012060309 - METAR SBKG 030900Z 12004KT 9999 SCT018 20/19 Q1017=
2012060310 - METAR SBKG 031000Z 10005KT 9999 SCT022 22/20 Q1018=
2012060311 - METAR SBKG 031100Z 11010KT 9999 SCT030 24/21 Q1019=
2012060312 - METAR SBKG 031200Z 09009KT 9999 SCT030 26/19 Q1019=
2012060313 - METAR SBKG 031300Z 12007KT 9999 SCT030 27/18 Q1019=
2012060314 - METAR SBKG 031400Z 14007KT 9999 SCT030 28/18 Q1018=
2012060315 - METAR SBKG 031500Z 10011KT 9999 SCT030 29/18 Q1017=
2012060316 - METAR SBKG 031600Z 10010KT 9999 SCT040 29/18 Q1016=
2012060317 - METAR SBKG 031700Z 10010KT 9999 SCT046 30/17 Q1015=
2012060318 - METAR SBKG 031800Z 08010KT CAVOK 29/18 Q1015=
2012060319 - METAR SBKG 031900Z 12011KT CAVOK 27/19 Q1015=
2012060320 - METAR SBKG 032000Z 08008KT CAVOK 25/19 Q1015=
2012060321 - METAR SBKG 032100Z 09008KT 9999 SCT032 24/19 Q1016=
2012060322 - METAR SBKG 032200Z 11009KT 9999 SCT015 BKN020 23/20 Q1017=
2012060323 - Mensagem METAR de 'SBKG' para 03/06/2012 as 23(UTC) não localizada na base de dados da REDEMET
2012060400 - Mensagem METAR de 'SBKG' para 04/06/2012 as 00(UTC) não localizada na base de dados da REDEMET
2012060401 - Mensagem METAR de 'SBKG' para 04/06/2012 as 01(UTC) não localizada na base de dados da REDEMET
2012060402 - Mensagem METAR de 'SBKG' para 04/06/2012 as 02(UTC) não localizada na base de dados da REDEMET
2012060403 - Mensagem METAR de 'SBKG' para 04/06/2012 as 03(UTC) não localizada na base de dados da REDEMET
2012060403 - SPECI SBKG 040315Z 09003KT 9999 SCT009 SCT019 BKN070 21/20 Q1017=
2012060404 - METAR SBKG 040400Z 12003KT 9999 SCT014 SCT019 BKN070 21/20 Q1017=
2012060405 - METAR SBKG 040500Z 10003KT 9999 BKN013 BKN070 21/20 Q1017=
2012060406 - METAR SBKG 040600Z 11004KT 9999 -RA BKN012 BKN080 21/20 Q1016=
2012060407 - METAR SBKG 040700Z 08002KT 9999 BKN011 BKN070 20/20 Q1017=
2012060408 - METAR SBKG 040800Z 11004KT 9999 -RA FEW004 BKN010 BKN070 20/20 Q1017=
2012060409 - METAR SBKG 040900Z 12003KT 9000 BKN012 BKN080 20/20 Q1018=
2012060410 - METAR SBKG 041000Z 07004KT 5000 BR SCT010 BKN015 21/21 Q1018=
2012060411 - METAR SBKG 041100Z 08003KT 8000 SCT015 BKN018 21/20 Q1019=
2012060412 - METAR SBKG 041200Z 13005KT 9999 BKN020 24/21 Q1020=
2012060413 - METAR SBKG 041300Z 11006KT 9999 BKN025 BKN090 26/20 Q1019=
2012060414 - METAR SBKG 041400Z 13008KT 9999 SCT026 27/19 Q1019=
2012060415 - METAR SBKG 041500Z 10008KT 9999 SCT034 29/19 Q1018=
2012060416 - METAR SBKG 041600Z 12009KT 9999 SCT034 28/18 Q1017=
2012060417 - METAR SBKG 041700Z 12006KT 9999 SCT040 29/18 Q1016=
2012060418 - METAR SBKG 041800Z 11008KT 9999 FEW040 29/17 Q1015=
2012060419 - METAR SBKG 041900Z 09008KT CAVOK 29/17 Q1015=
2012060420 - METAR SBKG 042000Z 12007KT CAVOK 26/18 Q1016=
2012060421 - METAR SBKG 042100Z 10008KT CAVOK 24/19 Q1016=
2012060422 - Mensagem METAR de 'SBKG' para 04/06/2012 as 22(UTC) não localizada na base de dados da REDEMET
2012060423 - Mensagem METAR de 'SBKG' para 04/06/2012 as 23(UTC) não localizada na base de dados da REDEMET
2012060500 - Mensagem METAR de 'SBKG' para 05/06/2012 as 00(UTC) não localizada na base de dados da REDEMET
2012060501 - Mensagem METAR de 'SBKG' para 05/06/2012 as 01(UTC) não localizada na base de dados da REDEMET
2012060502 - Mensagem METAR de 'SBKG' para 05/06/2012 as 02(UTC) não localizada na base de dados da REDEMET
2012060503 - Mensagem METAR de 'SBKG' para 05/06/2012 as 03(UTC) não localizada na base de dados da REDEMET
2012060503 - SPECI SBKG 050315Z 06003KT 0500 FG VV002 21/21 Q1018=
2012060504 - METAR SBKG 050400Z 08006KT 5000 BR FEW006 BKN090 21/21 Q1017=
2012060505 - METAR SBKG 050500Z 10004KT 9000 FEW007 SCT024 BKN080 21/21 Q1017=
2012060506 - METAR SBKG 050600Z 10002KT 9000 FEW015 SCT080 20/20 Q1017=
2012060507 - METAR SBKG 050700Z 14002KT CAVOK 20/20 Q1017=
2012060508 - METAR SBKG 050800Z 00000KT 9999 FEW023 19/19 Q1017=
2012060509 - METAR SBKG 050900Z 14003KT 9999 SCT016 20/20 Q1018=
2012060510 - METAR SBKG 051000Z 12003KT 9999 SCT015 BKN018 21/21 Q1018=
2012060511 - METAR SBKG 051100Z 12007KT 9999 FEW018 SCT020 23/20 Q1019=
2012060512 - METAR COR SBKG 051200Z 16009KT 9999 SCT020 26/20 Q1020=
2012060513 - METAR SBKG 051300Z 16011KT 9999 BKN025 27/19 Q1019=
2012060514 - METAR SBKG 051400Z 14011KT 9999 SCT025 28/17 Q1019=
2012060515 - METAR SBKG 051500Z 14010KT 9999 SCT040 29/18 Q1018=
2012060516 - METAR SBKG 051600Z 11009KT 9999 SCT040 29/17 Q1017=
2012060517 - METAR SBKG 051700Z 11009KT 9999 SCT040 30/17 Q1016=
2012060518 - METAR SBKG 051800Z 12009KT 9999 FEW040 30/17 Q1016=
2012060519 - METAR SBKG 051900Z 11010KT 9999 FEW040 28/19 Q1016=
2012060520 - METAR SBKG 052000Z 11007KT 9999 FEW030 26/18 Q1017=
2012060521 - METAR SBKG 052100Z 12006KT CAVOK 24/19 Q1017=
2012060522 - METAR SBKG 052200Z 11006KT CAVOK 23/19 Q1018=
2012060523 - METAR SBKG 052300Z 11006KT CAVOK 22/18 Q1019=
2012060600 - Mensagem METAR de 'SBKG' para 06/06/2012 as 00(UTC) não localizada na base de dados da REDEMET
2012060601 - Mensagem METAR de 'SBKG' para 06/06/2012 as 01(UTC) não localizada na base de dados da REDEMET
2012060602 - Mensagem METAR de 'SBKG' para 06/06/2012 as 02(UTC) não localizada na base de dados da REDEMET
2012060603 - Mensagem METAR de 'SBKG' para 06/06/2012 as 03(UTC) não localizada na base de dados da REDEMET
2012060603 - SPECI SBKG 060315Z 10002KT CAVOK 19/18 Q1018=
2012060604 - METAR SBKG 060400Z 12002KT CAVOK 19/18 Q1018=
2012060605 - METAR SBKG 060500Z 13001KT CAVOK 19/18 Q1018=
2012060606 - METAR SBKG 060600Z 08001KT CAVOK 19/18 Q1017=
2012060607 - METAR SBKG 060700Z 17002KT CAVOK 19/18 Q1017=
2012060608 - METAR SBKG 060800Z 19001KT CAVOK 18/18 Q1017=
2012060609 - METAR SBKG 060900Z 28001KT 9999 SCT015 18/18 Q1017=
2012060610 - METAR SBKG 061000Z 26003KT 9999 FEW018 21/19 Q1018=
2012060611 - METAR SBKG 061100Z 19005KT 9999 FEW015 24/19 Q1019=
2012060612 - METAR SBKG 061200Z 17008KT 9999 BKN019 26/19 Q1019=
2012060613 - METAR SBKG 061300Z 17008KT 9999 BKN025 26/19 Q1019=
2012060614 - METAR SBKG 061400Z 15010KT 9999 SCT029 28/19 Q1018=
2012060615 - METAR SBKG 061500Z 14010KT 9999 BKN030 28/19 Q1017=
2012060616 - METAR SBKG 061600Z 12008KT 9999 SCT040 29/19 Q1016=
2012060617 - METAR SBKG 061700Z 12009KT 9999 SCT040 BKN070 28/19 Q1016=
2012060618 - METAR SBKG 061800Z 12009KT 9999 BKN040 SCT070 28/19 Q1016=
2012060619 - METAR SBKG 061900Z 10011KT 9999 SCT030 28/20 Q1016=
2012060620 - METAR SBKG 062000Z 12011KT 9999 SCT025 BKN090 25/20 Q1017=
2012060621 - METAR SBKG 062100Z 12010KT 9999 SCT020 BKN090 24/20 Q1017=
2012060622 - Mensagem METAR de 'SBKG' para 06/06/2012 as 22(UTC) não localizada na base de dados da REDEMET
2012060623 - Mensagem METAR de 'SBKG' para 06/06/2012 as 23(UTC) não localizada na base de dados da REDEMET
2012060700 - Mensagem METAR de 'SBKG' para 07/06/2012 as 00(UTC) não localizada na base de dados da REDEMET
2012060701 - Mensagem METAR de 'SBKG' para 07/06/2012 as 01(UTC) não localizada na base de dados da REDEMET
2012060702 - Mensagem METAR de 'SBKG' para 07/06/2012 as 02(UTC) não localizada na base de dados da REDEMET
2012060703 - Mensagem METAR de 'SBKG' para 07/06/2012 as 03(UTC) não localizada na base de dados da REDEMET
2012060703 - SPECI SBKG 070315Z 11003KT 9999 BKN018 BKN100 21/19 Q1019=
2012060704 - METAR SBKG 070400Z 11003KT 9999 BKN016 SCT020 BKN100 21/19 Q1019=
2012060705 - METAR SBKG 070500Z 15003KT 9999 SCT016 SCT018 BKN080 20/19 Q1018=
2012060706 - METAR SBKG 070600Z 16005KT 9999 BKN018 OVC080 21/19 Q1017=
2012060707 - METAR SBKG 070700Z 18003KT 9999 SCT018 OVC080 21/19 Q1017=
2012060708 - METAR SBKG 070800Z 12003KT CAVOK 20/19 Q1017=
2012060709 - METAR SBKG 070900Z 16003KT 6000 BKN015 BKN070 20/20 Q1017=
2012060710 - METAR SBKG 071000Z 15004KT 5000 BR SCT015 BKN018 21/20 Q1018=
2012060711 - METAR SBKG 071100Z 15006KT 6000 SCT015 BKN018 22/21 Q1018=
2012060712 - METAR SBKG 071200Z 12011KT 9999 BKN020 24/20 Q1018=
2012060713 - METAR SBKG 071300Z 12013KT 9999 BKN020 26/19 Q1018=
2012060714 - METAR SBKG 071400Z 10008KT 9999 BKN020 BKN090 26/20 Q1017=
2012060715 - METAR SBKG 071500Z 10007KT 9999 BKN025 BKN090 27/19 Q1017=
2012060716 - METAR SBKG 071600Z 10009KT 9999 SCT026 BKN090 28/19 Q1015=
2012060717 - METAR SBKG 071700Z 12010KT 9999 SCT040 BKN090 29/18 Q1015=
2012060718 - METAR SBKG 071800Z 11011KT 9999 SCT030 SCT090 27/19 Q1015=
2012060719 - METAR SBKG 071900Z 08010KT 9999 SCT028 SCT090 26/19 Q1015=
2012060720 - METAR SBKG 072000Z 10009KT 9999 SCT028 BKN090 25/19 Q1015=
2012060721 - METAR SBKG 072100Z 10008KT 9999 SCT030 BKN090 24/20 Q1016=
2012060722 - Mensagem METAR de 'SBKG' para 07/06/2012 as 22(UTC) não localizada na base de dados da REDEMET
2012060723 - Mensagem METAR de 'SBKG' para 07/06/2012 as 23(UTC) não localizada na base de dados da REDEMET
2012060800 - Mensagem METAR de 'SBKG' para 08/06/2012 as 00(UTC) não localizada na base de dados da REDEMET
2012060801 - Mensagem METAR de 'SBKG' para 08/06/2012 as 01(UTC) não localizada na base de dados da REDEMET
2012060802 - Mensagem METAR de 'SBKG' para 08/06/2012 as 02(UTC) não localizada na base de dados da REDEMET
2012060803 - Mensagem METAR de 'SBKG' para 08/06/2012 as 03(UTC) não localizada na base de dados da REDEMET
2012060803 - SPECI SBKG 080315Z 12005KT CAVOK 20/18 Q1017=
2012060804 - METAR SBKG 080400Z 12005KT CAVOK 20/18 Q1016=
2012060805 - METAR SBKG 080500Z 11003KT CAVOK 20/18 Q1016=
2012060806 - METAR SBKG 080600Z 12004KT CAVOK 20/18 Q1016=
2012060807 - METAR SBKG 080700Z 14003KT 9999 FEW018 20/19 Q1016=
2012060808 - METAR SBKG 080800Z 11003KT 9999 SCT016 20/19 Q1016=
2012060809 - METAR SBKG 080900Z 13002KT 9999 SCT014 20/19 Q1016=
2012060810 - METAR SBKG 081000Z 12006KT 9999 SCT020 22/19 Q1017=
2012060811 - METAR SBKG 081100Z 15007KT 9999 BKN025 25/20 Q1018=
2012060812 - METAR SBKG 081200Z 15011KT 9999 BKN025 25/19 Q1018=
2012060813 - METAR SBKG 081300Z 14010KT 9999 BKN020 BKN090 25/19 Q1018=
2012060814 - METAR SBKG 081400Z 12008KT 9999 BKN025 BKN090 27/19 Q1017=
2012060815 - METAR SBKG 081500Z 13010KT 9999 SCT030 27/20 Q1016=
2012060816 - METAR SBKG 081600Z 14008KT 9999 SCT025 28/19 Q1015=
2012060817 - METAR SBKG 081700Z 12010KT 9999 SCT025 28/19 Q1014=
2012060818 - METAR SBKG 081800Z 13010KT 9999 SCT025 28/19 Q1014=
2012060819 - METAR SBKG 081900Z 12011KT 9999 FEW020 BKN025 27/19 Q1014=
2012060820 - METAR SBKG 082000Z 15014KT 9999 SCT015 BKN020 25/20 Q1015=
2012060821 - METAR SBKG 082100Z 13007KT 9999 SCT015 23/19 Q1015=
2012060822 - Mensagem METAR de 'SBKG' para 08/06/2012 as 22(UTC) não localizada na base de dados da REDEMET
2012060823 - Mensagem METAR de 'SBKG' para 08/06/2012 as 23(UTC) não localizada na base de dados da REDEMET
2012060900 - Mensagem METAR de 'SBKG' para 09/06/2012 as 00(UTC) não localizada na base de dados da REDEMET
2012060901 - Mensagem METAR de 'SBKG' para 09/06/2012 as 01(UTC) não localizada na base de dados da REDEMET
2012060902 - Mensagem METAR de 'SBKG' para 09/06/2012 as 02(UTC) não localizada na base de dados da REDEMET
2012060903 - Mensagem METAR de 'SBKG' para 09/06/2012 as 03(UTC) não localizada na base de dados da REDEMET
2012060903 - SPECI SBKG 090315Z 10003KT 9999 SCT015 21/20 Q1017=
2012060904 - METAR SBKG 090400Z 14005KT 9999 SCT015 22/20 Q1016=
2012060905 - METAR SBKG 090500Z 14004KT 9999 BKN015 22/20 Q1016=
2012060906 - METAR SBKG 090600Z 15005KT 9999 BKN015 21/19 Q1015=
2012060907 - METAR SBKG 090700Z 12004KT 9999 BKN015 21/20 Q1015=
2012060908 - METAR SBKG 090800Z 14004KT 9999 SCT015 20/19 Q1016=
2012060909 - METAR SBKG 090900Z 18003KT 9999 SCT018 20/19 Q1016=
2012060910 - METAR SBKG 091000Z 16003KT 9999 SCT014 BKN018 21/20 Q1017=
2012060911 - METAR SBKG 091100Z 16008KT 9999 SCT014 BKN020 25/19 Q1017=
2012060912 - METAR SBKG 091200Z 13009KT 9999 FEW019 BKN025 26/19 Q1017=
2012060913 - METAR SBKG 091300Z 11013KT 9999 SCT022 26/18 Q1017=
2012060914 - METAR SBKG 091400Z 12009KT 9999 SCT035 SCT080 28/17 Q1016=
2012060915 - METAR SBKG 091500Z 15010KT 9999 SCT038 SCT080 29/17 Q1016=
2012060916 - METAR SBKG 091600Z 12008KT 9999 SCT040 29/17 Q1015=
2012060917 - METAR SBKG 091700Z 14009KT 9999 BKN048 29/16 Q1014=
2012060918 - METAR SBKG 091800Z 13009KT CAVOK 30/17 Q1014=
2012060919 - METAR SBKG 091900Z 10010KT 9999 SCT046 28/18 Q1014=
2012060920 - METAR SBKG 092000Z 12009KT CAVOK 26/18 Q1015=
2012060921 - METAR SBKG 092100Z 10009KT 9999 BKN032 25/19 Q1015=
2012060922 - Mensagem METAR de 'SBKG' para 09/06/2012 as 22(UTC) não localizada na base de dados da REDEMET
2012060923 - Mensagem METAR de 'SBKG' para 09/06/2012 as 23(UTC) não localizada na base de dados da REDEMET
2012061000 - Mensagem METAR de 'SBKG' para 10/06/2012 as 00(UTC) não localizada na base de dados da REDEMET
2012061001 - Mensagem METAR de 'SBKG' para 10/06/2012 as 01(UTC) não localizada na base de dados da REDEMET
2012061002 - Mensagem METAR de 'SBKG' para 10/06/2012 as 02(UTC) não localizada na base de dados da REDEMET
2012061003 - Mensagem METAR de 'SBKG' para 10/06/2012 as 03(UTC) não localizada na base de dados da REDEMET
2012061003 - SPECI SBKG 100315Z 10005KT CAVOK 21/20 Q1017=
2012061004 - METAR SBKG 100400Z 11005KT 9999 SCT022 21/19 Q1016=
2012061005 - METAR SBKG 100500Z 12002KT 9999 SCT017 21/19 Q1016=
2012061006 - METAR SBKG 100600Z 13006KT 9999 FEW016 20/19 Q1015=
2012061007 - METAR SBKG 100700Z 13004KT 9999 FEW015 20/18 Q1015=
2012061008 - METAR SBKG 100800Z 12003KT 9999 FEW013 20/18 Q1016=
2012061009 - METAR SBKG 100900Z 12003KT CAVOK 20/19 Q1016=
2012061010 - METAR SBKG 101000 101000z 18006KT CAVOK 23/19 Q1017=
2012061011 - METAR SBKG 101100 101100z 16008KT 9999 SCT020 25/20 Q1017=
2012061012 - METAR SBKG 101200Z 16010KT 9999 SCT020 26/18 Q1017=
2012061013 - METAR SBKG 101300Z 15009KT 9999 SCT025 28/18 Q1017=
2012061014 - METAR SBKG 101400Z 12008KT 9999 BKN040 28/16 Q1017=
2012061015 - METAR SBKG 101500Z 15010KT 9999 BKN040 29/16 Q1016=
2012061016 - METAR SBKG 101600Z 16009KT CAVOK 30/16 Q1015=
2012061017 - METAR SBKG 101700Z 13011KT 9999 SCT040 29/16 Q1015=
2012061018 - METAR SBKG 101800Z 13009KT 9999 SCT040 29/15 Q1014=
2012061019 - METAR SBKG 101900Z 11009KT 9999 FEW040 29/15 Q1014=
2012061020 - METAR SBKG 102000Z 13009KT 9999 FEW040 26/17 Q1015=
2012061021 - METAR SBKG 102100Z 11007KT CAVOK 24/18 Q1016=
2012061022 - METAR SBKG 102200Z 11008KT CAVOK 24/18 Q1016=
2012061023 - METAR SBKG 102300Z 09006KT 9999 FEW030 23/19 Q1017=
2012061023 - SPECI SBKG 102338Z 10005KT CAVOK 22/19 Q1017=
2012061100 - Mensagem METAR de 'SBKG' para 11/06/2012 as 00(UTC) não localizada na base de dados da REDEMET
2012061101 - Mensagem METAR de 'SBKG' para 11/06/2012 as 01(UTC) não localizada na base de dados da REDEMET
2012061102 - Mensagem METAR de 'SBKG' para 11/06/2012 as 02(UTC) não localizada na base de dados da REDEMET
2012061103 - Mensagem METAR de 'SBKG' para 11/06/2012 as 03(UTC) não localizada na base de dados da REDEMET
2012061103 - SPECI SBKG 110315Z 15008KT 9999 FEW015 SCT020 22/19 Q1017=
2012061104 - METAR SBKG 110400Z 11006KT 9999 FEW015 SCT020 21/19 Q1017=
2012061105 - METAR SBKG 110500Z 15008KT 9999 FEW015 20/18 Q1017=
2012061106 - METAR SBKG 110600Z 15004KT CAVOK 20/18 Q1016=
2012061107 - METAR SBKG 110700Z 13003KT CAVOK 19/18 Q1016=
2012061108 - METAR SBKG 110800Z 00000KT CAVOK 18/18 Q1017=
2012061109 - METAR SBKG 110900Z 05001KT 9999 FEW015 18/18 Q1017=
2012061110 - METAR SBKG 111000Z 19003KT 9999 FEW018 22/19 Q1018=
2012061111 - METAR SBKG 111100Z 17006KT 9999 FEW018 25/19 Q1018=
2012061112 - METAR SBKG 111200Z 15008KT 9999 BKN020 26/18 Q1018=
2012061113 - METAR SBKG 111300Z 13009KT 9999 SCT028 BKN080 27/18 Q1018=
2012061114 - METAR SBKG 111400Z 11008KT 9999 BKN030 27/18 Q1017=
2012061115 - METAR SBKG 111500Z 12010KT 9999 BKN031 28/18 Q1016=
2012061116 - METAR SBKG 111600Z 11009KT 9999 BKN030 27/19 Q1015=
2012061116 - SPECI SBKG 111630Z 15014KT 4000 -RA BKN030 24/20 Q1015=
2012061117 - METAR SBKG 111700Z 11012KT 9999 BKN013 BKN030 22/20 Q1016=
2012061118 - METAR SBKG 111800Z 12011KT 5000 -RA BKN014 BKN027 22/21 Q1015=
2012061119 - METAR SBKG 111900Z 09008KT 4000 -RA BKN013 SCT027 OVC070 22/21 Q1016=
2012061120 - METAR SBKG 112000Z 08005KT 9999 VCSH BKN014 SCT020 OVC070 21/21 Q1016=
2012061121 - METAR SBKG 112100Z 09005KT 9999 SCT013 SCT020 OVC070 21/21 Q1016=
2012061122 - Mensagem METAR de 'SBKG' para 11/06/2012 as 22(UTC) não localizada na base de dados da REDEMET
2012061123 - Mensagem METAR de 'SBKG' para 11/06/2012 as 23(UTC) não localizada na base de dados da REDEMET
2012061200 - Mensagem METAR de 'SBKG' para 12/06/2012 as 00(UTC) não localizada na base de dados da REDEMET
2012061201 - Mensagem METAR de 'SBKG' para 12/06/2012 as 01(UTC) não localizada na base de dados da REDEMET
2012061202 - Mensagem METAR de 'SBKG' para 12/06/2012 as 02(UTC) não localizada na base de dados da REDEMET
2012061203 - Mensagem METAR de 'SBKG' para 12/06/2012 as 03(UTC) não localizada na base de dados da REDEMET
2012061203 - SPECI SBKG 120315Z 11003KT 5000 BR BKN008 20/20 Q1017=
2012061203 - SPECI SBKG 120315Z 11003KT 5000 BR BKN008 20/20 Q1016=
2012061204 - METAR SBKG 120400Z 11002KT 4500 BR SCT005 BKN010 20/20 Q1016=
2012061205 - METAR SBKG 120500Z 13006KT 3000 -DZ BR SCT005 BKN010 20/20 Q1016=
2012061206 - METAR SBKG 120600Z 11005KT 4000 -RA BR BKN010 BKN012 OVC070 20/20 Q1016=
2012061206 - SPECI SBKG 120643Z 10004KT 7000 FEW005 SCT012 20/20 Q1016=
2012061207 - METAR SBKG 120700Z 09004KT 5000 VCSH BR FEW005 BKN012 BKN070 20/20 Q1016=
2012061208 - METAR SBKG 120800Z 10005KT 7000 FEW012 BKN090 20/20 Q1016=
2012061209 - METAR SBKG 120900Z 12003KT 8000 VCSH SCT010 BKN015 BKN070 20/20 Q1017=
2012061210 - METAR SBKG 121000Z 11005KT 9999 SCT014 22/21 Q1017=
2012061211 - METAR SBKG 121100Z 11007KT 9999 BKN015 24/21 Q1018=
2012061212 - METAR COR SBKG 121200Z 12009KT 9999 BKN020 24/19 Q1018=
2012061213 - METAR SBKG 121300Z 11009KT 9999 SCT025 28/19 Q1018=
2012061214 - METAR SBKG 121400Z 13012KT 9999 SCT030 28/18 Q1017=
2012061215 - METAR SBKG 121500Z 11009KT 9999 SCT040 28/17 Q1016=
2012061216 - METAR SBKG 121600Z 10013KT 9999 SCT030 29/18 Q1015=
2012061217 - METAR SBKG 121700Z 07011KT 9999 SCT040 29/18 Q1015=
2012061218 - METAR SBKG 121800Z 10010KT 9999 SCT040 29/17 Q1014=
2012061219 - METAR SBKG 121900Z 10008KT 9999 FEW040 26/18 Q1015=
2012061220 - METAR SBKG 122000Z 11008KT 9999 FEW030 25/18 Q1015=
2012061221 - METAR SBKG 122100Z 10008KT 9999 FEW020 24/19 Q1016=
2012061222 - Mensagem METAR de 'SBKG' para 12/06/2012 as 22(UTC) não localizada na base de dados da REDEMET
2012061223 - Mensagem METAR de 'SBKG' para 12/06/2012 as 23(UTC) não localizada na base de dados da REDEMET
2012061300 - Mensagem METAR de 'SBKG' para 13/06/2012 as 00(UTC) não localizada na base de dados da REDEMET
2012061301 - Mensagem METAR de 'SBKG' para 13/06/2012 as 01(UTC) não localizada na base de dados da REDEMET
2012061302 - Mensagem METAR de 'SBKG' para 13/06/2012 as 02(UTC) não localizada na base de dados da REDEMET
2012061303 - Mensagem METAR de 'SBKG' para 13/06/2012 as 03(UTC) não localizada na base de dados da REDEMET
2012061303 - SPECI SBKG 130315Z 12003KT 9999 BKN012 20/19 Q1016=
2012061304 - METAR SBKG 130400Z 12004KT 9999 -RA BKN012 20/20 Q1016=
2012061305 - METAR SBKG 130500Z 15006KT 9999 BKN010 21/20 Q1016=
2012061306 - METAR SBKG 130600Z 16006KT 4000 -RA BKN010 SCT025 20/20 Q1016=
2012061307 - METAR SBKG 130700Z 15005KT 9999 BKN010 SCT025 20/20 Q1016=
2012061308 - METAR SBKG 130800Z 16006KT 9999 BKN010 SCT025 20/20 Q1016=
2012061309 - METAR SBKG 130900Z 12003KT 9999 SCT010 20/20 Q1017=
2012061310 - METAR SBKG 131000Z 16006KT 9999 FEW012 SCT015 21/20 Q1017=
2012061311 - METAR SBKG 131100Z 16010KT 9999 SCT015 BKN019 23/20 Q1018=
2012061312 - METAR COR SBKG 131200Z 17009KT 9999 SCT016 BKN020 24/19 Q1018=
2012061313 - METAR SBKG 131300Z 15010KT 9999 VCSH SCT018 BKN020 24/19 Q1018=
2012061314 - METAR SBKG 131400Z 12007KT 9999 BKN020 27/20 Q1017=
2012061315 - METAR SBKG 131500Z 15011KT 9999 BKN025 26/20 Q1017=
2012061316 - METAR SBKG 131600Z 16011KT 9999 BKN030 28/19 Q1016=
2012061317 - METAR SBKG 131700Z 16009KT 9999 BKN036 28/18 Q1015=
2012061318 - METAR SBKG 131800Z 14010KT 9999 SCT038 28/19 Q1015=
2012061319 - METAR SBKG 131900Z 11009KT 9999 SCT039 27/19 Q1015=
2012061320 - METAR SBKG 132000Z 12010KT CAVOK 26/19 Q1015=
2012061321 - METAR SBKG 132100Z 12008KT CAVOK 24/19 Q1016=
2012061322 - Mensagem METAR de 'SBKG' para 13/06/2012 as 22(UTC) não localizada na base de dados da REDEMET
2012061323 - Mensagem METAR de 'SBKG' para 13/06/2012 as 23(UTC) não localizada na base de dados da REDEMET
2012061400 - Mensagem METAR de 'SBKG' para 14/06/2012 as 00(UTC) não localizada na base de dados da REDEMET
2012061401 - Mensagem METAR de 'SBKG' para 14/06/2012 as 01(UTC) não localizada na base de dados da REDEMET
2012061402 - Mensagem METAR de 'SBKG' para 14/06/2012 as 02(UTC) não localizada na base de dados da REDEMET
2012061403 - Mensagem METAR de 'SBKG' para 14/06/2012 as 03(UTC) não localizada na base de dados da REDEMET
2012061403 - SPECI SBKG 140315Z 18005KT 9999 BKN015 22/19 Q1017=
2012061404 - METAR SBKG 140400Z 16004KT 9999 BKN013 21/20 Q1016=
2012061405 - METAR SBKG 140500Z 17009KT 5000 -RA SCT006 BKN010 20/20 Q1016=
2012061406 - METAR SBKG 140600Z 19007KT 9999 BKN015 20/20 Q1015=
2012061407 - METAR SBKG 140700Z 17008KT 9999 BKN015 20/20 Q1015=
2012061408 - METAR SBKG 140800Z 18007KT 9999 BKN015 20/20 Q1016=
2012061409 - METAR SBKG 140900Z 18006KT 3000 -RA BR SCT006 BKN010 20/20 Q1016=
2012061410 - METAR SBKG 141000Z 16012KT 5000 BR SCT008 BKN012 OVC070 20/20 Q1017=
2012061411 - METAR SBKG 141100Z 18006KT 3000 -DZ SCT008 BKN012 OVC070 21/20 Q1018=
2012061412 - METAR SBKG 141200Z 18008KT 3000 -RADZ SCT009 BKN012 OVC070 21/20 Q1018=
2012061412 - SPECI SBKG 141220Z 17014KT 8000 SCT010 BKN016 BKN070 21/20 Q1017=
2012061413 - METAR SBKG 141300Z 18013KT 9000 SCT016 BKN028 BKN080 23/20 Q1017 -=
2012061414 - METAR SBKG 141400Z 14012KT 9999 SCT025 SCT035 BKN090 25/19 Q1017=
2012061415 - METAR SBKG 141500Z 15012KT 9999 VCSH FEW025 SCT028 BKN080 22/19 Q1017=
2012061416 - METAR SBKG 141600Z 15011KT 9999 SCT018 BKN040 27/18 Q1016=
2012061417 - METAR SBKG 141700Z 11009KT 9999 FEW018 BKN030 27/19 Q1015=
2012061418 - METAR COR SBKG 141800Z 14011KT 9999 BKN030 26/18 Q1015=
2012061419 - METAR SBKG 141900Z 16011KT 9999 FEW025 27/17 Q1015=
2012061420 - METAR SBKG 142000Z 13008KT CAVOK 22/19 Q1016=
2012061421 - METAR SBKG 142100Z 14008KT 9999 FEW040 22/17 Q1016=
2012061422 - Mensagem METAR de 'SBKG' para 14/06/2012 as 22(UTC) não localizada na base de dados da REDEMET
2012061423 - Mensagem METAR de 'SBKG' para 14/06/2012 as 23(UTC) não localizada na base de dados da REDEMET
2012061500 - Mensagem METAR de 'SBKG' para 15/06/2012 as 00(UTC) não localizada na base de dados da REDEMET
2012061501 - Mensagem METAR de 'SBKG' para 15/06/2012 as 01(UTC) não localizada na base de dados da REDEMET
2012061502 - Mensagem METAR de 'SBKG' para 15/06/2012 as 02(UTC) não localizada na base de dados da REDEMET
2012061503 - Mensagem METAR de 'SBKG' para 15/06/2012 as 03(UTC) não localizada na base de dados da REDEMET
2012061503 - SPECI SBKG 150315Z 19005KT 9999 SCT035 19/17 Q1017=
2012061504 - METAR SBKG 150400Z 21004KT 9999 SCT020 SCT032 19/18 Q1017=
2012061505 - METAR SBKG 150500Z 21003KT 9999 FEW016 18/17 Q1017=
2012061506 - METAR SBKG 150600Z 17004KT CAVOK 18/17 Q1017=
2012061507 - METAR SBKG 150700Z 17003KT 9999 SCT013 18/17 Q1016=
2012061508 - METAR SBKG 150800Z 15003KT CAVOK 18/18 Q1016=
2012061509 - METAR SBKG 150900Z 10001KT 9999 FEW013 18/18 Q1017=
2012061510 - METAR SBKG 151000Z 18005KT 9999 SCT015 BKN100 20/19 Q1017=
2012061511 - METAR SBKG 151100Z 16008KT 9999 SCT015 BKN020 BKN100 20/19 Q1017=
2012061512 - METAR SBKG 151200Z 17010KT 9999 SCT016 BKN020 24/19 Q1018=
2012061513 - METAR SBKG 151300Z 14011KT 9999 BKN023 25/19 Q1018=
2012061514 - METAR SBKG 151400Z 11010KT 9999 SCT016 BKN020 26/19 Q1017=
2012061515 - METAR SBKG 151500Z 12012KT 9999 SCT031 27/17 Q1017=
2012061516 - METAR SBKG 151600Z 09011KT 9999 BKN040 27/17 Q1016=
2012061517 - METAR SBKG 151700Z 11009KT 9999 FEW040 28/18 Q1015=
2012061518 - METAR SBKG 151800Z 10011KT 9999 SCT040 28/17 Q1014=
2012061519 - METAR SBKG 151900Z 11010KT 9999 SCT040 27/18 Q1015=
2012061520 - METAR SBKG 152000Z 11010KT 9999 SCT030 24/19 Q1015=
2012061521 - METAR SBKG 152100Z 10010KT 9999 FEW025 23/18 Q1016=
2012061522 - Mensagem METAR de 'SBKG' para 15/06/2012 as 22(UTC) não localizada na base de dados da REDEMET
2012061523 - Mensagem METAR de 'SBKG' para 15/06/2012 as 23(UTC) não localizada na base de dados da REDEMET
2012061600 - Mensagem METAR de 'SBKG' para 16/06/2012 as 00(UTC) não localizada na base de dados da REDEMET
2012061601 - Mensagem METAR de 'SBKG' para 16/06/2012 as 01(UTC) não localizada na base de dados da REDEMET
2012061602 - Mensagem METAR de 'SBKG' para 16/06/2012 as 02(UTC) não localizada na base de dados da REDEMET
2012061603 - Mensagem METAR de 'SBKG' para 16/06/2012 as 03(UTC) não localizada na base de dados da REDEMET
2012061603 - SPECI SBKG 160315Z 14002KT 9999 FEW015 20/19 Q1017=
2012061604 - METAR SBKG 160400Z 11003KT 9999 FEW015 20/19 Q1017=
2012061605 - METAR SBKG 160500Z 12002KT 9999 FEW015 19/19 Q1017=
2012061606 - METAR SBKG 160600Z 00000KT CAVOK 19/19 Q1016=
2012061607 - METAR SBKG 160700Z 11001KT CAVOK 19/19 Q1016=
2012061608 - METAR SBKG 160800Z 15004KT CAVOK 19/19 Q1017=
2012061609 - METAR SBKG 160900Z 18004KT 9999 SCT015 BKN020 20/20 Q1017=
2012061610 - METAR SBKG 161000Z 16006KT 8000 FEW009 SCT016 BKN080 21/20 Q1018=
2012061611 - METAR SBKG 161100Z 14008KT 9999 FEW016 BKN100 22/19 Q1018=
2012061612 - METAR COR SBKG 161200Z 14010KT 9999 BKN018 BKN100 23/19 Q1019=
2012061613 - METAR SBKG 161300Z 13009KT 9999 VCSH BKN018 BKN100 24/19 Q1019=
2012061614 - METAR SBKG 161400Z 14012KT 9999 BKN018 BKN100 25/19 Q1018=
2012061615 - METAR SBKG 161500Z 11008KT 9999 BKN030 SCT100 27/18 Q1017=
2012061616 - METAR SBKG 161600Z 17009KT 9999 FEW040 28/16 Q1016=
2012061617 - METAR SBKG 161700Z 13008KT 9999 FEW040 SCT090 28/15 Q1016=
2012061618 - METAR SBKG 161800Z 12007KT 9999 FEW040 29/15 Q1016=
2012061619 - METAR SBKG 161900Z 13007KT 9999 FEW040 27/15 Q1016=
2012061620 - METAR SBKG 162000Z 13006KT CAVOK 26/16 Q1016=
2012061621 - METAR SBKG 162100Z 12005KT CAVOK 24/17 Q1017=
2012061622 - Mensagem METAR de 'SBKG' para 16/06/2012 as 22(UTC) não localizada na base de dados da REDEMET
2012061623 - Mensagem METAR de 'SBKG' para 16/06/2012 as 23(UTC) não localizada na base de dados da REDEMET
2012061700 - Mensagem METAR de 'SBKG' para 17/06/2012 as 00(UTC) não localizada na base de dados da REDEMET
2012061701 - Mensagem METAR de 'SBKG' para 17/06/2012 as 01(UTC) não localizada na base de dados da REDEMET
2012061702 - Mensagem METAR de 'SBKG' para 17/06/2012 as 02(UTC) não localizada na base de dados da REDEMET
2012061703 - Mensagem METAR de 'SBKG' para 17/06/2012 as 03(UTC) não localizada na base de dados da REDEMET
2012061703 - SPECI SBKG 170315Z 12002KT CAVOK 18/17 Q1017=
2012061704 - METAR SBKG 170400Z 14003KT CAVOK 19/17 Q1017=
2012061705 - METAR SBKG 170500Z 16004KT CAVOK 19/17 Q1016=
2012061706 - METAR SBKG 170600Z 18004KT CAVOK 19/17 Q1016=
2012061707 - METAR SBKG 170700Z 13003KT CAVOK 18/16 Q1017=
2012061708 - METAR SBKG 170800Z 13003KT 9999 BKN020 18/17 Q1017=
2012061709 - METAR SBKG 170900Z 09001KT CAVOK 18/17 Q1018=
2012061710 - METAR SBKG 171000Z 00000KT CAVOK 23/18 Q1018=
2012061711 - METAR SBKG 171100Z 17007KT CAVOK 24/18 Q1019=
2012061712 - METAR SBKG 171200Z 14009KT CAVOK 27/16 Q1019=
2012061713 - METAR SBKG 171300Z 14009KT CAVOK 28/16 Q1019=
2012061714 - METAR SBKG 171400Z 13008KT CAVOK 29/16 Q1018=
2012061715 - METAR SBKG 171500Z 12010KT 9999 FEW030 30/14 Q1018=
2012061716 - METAR SBKG 171600Z 12007KT 9999 FEW040 30/16 Q1017=
2012061717 - METAR SBKG 171700Z 10008KT 9999 FEW040 30/15 Q1016=
2012061718 - METAR SBKG 171800Z 10012KT 9999 FEW040 30/16 Q1015=
2012061719 - METAR SBKG 171900Z 10014KT 9999 FEW040 28/18 Q1016=
2012061720 - METAR SBKG 172000Z 10012KT 9999 FEW030 25/20 Q1016=
2012061721 - METAR SBKG 172100Z 10011KT 9999 SCT020 24/20 Q1017=
2012061722 - Mensagem METAR de 'SBKG' para 17/06/2012 as 22(UTC) não localizada na base de dados da REDEMET
2012061723 - Mensagem METAR de 'SBKG' para 17/06/2012 as 23(UTC) não localizada na base de dados da REDEMET
2012061800 - Mensagem METAR de 'SBKG' para 18/06/2012 as 00(UTC) não localizada na base de dados da REDEMET
2012061801 - Mensagem METAR de 'SBKG' para 18/06/2012 as 01(UTC) não localizada na base de dados da REDEMET
2012061802 - Mensagem METAR de 'SBKG' para 18/06/2012 as 02(UTC) não localizada na base de dados da REDEMET
2012061803 - Mensagem METAR de 'SBKG' para 18/06/2012 as 03(UTC) não localizada na base de dados da REDEMET
2012061803 - SPECI SBKG 180315Z 00000KT CAVOK 20/19 Q0101=
2012061804 - METAR SBKG 180400Z 14002KT CAVOK 20/19 Q1017=
2012061805 - METAR SBKG 180500Z 17003KT 9999 SCT012 BKN015 20/19 Q1016=
2012061805 - SPECI SBKG 180510Z 18003KT 9999 BKN013 20/19 Q1016=
2012061806 - METAR SBKG 180600Z 16003KT 9999 BKN013 20/19 Q1016=
2012061807 - METAR SBKG 180700Z 17002KT 9999 BKN013 20/19 Q1016=
2012061808 - METAR SBKG 180800Z 17005KT 9999 BKN014 21/19 Q1017=
2012061809 - METAR SBKG 180900Z 14006KT 9999 BKN014 21/19 Q1017=
2012061809 - SPECI SBKG 180915Z 13005KT 9999 SCT010 BKN015 21/19 Q1017=
2012061810 - METAR COR SBKG 181000Z 12007KT 9999 6000SE VCSH SCT010 BKN015 21/20 Q1017=
2012061811 - METAR SBKG 181100Z 14009KT 9999 6000 SW VCSH SCT010 BKN015 23/20 Q1018=
2012061812 - METAR SBKG 181200Z 15010KT 9999 SCT015 BKN018 24/20 Q1018=
2012061813 - METAR SBKG 181300Z 14009KT 9999 BKN020 25/20 Q1018=
2012061814 - METAR SBKG 181400Z 14008KT 9999 BKN025 28/20 Q1017=
2012061815 - METAR SBKG 181500Z 10008KT 9999 BKN025 28/20 Q1016=
2012061816 - METAR SBKG 181600Z 15011KT 9999 VCSH SCT016 BKN021 28/21 Q1016=
2012061817 - METAR SBKG 181700Z 10008KT 9999 SCT018 BKN025 25/22 Q1015=
2012061818 - METAR SBKG 181800Z 10007KT 9999 SCT018 BKN025 25/21 Q1015=
2012061819 - METAR SBKG 181900Z 05005KT 9999 8000S VCSH SCT019 BKN028 FEW032TCU 26/21 Q1016=
2012061820 - METAR SBKG 182000Z 13006KT 5000 -RA SCT004 BKN015 BKN022 22/21 Q1016=
2012061821 - METAR SBKG 182100Z 10006KT 6000 -RA SCT006 BKN016 BKN021 22/22 Q1017=
2012061822 - Mensagem METAR de 'SBKG' para 18/06/2012 as 22(UTC) não localizada na base de dados da REDEMET
2012061823 - Mensagem METAR de 'SBKG' para 18/06/2012 as 23(UTC) não localizada na base de dados da REDEMET
2012061900 - Mensagem METAR de 'SBKG' para 19/06/2012 as 00(UTC) não localizada na base de dados da REDEMET
2012061901 - Mensagem METAR de 'SBKG' para 19/06/2012 as 01(UTC) não localizada na base de dados da REDEMET
2012061902 - Mensagem METAR de 'SBKG' para 19/06/2012 as 02(UTC) não localizada na base de dados da REDEMET
2012061903 - Mensagem METAR de 'SBKG' para 19/06/2012 as 03(UTC) não localizada na base de dados da REDEMET
2012061903 - SPECI SBKG 190315Z 13007KT 6000 SCT006 BKN010 21/21 Q1017=
2012061904 - METAR SBKG 190400Z 15006KT 6000 SCT006 BKN010 21/21 Q1017=
2012061905 - METAR SBKG 190500Z 15005KT 6000 SCT006 BKN010 21/21 Q1017=
2012061906 - METAR SBKG 190600Z 18006KT 5000 BR SCT006 BKN010 21/21 Q1016=
2012061906 - SPECI SBKG 190640Z 16005KT 3000 -RA BR SCT006 BKN010 21/20 Q1017=
2012061907 - METAR SBKG 190700Z 17006KT 5000 BR SCT006 BKN010 21/21 Q1017=
2012061908 - METAR SBKG 190800Z 15004KT 6000 SCT006 BKN010 21/20 Q1017=
2012061909 - METAR SBKG 190900Z 17006KT 2000 -RA BR SCT006 BKN010 21/20 Q1017=
2012061909 - SPECI SBKG 190930Z 15003KT 5000 BR SCT007 BKN012 BKN090 21/21 Q1017=
2012061910 - METAR SBKG 191000Z 18004KT 9000 FEW007 SCT012 BKN080 21/21 Q1018=
2012061911 - METAR SBKG 191100Z 17004KT 9999 SCT012 SCT023 BKN070 23/21 Q1018=
2012061912 - METAR COR SBKG 191200Z 16008KT 9999 BKN016 BKN024 OVC070 23/20 Q1019=
2012061913 - METAR SBKG 191300Z 15007KT 9999 8000S VCSH BKN016 BKN026 OVC070 23/20 Q1019=
2012061914 - METAR SBKG 191400Z 15009KT 6000 -RA SCT014 BKN028 OVC080 22/21 Q1019=
2012061915 - METAR SBKG 191500Z 11008KT 5000 -RA BKN013 BKN020 BKN080 22/21 Q1018=
2012061916 - METAR SBKG 191600Z 14006KT 4500 -RA BR FEW005 BKN012 BKN080 21/21 Q1017=
2012061916 - SPECI SBKG 191628Z 16008KT 3000 -RA BR SCT005 BKN010 OVC070 22/21 Q1017=
2012061917 - METAR SBKG 191700Z 14008KT 2500 -RA BR SCT005 BKN010 OVC070 21/20 Q1017=
2012061918 - METAR SBKG 191800Z 14004KT 6000 2900SE VCSH SCT005 BKN012 OVC070 21/20 Q1017=
2012061919 - METAR SBKG 191900Z 11006KT 2000 -RA BR SCT007 BKN010 OVC070 21/20 Q1017=
2012061920 - METAR SBKG 192000Z 11006KT 2000 RA BR SCT004 BKN009 OVC070 21/20 Q1017=
2012061921 - METAR SBKG 192100Z 13004KT 1500 RA BR SCT005 BKN010 OVC070 21/21 Q1017=
2012061922 - Mensagem METAR de 'SBKG' para 19/06/2012 as 22(UTC) não localizada na base de dados da REDEMET
2012061923 - Mensagem METAR de 'SBKG' para 19/06/2012 as 23(UTC) não localizada na base de dados da REDEMET
2012062000 - Mensagem METAR de 'SBKG' para 20/06/2012 as 00(UTC) não localizada na base de dados da REDEMET
2012062001 - Mensagem METAR de 'SBKG' para 20/06/2012 as 01(UTC) não localizada na base de dados da REDEMET
2012062002 - Mensagem METAR de 'SBKG' para 20/06/2012 as 02(UTC) não localizada na base de dados da REDEMET
2012062003 - Mensagem METAR de 'SBKG' para 20/06/2012 as 03(UTC) não localizada na base de dados da REDEMET
2012062003 - SPECI SBKG 200315Z 11005KT 2000 -RA SCT006 BKN014 OVC070 20/20 Q1018=
2012062004 - METAR SBKG 200400Z 11005KT 2000 -RA BR BKN009 BKN017 OVC070 20/20 Q1018=
2012062004 - SPECI SBKG 200430Z 10002KT 5000 -RA SCT011 BKN019 BKN070 20/20 Q1017=
2012062005 - METAR SBKG 200500Z 10004KT 5000 -RA BR SCT006 BKN013 OVC070 20/20 Q1017=
2012062006 - METAR SBKG 200600Z 14004KT 5000 -RA BR SCT003 BKN014 OVC070 20/20 Q1017=
2012062006 - SPECI SBKG 200620Z 17005KT 8000 -RA SCT018 OVC070 20/20 Q1017=
2012062007 - METAR SBKG 200700Z 15005KT 9999 FEW018 OVC070 20/20 Q1017=
2012062008 - METAR SBKG 200800Z 10002KT 9999 -RA FEW024 OVC080 20/19 Q1017=
2012062009 - METAR SBKG 200900Z 00000KT CAVOK 20/19 Q1017=
2012062010 - METAR SBKG 201000Z 19005KT CAVOK 21/18 Q1018=
2012062011 - METAR SBKG 201100Z 16004KT CAVOK 22/19 Q1018=
2012062012 - METAR SBKG 201200Z 15005KT CAVOK 24/20 Q1019=
2012062013 - METAR SBKG 201300Z 15008KT CAVOK 25/20 Q1018=
2012062014 - METAR SBKG 201400Z 14008KT 9999 SCT021 SCT100 26/21 Q1018=
2012062015 - METAR SBKG 201500Z 12008KT 9999 SCT025 BKN100 28/20 Q1017=
2012062016 - METAR SBKG 201600Z 11009KT 9999 FEW040 BKN090 29/20 Q1016=
2012062017 - METAR SBKG 201700Z 12010KT 9999 FEW040 SCT090 28/21 Q1015=
2012062018 - METAR SBKG 201800Z 11009KT 9999 FEW040 SCT080 28/20 Q1015=
2012062019 - METAR SBKG 201900Z 11008KT CAVOK 26/19 Q1015=
2012062020 - METAR SBKG 202000Z 11005KT CAVOK 25/19 Q1015=
2012062021 - METAR SBKG 202100Z 11004KT CAVOK 23/19 Q1015=
2012062022 - Mensagem METAR de 'SBKG' para 20/06/2012 as 22(UTC) não localizada na base de dados da REDEMET
2012062023 - Mensagem METAR de 'SBKG' para 20/06/2012 as 23(UTC) não localizada na base de dados da REDEMET
2012062100 - Mensagem METAR de 'SBKG' para 21/06/2012 as 00(UTC) não localizada na base de dados da REDEMET
2012062101 - Mensagem METAR de 'SBKG' para 21/06/2012 as 01(UTC) não localizada na base de dados da REDEMET
2012062102 - Mensagem METAR de 'SBKG' para 21/06/2012 as 02(UTC) não localizada na base de dados da REDEMET
2012062103 - Mensagem METAR de 'SBKG' para 21/06/2012 as 03(UTC) não localizada na base de dados da REDEMET
2012062103 - SPECI SBKG 210315Z 11004KT CAVOK 21/20 Q1017=
2012062104 - METAR SBKG 210400Z 13003KT CAVOK 20/20 Q1016=
2012062105 - METAR SBKG 210500Z 15002KT CAVOK 20/20 Q1016=
2012062106 - METAR SBKG 210600Z 15005KT 9999 BKN012 20/20 Q1015=
2012062107 - METAR SBKG 210700Z 14004KT 9999 BKN012 21/20 Q1015=
2012062108 - METAR SBKG 210800Z 16004KT 9999 SCT015 BKN070 21/21 Q1015=
2012062109 - METAR SBKG 210900Z 17005KT 9999 SCT013 BKN070 21/20 Q1016=
2012062110 - METAR SBKG 211000Z 14003KT 9999 SCT014 BKN080 22/21 Q1017=
2012062111 - METAR SBKG 211100Z 13004KT 9999 VCSH BKN015 BKN080 23/21 Q1017=
2012062112 - METAR SBKG 211200Z 15007KT 9999 BKN015 SCT080 24/21 Q1018=
2012062113 - METAR SBKG 211300Z 11007KT 9999 BKN020 27/20 Q1017=
2012062114 - METAR SBKG 211400Z 11009KT 9999 BKN025 28/20 Q1017=
2012062115 - METAR SBKG 211500Z 10008KT 9999 SCT025 29/20 Q1016=
2012062116 - METAR SBKG 211600Z 12010KT 9999 SCT040 29/21 Q1015=
2012062117 - METAR SBKG 211700Z 12011KT 9999 SCT040 28/21 Q1014=
2012062118 - METAR SBKG 211800Z 10013KT 9999 SCT040 28/21 Q1014=
2012062119 - METAR SBKG 211900Z 12014KT 9999 SCT040 26/20 Q1015=
2012062120 - METAR SBKG 212000Z 10010KT 9999 SCT030 24/21 Q1015=
2012062121 - METAR SBKG 212100Z 10008KT 9999 SCT020 22/20 Q1015=
2012062122 - METAR SBKG 212200Z 11008KT 9999 SCT020 22/21 Q1016=
2012062123 - Mensagem METAR de 'SBKG' para 21/06/2012 as 23(UTC) não localizada na base de dados da REDEMET
2012062200 - Mensagem METAR de 'SBKG' para 22/06/2012 as 00(UTC) não localizada na base de dados da REDEMET
2012062201 - Mensagem METAR de 'SBKG' para 22/06/2012 as 01(UTC) não localizada na base de dados da REDEMET
2012062202 - Mensagem METAR de 'SBKG' para 22/06/2012 as 02(UTC) não localizada na base de dados da REDEMET
2012062203 - Mensagem METAR de 'SBKG' para 22/06/2012 as 03(UTC) não localizada na base de dados da REDEMET
2012062203 - SPECI SBKG 220315Z 11009KT 5000 -RA BR BKN008 BKN011 OVC085 21/21 Q1016=
2012062204 - METAR SBKG 220400Z 11011KT 4500 -RA BR BKN008 BKN010 OVC085 21/21 Q1016=
2012062205 - METAR SBKG 220500Z 11010KT 5000 BR BKN009 SCT012 OVC070 21/21 Q1015=
2012062206 - METAR SBKG 220600Z 12009KT 6000 SCT005 BKN008 BKN070 21/21 Q1015=
2012062207 - METAR SBKG 220700Z 09007KT 3000 -RA BR SCT005 BKN008 OVC070 21/21 Q1015=
2012062208 - METAR SBKG 220800Z 11007KT 4000 BR SCT005 BKN008 BKN080 21/21 Q1016=
2012062209 - METAR SBKG 220900Z 11006KT 6000 0800SE BCFG BKN006 BKN010 BKN070 21/21 Q1016=
2012062210 - METAR SBKG 221000Z 11005KT 2000 BR SCT006 BKN010 BKN080 21/21 Q1016=
2012062211 - METAR SBKG 221100Z 11007KT 2000 BR BKN010 OVC070 22/21 Q1017=
2012062211 - SPECI SBKG 221120Z 12007KT 8000 BKN010 OVC070 22/21 Q1018=
2012062212 - METAR SBKG 221200Z 12010KT 5000 -RA BR BKN011 OVC070 23/21 Q1018=
2012062213 - METAR SBKG 221300Z 11011KT 2000 -RA BKN011 OVC070 21/20 Q1018=
2012062214 - METAR SBKG 221400Z 12009KT 9999 SCT013 OVC070 23/21 Q1018=
2012062215 - METAR SBKG 221500Z 11009KT 9999 -RA SCT015 OVC080 23/20 Q1017=
2012062216 - METAR SBKG 221600Z 11006KT 9999 SCT019 SCT024 25/21 Q1017=
2012062217 - METAR SBKG 221700Z 12008KT 9999 8000S VCSH FEW017 SCT028 BKN090 25/20 Q1016=
2012062218 - METAR SBKG 221800Z 09007KT 5000 -RA BR BKN018 BKN028 BKN070 22/20 Q1016=
2012062219 - METAR SBKG 221900Z 09009KT 4000 -RA SCT010 BKN015 21/20 Q1017=
2012062220 - METAR SBKG 222000Z 10006KT 3000 -RA SCT006 BKN010 21/20 Q1017=
2012062221 - METAR SBKG 222100Z 06007KT 3000 -RA SCT006 BKN010 20/20 Q1018=
2012062222 - METAR SBKG 222200Z 07003KT 5000 -RA SCT006 OVC070 20/20 Q1018=
2012062223 - METAR SBKG 222300Z 34002KT 8000 -RA SCT007 BKN028 OVC070 20/20 Q1019=
2012062300 - METAR SBKG 230000Z 35002KT 9999 FEW015 OVC070 20/20 Q1019=
2012062300 - SPECI SBKG 230045Z 17001KT 9999 FEW014 BKN070 20/20 Q1020=
2012062301 - Mensagem METAR de 'SBKG' para 23/06/2012 as 01(UTC) não localizada na base de dados da REDEMET
2012062302 - Mensagem METAR de 'SBKG' para 23/06/2012 as 02(UTC) não localizada na base de dados da REDEMET
2012062303 - Mensagem METAR de 'SBKG' para 23/06/2012 as 03(UTC) não localizada na base de dados da REDEMET
2012062303 - SPECI SBKG 230315Z 06003KT CAVOK 21/21 Q1019=
2012062304 - METAR SBKG 230400Z 06003KT CAVOK 21/21 Q1018=
2012062305 - METAR SBKG 230500Z 00000KT 9999 BKN013 OVC070 21/21 Q1018=
2012062306 - METAR SBKG 230600Z 00000KT 9999 BKN010 OVC070 21/20 Q1018=
2012062307 - METAR SBKG 230700Z 00000KT 9999 SCT009 SCT080 21/20 Q1018=
2012062308 - METAR SBKG 230800Z 15002KT 9999 FEW009 BKN080 21/20 Q1018=
2012062309 - METAR SBKG 230900Z 11003KT CAVOK 21/21 Q1019=
2012062310 - METAR SBKG 231000Z 10004KT 9999 SCT020 22/21 Q1019=
2012062311 - METAR SBKG 231100Z 12005KT 9999 SCT025 24/21 Q1020=
2012062312 - METAR SBKG 231200Z 09008KT 9999 SCT025 26/20 Q1020=
2012062313 - Mensagem METAR de 'SBKG' para 23/06/2012 as 13(UTC) não localizada na base de dados da REDEMET
2012062314 - METAR SBKG 231400Z 13006KT 9999 SCT030 26/20 Q1020=
2012062315 - METAR SBKG 231500Z 12008KT 9999 SCT030 27/20 Q1019=
2012062316 - METAR SBKG 231600Z 12008KT 9999 SCT038 28/20 Q1018=
2012062317 - METAR SBKG 231700Z 06008KT 9999 SCT028 FEW030TCU 28/19 Q1018=
2012062318 - METAR SBKG 231800Z 08007KT 9999 SCT040 28/20 Q1018=
2012062319 - METAR SBKG 231900Z 11011KT 9999 SCT025 27/20 Q1017=
2012062320 - METAR SBKG 232000Z 10009KT 9999 FEW023 25/20 Q1018=
2012062321 - METAR SBKG 232100Z 09009KT 9999 FEW021 23/20 Q1018=
2012062322 - METAR SBKG 232200Z 09007KT CAVOK 22/20 Q1019=
2012062323 - METAR SBKG 232300Z 10006KT 9999 FEW019 21/20 Q1019=
2012062400 - Mensagem METAR de 'SBKG' para 24/06/2012 as 00(UTC) não localizada na base de dados da REDEMET
2012062401 - Mensagem METAR de 'SBKG' para 24/06/2012 as 01(UTC) não localizada na base de dados da REDEMET
2012062402 - Mensagem METAR de 'SBKG' para 24/06/2012 as 02(UTC) não localizada na base de dados da REDEMET
2012062403 - Mensagem METAR de 'SBKG' para 24/06/2012 as 03(UTC) não localizada na base de dados da REDEMET
2012062403 - SPECI SBKG 240315Z 11004KT 9999 SCT018 20/20 Q1020=
2012062404 - METAR SBKG 240400Z 11004KT 9999 SCT018 20/19 Q1019=
2012062405 - METAR SBKG 240500Z 17003KT 9999 SCT018 20/19 Q1019=
2012062406 - METAR SBKG 240600Z 17003KT 9999 SCT018 19/19 Q1019=
2012062407 - METAR SBKG 240700Z 18002KT 9999 SCT018 19/19 Q1019=
2012062408 - METAR SBKG 240800Z 14005KT 9999 SCT018 20/19 Q1019=
2012062409 - METAR SBKG 240900Z 13003KT 9999 SCT018 20/19 Q1019=
2012062410 - METAR SBKG 241000Z 16006KT CAVOK 22/19 Q1020=
2012062411 - METAR SBKG 241100Z 16012KT 9999 FEW018 24/19 Q1020=
2012062412 - METAR SBKG 241200Z 17013KT 9999 SCT021 25/19 Q1020=
2012062413 - METAR SBKG 241300Z 15012KT 9999 SCT028 27/18 Q1020=
2012062414 - METAR SBKG 241400Z 15011KT 9999 BKN035 28/17 Q1019=
2012062415 - METAR SBKG 241500Z 16010KT 9999 BKN037 28/18 Q1018=
2012062416 - METAR SBKG 241600Z 15012KT 9999 BKN037 28/17 Q1017=
2012062417 - METAR SBKG 241700Z 16011KT 9999 SCT040 28/17 Q1016=
2012062418 - METAR SBKG 241800Z 12010KT 9999 SCT040 28/17 Q1016=
2012062419 - METAR SBKG 241900Z 13010KT 9999 BKN040 27/17 Q1016=
2012062420 - METAR SBKG 242000Z 14009KT 9999 SCT020 25/18 Q1017=
2012062421 - METAR SBKG 242100Z 14006KT 9999 FEW020 22/18 Q1017=
2012062422 - METAR SBKG 242200Z 14008KT CAVOK 22/19 Q1017=
2012062423 - METAR SBKG 242300Z 17005KT CAVOK 21/19 Q1018=
2012062500 - Mensagem METAR de 'SBKG' para 25/06/2012 as 00(UTC) não localizada na base de dados da REDEMET
2012062501 - Mensagem METAR de 'SBKG' para 25/06/2012 as 01(UTC) não localizada na base de dados da REDEMET
2012062501 - SPECI SBKG 250115Z 19006KT 9999 SCT022 SCT090 21/19 Q1018=
2012062502 - METAR SBKG 250200Z 15004KT 9999 SCT016 SCT090 21/19 Q1018=
2012062503 - METAR SBKG 250300Z 17004KT 9999 VCSH FEW015 BKN018 20/20 Q1018=
2012062504 - METAR SBKG 250400Z 17003KT 9999 SCT013 SCT028 BKN090 20/20 Q1017=
2012062505 - METAR SBKG 250500Z 15004KT 9000 BKN009 BKN015 21/20 Q1017=
2012062505 - SPECI SBKG 250528Z 16005KT 4500 -RA BKN009 BKN015 20/20 Q1017=
2012062506 - METAR SBKG 250600Z 16005KT 5000 -RA SCT009 BKN013 OVC080 20/20 Q1017=
2012062507 - METAR SBKG 250700Z 12003KT 4000 -RA SCT007 BKN012 OVC070 20/20 Q1017=
2012062508 - METAR SBKG 250800Z 13004KT 3000 RA SCT004 BKN010 BKN014 20/20 Q1017=
2012062509 - METAR SBKG 250900Z 15010KT 3000 RA SCT005 BKN012 OVC070 20/20 Q1018=
2012062510 - METAR SBKG 251000Z 17006KT 1500 -RA BR BKN005 BKN010 OVC070 20/20 Q1018=
2012062511 - METAR SBKG 251100Z 18006KT 2000 -RA BR SCT005 BKN010 OVC070 20/20 Q1019=
2012062512 - METAR SBKG 251200Z 17007KT 2000 -RA BR SCT005 BKN010 OVC070 20/20 Q1019=
2012062513 - METAR SBKG 251300Z 18006KT 2000 -RA BR SCT005 BKN010 BKN070 21/20 Q1018=
2012062514 - METAR SBKG 251400Z 17008KT 6000 2500W VCSH SCT006 BKN010 OVC070 22/21 Q1017=
2012062514 - SPECI SBKG 251444Z 14010KT 9999 VCSH SCT006 BKN015 OVC080 22/20 Q1018=
2012062515 - METAR SBKG 251500Z 17008KT 9999 FEW006 BKN015 BKN080 22/20 Q1018=
2012062516 - METAR SBKG 251600Z 16009KT 9999 SCT020 OVC070 25/19 Q1017=
2012062517 - METAR SBKG 251700Z 16009KT 9999 VCSH BKN018 BKN080 26/20 Q1016=
2012062518 - METAR SBKG 251800Z 14005KT 9999 VCSH BKN020 BKN080 21/20 Q1016=
2012062518 - SPECI SBKG 251845Z 15008KT 5000 -RA SCT009 BKN020 BKN080 20/20 Q1017=
2012062518 - SPECI SBKG 251815Z 12005KT 2000 -RA BR BKN018 BKN080 22/20 Q1016=
2012062519 - METAR SBKG 251900Z 15006KT 5000 -RA SCT009 SCT020 BKN080 20/20 Q1017=
2012062520 - METAR SBKG 252000Z 18005KT 9999 SCT020 BKN080 21/20 Q1017=
2012062521 - METAR SBKG 252100Z 22005KT 9999 FEW020 BKN080 21/20 Q1017=
2012062522 - Mensagem METAR de 'SBKG' para 25/06/2012 as 22(UTC) não localizada na base de dados da REDEMET
2012062523 - Mensagem METAR de 'SBKG' para 25/06/2012 as 23(UTC) não localizada na base de dados da REDEMET
2012062500 - Mensagem METAR de 'SBKG' para 25/06/2012 as 00(UTC) não localizada na base de dados da REDEMET
2012062501 - Mensagem METAR de 'SBKG' para 25/06/2012 as 01(UTC) não localizada na base de dados da REDEMET
2012062501 - SPECI SBKG 250115Z 19006KT 9999 SCT022 SCT090 21/19 Q1018=
2012062502 - METAR SBKG 250200Z 15004KT 9999 SCT016 SCT090 21/19 Q1018=
2012062503 - METAR SBKG 250300Z 17004KT 9999 VCSH FEW015 BKN018 20/20 Q1018=
2012062504 - METAR SBKG 250400Z 17003KT 9999 SCT013 SCT028 BKN090 20/20 Q1017=
2012062505 - METAR SBKG 250500Z 15004KT 9000 BKN009 BKN015 21/20 Q1017=
2012062505 - SPECI SBKG 250528Z 16005KT 4500 -RA BKN009 BKN015 20/20 Q1017=
2012062506 - METAR SBKG 250600Z 16005KT 5000 -RA SCT009 BKN013 OVC080 20/20 Q1017=
2012062507 - METAR SBKG 250700Z 12003KT 4000 -RA SCT007 BKN012 OVC070 20/20 Q1017=
2012062508 - METAR SBKG 250800Z 13004KT 3000 RA SCT004 BKN010 BKN014 20/20 Q1017=
2012062509 - METAR SBKG 250900Z 15010KT 3000 RA SCT005 BKN012 OVC070 20/20 Q1018=
2012062510 - METAR SBKG 251000Z 17006KT 1500 -RA BR BKN005 BKN010 OVC070 20/20 Q1018=
2012062511 - METAR SBKG 251100Z 18006KT 2000 -RA BR SCT005 BKN010 OVC070 20/20 Q1019=
2012062512 - METAR SBKG 251200Z 17007KT 2000 -RA BR SCT005 BKN010 OVC070 20/20 Q1019=
2012062513 - METAR SBKG 251300Z 18006KT 2000 -RA BR SCT005 BKN010 BKN070 21/20 Q1018=
2012062514 - METAR SBKG 251400Z 17008KT 6000 2500W VCSH SCT006 BKN010 OVC070 22/21 Q1017=
2012062514 - SPECI SBKG 251444Z 14010KT 9999 VCSH SCT006 BKN015 OVC080 22/20 Q1018=
2012062515 - METAR SBKG 251500Z 17008KT 9999 FEW006 BKN015 BKN080 22/20 Q1018=
2012062516 - METAR SBKG 251600Z 16009KT 9999 SCT020 OVC070 25/19 Q1017=
2012062517 - METAR SBKG 251700Z 16009KT 9999 VCSH BKN018 BKN080 26/20 Q1016=
2012062518 - METAR SBKG 251800Z 14005KT 9999 VCSH BKN020 BKN080 21/20 Q1016=
2012062518 - SPECI SBKG 251845Z 15008KT 5000 -RA SCT009 BKN020 BKN080 20/20 Q1017=
2012062518 - SPECI SBKG 251815Z 12005KT 2000 -RA BR BKN018 BKN080 22/20 Q1016=
2012062519 - METAR SBKG 251900Z 15006KT 5000 -RA SCT009 SCT020 BKN080 20/20 Q1017=
2012062520 - METAR SBKG 252000Z 18005KT 9999 SCT020 BKN080 21/20 Q1017=
2012062521 - METAR SBKG 252100Z 22005KT 9999 FEW020 BKN080 21/20 Q1017=
2012062522 - Mensagem METAR de 'SBKG' para 25/06/2012 as 22(UTC) não localizada na base de dados da REDEMET
2012062523 - Mensagem METAR de 'SBKG' para 25/06/2012 as 23(UTC) não localizada na base de dados da REDEMET
2012062600 - Mensagem METAR de 'SBKG' para 26/06/2012 as 00(UTC) não localizada na base de dados da REDEMET
2012062701 - Mensagem METAR de 'SBKG' para 27/06/2012 as 01(UTC) não localizada na base de dados da REDEMET
2012062702 - Mensagem METAR de 'SBKG' para 27/06/2012 as 02(UTC) não localizada na base de dados da REDEMET
2012062703 - Mensagem METAR de 'SBKG' para 27/06/2012 as 03(UTC) não localizada na base de dados da REDEMET
2012062703 - SPECI SBKG 270315Z 18007KT 9999 FEW018 SCT046 19/18 Q1020=
2012062704 - METAR SBKG 270400Z 18006KT 9999 FEW016 19/18 Q1019=
2012062705 - METAR SBKG 270500Z 19005KT 9999 FEW016 19/18 Q1019=
2012062706 - METAR SBKG 270600Z 20006KT 9999 FEW016 18/18 Q1019=
2012062707 - METAR SBKG 270700Z 17004KT CAVOK 18/17 Q1019=
2012062708 - METAR SBKG 270800Z 16003KT 9999 FEW017 18/17 Q1019=
2012062709 - METAR SBKG 270900Z 19006KT 9999 BKN016 19/18 Q1019=
2012062710 - METAR SBKG 271000Z 18008KT 9999 FEW012 21/18 Q1020=
2012062711 - METAR SBKG 271100Z 17012KT 9999 FEW013 23/18 Q1020=
2012062712 - METAR SBKG 271200Z 15011KT 9999 SCT018 24/18 Q1020=
2012062713 - METAR SBKG 271300Z 16012KT 9999 BKN025 26/18 Q1020=
2012062714 - METAR SBKG 271400Z 15012KT 9999 BKN030 26/18 Q1020=
2012062715 - METAR SBKG 271500Z 13010KT 9999 BKN030 27/19 Q1019=
2012062716 - METAR SBKG 271600Z 14012KT 9999 SCT030 27/18 Q1018=
2012062717 - METAR SBKG 271700Z 10008KT 9999 BKN030 26/18 Q1018=
2012062718 - METAR SBKG 271800Z 12006KT 9999 BKN025 24/20 Q1018=
2012062719 - METAR SBKG 271900Z 15009KT 9999 8000NE VCSH FEW012 SCT028 23/21 Q1018=
2012062720 - METAR SBKG 272000Z 11005KT 9999 SCT021 SCT040 BKN090 22/20 Q1018=
2012062721 - METAR SBKG 272100Z 12006KT 9999 SCT018 BKN031 BKN080 21/20 Q1019=
2012062722 - METAR SBKG 272200Z 18006KT 9999 SCT015 BKN018 21/20 Q1019=
2012062723 - METAR SBKG 272300Z 15006KT 9999 BKN018 20/19 Q1020=
2012062800 - Mensagem METAR de 'SBKG' para 28/06/2012 as 00(UTC) não localizada na base de dados da REDEMET
2012062800 - SPECI SBKG 280015Z 17005KT 9999 VCSH BKN010 SCT024 20/20 Q1020=
2012062801 - METAR SBKG 280100Z 18007KT 5000 -RA BKN010 SCT024 BKN070 20/19 Q1020=
2012062802 - METAR SBKG 280200Z 19005KT 5000 -RA SCT007 BKN011 OVC070 20/19 Q1019=
2012062803 - METAR SBKG 280300Z 21005KT 4000 -RA BKN007 BKN011 OVC070 20/19 Q1019=
2012062803 - SPECI SBKG 280330Z 18004KT 3000 -RA BR BKN005 OVC070 20/19 Q1018=
2012062804 - METAR SBKG 280400Z 22004KT 3000 -RA BR BKN005 OVC070 20/19 Q1018=
2012062804 - SPECI SBKG 280440Z 22004KT 3000 -RA SCT005 BKN008 OVC070 20/19 Q1018=
2012062805 - METAR SBKG 280500Z 21005KT 3000 -RA SCT005 BKN007 OVC070 20/19 Q1018=
2012062805 - SPECI SBKG 280520Z 20004KT 3000 RA SCT005 BKN007 OVC070 20/19 Q1018=
2012062806 - METAR SBKG 280600Z 21005KT 9999 -RA BKN005 SCT013 OVC070 20/20 Q1017 RERA=
2012062807 - METAR SBKG 280700Z 22004KT 5000 -RA BKN005 SCT013 OVC070 20/20 Q1018=
2012062808 - METAR SBKG 280800Z 21002KT 3000 RA BKN005 OVC070 20/20 Q1018=
2012062808 - SPECI SBKG 280845Z 22004KT 1500 -RA BR BKN005 OVC070 20/20 Q1018 RERA=
2012062809 - METAR SBKG 280900Z 23003KT 0500 -RA FG BKN005 OVC070 20/20 Q1018=
2012062810 - METAR SBKG 281000Z 20003KT 2500 -RA BR SCT003 BKN010 OVC070 20/20 Q1019=
2012062811 - METAR SBKG 281100Z 16006KT 2500 RA BR SCT006 BKN010 OVC070 20/20 Q1020=
2012062812 - METAR SBKG 281200Z 18004KT 2500 RA BR SCT006 BKN010 OVC070 21/20 Q1020 RERA=
2012062813 - METAR SBKG 281300Z 12004KT 3000 -RA BR SCT006 BKN010 OVC070 21/21 Q1020 RERA=
2012062814 - METAR SBKG 281400Z 14004KT 2500 RA BR SCT006 BKN010 OVC070 20/20 Q1020=
2012062815 - METAR SBKG 281500Z 08006KT 2500 RA BR SCT006 BKN010 OVC070 20/20 Q1019 RERA=
2012062815 - SPECI SBKG 281535Z 03006KT 5000 -RA SCT006 BKN012 OVC070 21/20 Q1018 RERA=
2012062816 - METAR SBKG 281600Z 07004KT 2000 -RA BR BKN005 BKN014 OVC070 20/20 Q1018 RERA=
2012062817 - METAR SBKG 281700Z 08007KT 2000 RA BR SCT006 BKN010 OVC070 21/20 Q1018=
2012062817 - SPECI SBKG 281728Z 11005KT 5000 -RA SCT006 BKN016 BKN070 21/20 Q1018 RERA=
2012062818 - METAR SBKG 281800Z 10005KT 9999 SCT006 BKN015 BKN070 22/21 Q1017 RERA=
2012062819 - METAR SBKG 281900Z 14006KT 9999 SCT010 BKN015 BKN070 22/20 Q1018=
2012062820 - METAR SBKG 282000Z 13007KT 9999 SCT012 BKN015 22/20 Q1018=
2012062821 - METAR SBKG 282100Z 09005KT 9999 SCT015 SCT028 BKN070 21/20 Q1018=
2012062821 - SPECI SBKG 282152Z 07006KT 9999 SCT010 BKN014 BKN070 21/20 Q1019=
2012062822 - Mensagem METAR de 'SBKG' para 28/06/2012 as 22(UTC) não localizada na base de dados da REDEMET
2012062823 - Mensagem METAR de 'SBKG' para 28/06/2012 as 23(UTC) não localizada na base de dados da REDEMET
2012062900 - Mensagem METAR de 'SBKG' para 29/06/2012 as 00(UTC) não localizada na base de dados da REDEMET
2012062901 - Mensagem METAR de 'SBKG' para 29/06/2012 as 01(UTC) não localizada na base de dados da REDEMET
2012062902 - Mensagem METAR de 'SBKG' para 29/06/2012 as 02(UTC) não localizada na base de dados da REDEMET
2012062903 - Mensagem METAR de 'SBKG' para 29/06/2012 as 03(UTC) não localizada na base de dados da REDEMET
2012062903 - SPECI SBKG 290315Z 18006KT 9999 SCT018 20/19 Q1019=
2012062904 - METAR SBKG 290400Z 16006KT 9999 SCT018 20/19 Q1018=
2012062905 - METAR SBKG 290500Z 16003KT 9999 SCT018 19/19 Q1018=
2012062906 - METAR SBKG 290600Z 16004KT 9999 SCT018 29/28 Q1018=
2012062907 - METAR SBKG 290700Z 18004KT 9999 SCT018 19/18 Q1018=
2012062908 - METAR SBKG 290800Z 27002KT 9999 SCT018 18/18 Q1018=
2012062909 - METAR SBKG 290900Z 28002KT 9999 SCT018 18/18 Q1018=
2012062910 - METAR SBKG 291000Z 30001KT 9999 FEW028 SCT080 20/19 Q1019=
2012062911 - METAR SBKG 291100Z 15004KT 9999 SCT017 BKN018 BKN080 22/19 Q1019=
2012062912 - METAR SBKG 291200Z 14007KT 9999 SCT017 BKN032 23/19 Q1020=
2012062913 - METAR SBKG 291300Z 13010KT 9999 8000S VCSH SCT020 FEW026TCU BKN028 BKN080 23/18 Q1019=
2012062914 - METAR SBKG 291400Z 10007KT 9999 SCT032 BKN080 24/20 Q1019=
2012062915 - METAR SBKG 291500Z 13009KT 9999 - SCT035 27/18 Q1018=
2012062916 - METAR SBKG 291600Z 17007KT 9999 SCT034 26/17 Q1017=
2012062917 - METAR SBKG 291700Z 14006KT 9999 SCT045 27/17 Q1016=
2012062918 - METAR SBKG 291800Z 14010KT CAVOK 26/15 Q1016=
2012062919 - METAR SBKG 291900Z 13008KT CAVOK 26/16 Q1016=
2012062920 - METAR SBKG 292000Z 12005KT CAVOK 24/16 Q1017=
2012062921 - METAR SBKG 292100Z 15005KT CAVOK 21/17 Q1017=
2012062922 - METAR SBKG 292200Z 14004KT CAVOK 20/16 Q1017=
2012062923 - Mensagem METAR de 'SBKG' para 29/06/2012 as 23(UTC) não localizada na base de dados da REDEMET
2012063000 - Mensagem METAR de 'SBKG' para 30/06/2012 as 00(UTC) não localizada na base de dados da REDEMET
2012063001 - Mensagem METAR de 'SBKG' para 30/06/2012 as 01(UTC) não localizada na base de dados da REDEMET
2012063002 - Mensagem METAR de 'SBKG' para 30/06/2012 as 02(UTC) não localizada na base de dados da REDEMET
2012063003 - Mensagem METAR de 'SBKG' para 30/06/2012 as 03(UTC) não localizada na base de dados da REDEMET
2012063003 - SPECI SBKG 300315Z 06001KT CAVOK 18/17 Q1018=
2012063004 - METAR SBKG 300400Z 16003KT CAVOK 18/17 Q1017=
2012063005 - METAR SBKG 300500Z 13003KT CAVOK 18/17 Q1017=
2012063006 - METAR SBKG 300600Z 11004KT 9999 SCT019 19/17 Q1016=
2012063007 - METAR SBKG 300700Z 09002KT CAVOK 18/17 Q1016=
2012063008 - METAR SBKG 300800Z 12002KT CAVOK 18/17 Q1016=
2012063009 - METAR SBKG 300900Z 14002KT 9999 SCT013 BKN085 19/18 Q1017=
2012063010 - METAR SBKG 301000Z 13004KT 9999 FEW037 SCT090 22/19 Q1018=
2012063011 - METAR SBKG 301100Z 12007KT 9999 SCT021 BKN032 BKN080 23/20 Q1018=
2012063012 - METAR SBKG 301200Z 11009KT 9999 VCSH SCT015 SCT018 BKN080 21/19 Q1018=
2012063013 - METAR SBKG 301300Z 11010KT 9999 SCT018 BKN032 24/19 Q1018=
2012063014 - METAR SBKG 301400Z 11011KT 9999 BKN024 25/19 Q1017=
2012063015 - METAR SBKG 301500Z 10011KT 9999 BKN029 26/19 Q1017=
2012063016 - METAR SBKG 301600Z 11011KT 9999 BKN028 26/19 Q1016=
2012063017 - METAR SBKG 301700Z 11008KT 9999 VCSH BKN028 24/21 Q1016=
2012063018 - METAR SBKG 301800Z 11007KT 9999 VCSH BKN027 26/19 Q1016=
2012063019 - METAR SBKG 301900Z 12009KT CAVOK 26/18 Q1016=
2012063020 - METAR SBKG 302000Z 15009KT CAVOK 24/17 Q1016=
2012063021 - METAR SBKG 302100Z 14008KT 9999 FEW020 22/16 Q1017=
2012063022 - METAR SBKG 302200Z 12006KT CAVOK 21/16 Q1017=
2012063023 - METAR SBKG 302300Z 12003KT CAVOK 20/16 Q1018=